ID,Name,Latitude,Longitude,Phone,Email,Address,Web,Categoria
98185,The Madrid Edition,40.418273900000,-3.706468100000,(+34) 914 36 13 82,,"de las Descalzas, s/n",http://www.esmadrid.com/alojamientos/madrid-edition,alojamientos
97833,Oxygen Hostel,40.403528800000,-3.692084400000,+34 686 81 12 61,oxygenmadrid19@gmail.com,"Rafael Riego, 19",http://www.esmadrid.com/alojamientos/oxygen-hostel,alojamientos
97799,Canopy by Hilton Madrid Castellana ,40.451381600000,-3.693585400000,+34 911 44 04 45,,"Carlos Trías Bertrán, 4",http://www.esmadrid.com/alojamientos/canopy-hilton-madrid-castellana,alojamientos
97373,"Atocha Hotel Madrid, Tapestry Collection by Hilton",40.410605900000,-3.695301100000,+34 610 44 01 15,tapestryatocha@hilton.com,"Atocha, 107",http://www.esmadrid.com/alojamientos/atocha-hotel-madrid-tapestry-collection-hilton,alojamientos
97242,Hard Rock Hotel Madrid,40.406521900000,-3.695527500000,,reservations@hrhmadrid.com,"Ronda de Atocha, 17",http://www.esmadrid.com/alojamientos/hard-rock-hotel-madrid,alojamientos
97202,Hotel Novotel Madrid City Las Ventas ,40.441308900000,-3.657559700000,(+34)91 724 76 00,H0843@ACCOR.COM,"Albacete 1, Esquina Avenida de Badajoz",http://www.esmadrid.com/alojamientos/hotel-novotel-madrid-city-ventas,alojamientos
97116,Pestana CR7 Gran V&iacute;a Madrid,40.419955600000,-3.703284800000,917 71 02 40,guest@pestana.com,"Gran Vía, 29 ",http://www.esmadrid.com/alojamientos/pestana-cr7-gran-madrid,alojamientos
95433,Four Seasons Hotel Madrid,40.417008900000,-3.700388000000,(+ 34) 910 88 33 33,," de Sevilla, 3, ",http://www.esmadrid.com/alojamientos/four-seasons-hotel-madrid,alojamientos
94629,Apartahotel Las Matas Tartesos,40.531696400000,-3.890689000000,(+34) 91 640 00 55,,"Pollensa, 5",http://www.esmadrid.com/alojamientos/apartahotel-matas-tartesos,alojamientos
94628,Hotel Las Gacelas,40.710999500000,-3.994158000000,(34) 918 538 000,reservas@hotel-lasgacelas.com,"de San Sebastián, 53",http://www.esmadrid.com/alojamientos/hotel-gacelas,alojamientos
94627,Apartamentos Plaza de Santiago,40.245518600000,-3.700417400000,(+34) 91 691 55 00,reservas@apartamentosplazadesantiago.com,"de Santiago, 3",http://www.esmadrid.com/alojamientos/apartamentos-plaza-santiago,alojamientos
94626,Apartahotel TH Las Rozas,40.484121100000,-3.856662800000,(34) 916 37 09 00,reservas@thlasrozashotel.com,"Camino Viejo de Madrid, 38",http://www.esmadrid.com/alojamientos/apartahotel-th-rozas,alojamientos
94625,Apartamentos Suites Florida,40.449062300000,-3.582653300000,(34) 91 748 20 21 ,info@apartamentossuitesflorida.es,"Campezo, 2. Pol. Ind. Las Mercedes ",http://www.esmadrid.com/alojamientos/apartamentos-suites-florida,alojamientos
94624,Apartamentos Suites Aeropuerto,40.446415000000,-3.583444300000,(34) 917 48 067,info@apartamentossuitesaeropuerto.es,"Campezo, 8. Pol. Ind. Las Mercedes ",http://www.esmadrid.com/alojamientos/apartamentos-suites-aeropuerto,alojamientos
94622,Tryp Madrid Airport Suites,40.445569200000,-3.543607400000,(34) 913 29 70 50,reservas.tryp.madrid.airport.suites@melia.com,"Lola Flores, 4 - 17",http://www.esmadrid.com/alojamientos/tryp-madrid-airport-suites,alojamientos
94085, Room Mate Macarena,40.420589000000,-3.706897000000,(+34) 900 818 320.,macarena@room-matehotels.com.,"Gran Vía, 43 ",http://www.esmadrid.com/alojamientos/room-mate-macarena,alojamientos
92607,Hotel Riu Plaza Espa&ntilde;a,40.423924002208,-3.711015474118,(+34) 91 919 33 93,reservations.madrid@riu.com,"Gran Vía, 84",http://www.esmadrid.com/alojamientos/hotel-riu-plaza-espana,alojamientos
91946,Bluesock Madrid,40.419516700000,-3.697880200000,(+34) 91 005 29 79,madrid@bluesockhostels.com,"Gran Vía, 6",http://www.esmadrid.com/alojamientos/bluesock-madrid,alojamientos
91932,Aloft Gran V&iacute;a Madrid,40.420307800000,-3.707138700000,(+34) 91 454 95 95,,"de Jacometrezo, 4",http://www.esmadrid.com/alojamientos/aloft-gran-madrid,alojamientos
91856,Pestana Plaza Mayor,40.414766800000,-3.707053600000,(+34) 91 005 28 22,guest@pestana.com,"Imperial, 8",http://www.esmadrid.com/alojamientos/pestana-plaza-mayor,alojamientos
90190,B&amp;B Hotel Madrid Centro Puerta del Sol,40.417564300000,-3.702557900000,(+34) 914 890 591,hotel.puertadelsol@hotelbb.com,"de la Montera, 10 - 12",http://www.esmadrid.com/alojamientos/bb-hotel-madrid-centro-puerta-sol,alojamientos
89775,CoolRooms Atocha,40.413214200000,-3.701095100000,(+34) 91 088 77 80,reservations.atocha@coolrooms.com,"de Atocha, 34",http://www.esmadrid.com/alojamientos/coolrooms-atocha,alojamientos
89653,Heritage Madrid Hotel,40.434877000000,-3.678943800000,(+34) 910 887 070,info@heritagemadridhotel.com,"de Diego de León, 43",http://www.esmadrid.com/alojamientos/heritage-madrid-hotel,alojamientos
89532,Generator Hostel Madrid,40.420798700000,-3.708101900000,(+34) 91 047 98 00,ask.madrid@generatorhostels.com,"de San Bernardo, 2",http://www.esmadrid.com/alojamientos/generator-hostel-madrid,alojamientos
89204,Hotel Icon Casona 1900 by Petit Palace,40.429130941737,-3.685861538827,(+34) 91 156 71 71,casona1900@petitpalace.com,"de Don Ramón de la Cruz, 10",http://www.esmadrid.com/alojamientos/hotel-icon-casona-1900-petit-palace,alojamientos
87984,Poshtel LaNave,40.421914700000,-3.715357600000,(+34) 911 376 329,reservas@lanavehostel.com,"de Cadarso, 19",http://www.esmadrid.com/alojamientos/poshtel-lanave,alojamientos
87832,NH Collection Madrid Gran V&iacute;a,40.419813100000,-3.701277700000,(+34) 91 712 83 05, nhcollectiongranvia@nh-hotels.com,"Gran Vía, 21",http://www.esmadrid.com/alojamientos/nh-collection-madrid-gran,alojamientos
87809,Barcel&oacute; Imagine,40.470196157478,-3.685238510370,(+34) 91 732 70 19,imagine@barcelo.com,"de Agustín de Foxá, 32",http://www.esmadrid.com/alojamientos/barcelo-imagine,alojamientos
87788,Plaza Espa&ntilde;a Skyline by Bemate,40.422468700000,-3.715398000000,(+34) 91 594 71 06,info@bemate.com,"de Cadarso, 18",http://www.esmadrid.com/alojamientos/plaza-espana-skyline-bemate,alojamientos
87606,Gran Hotel Ingl&eacute;s,40.415962500000,-3.699661000000,(+34) 91 056 93 84,welcome@granhotelingles.com,"Echegaray, 8",http://www.esmadrid.com/alojamientos/gran-hotel-ingles,alojamientos
87565,VP Plaza Espa&ntilde;a Design,40.422704185855,-3.711751553711,(+34) 91 595 55 10 ,vp-plaza@vphoteles.com,"de España, 5",http://www.esmadrid.com/alojamientos/vp-plaza-espana-design,alojamientos
87473,Hotel Dome Madrid,40.513148500000,-3.678075400000,(+34) 911 864 989,reservas@hoteldomemadrid.com,"de Fuencarral a Alcobendas, km 8",http://www.esmadrid.com/alojamientos/hotel-dome-madrid,alojamientos
87277,Vitium Urban Suites,40.422417300000,-3.709642800000,(+34) 911 164 144,info@vitium.es,"Gran Vía, 61, 5ª",http://www.esmadrid.com/alojamientos/vitium-urban-suites,alojamientos
86954,Bungalows Camping Alpha Madrid,40.317133566771,-3.688960075378,(+34) 916958069,info@campingalpha.com,de la Calidad,http://www.esmadrid.com/alojamientos/bungalows-camping-alpha-madrid,alojamientos
86753,Hyatt Centric Gran V&iacute;a Madrid,40.419988600000,-3.703756100000,(+34) 918 37 12 34,info.centricmadrid@hyatt.com,"Gran Vía, 31",http://www.esmadrid.com/alojamientos/hyatt-centric-gran-madrid,alojamientos
86464,La Casa de los Horrores,39.938723048330,-3.786463737488,(+34) 91 891 59 23, info@casadeloshorrores.com,de Villamejor,http://www.esmadrid.com/alojamientos/casa-horrores,alojamientos
85114,Axel Hotel Madrid,40.413361264672,-3.700584769249,+ 34 910 88 33 80,madrid@axelhotels.com,"Atocha, 49",http://www.esmadrid.com/alojamientos/axel-hotel-madrid,alojamientos
84730,"Hotel C&iacute;rculo Gran V&iacute;a, Autograph Collection",40.420109700000,-3.700832200000,+ 34 91 521 03 00,circulogranvia@circulogranvia.com,"Gran Vía, 24",http://www.esmadrid.com/alojamientos/hotel-circulo-gran-autograph-collection,alojamientos
82787,Barcel&oacute; Torre de Madrid,40.424369600000,-3.712326200000,(+34) 91 524 23 99,torredemadrid@barcelo.com,"de España, 18",http://www.esmadrid.com/alojamientos/barcelo-torre-madrid,alojamientos
82675,Ibis Madrid Centro Las Ventas,40.430615637390,-3.664230108261,(+34 )91 080 37 10,h7438@accor.com,"Julio Camba, 1",http://www.esmadrid.com/alojamientos/ibis-madrid-centro-ventas,alojamientos
82647,The Walt Madrid,40.421159972462,-3.702924996615,(+34) 91 531 71 11,info@thewaltmadrid.es,"del Barco, 3",http://www.esmadrid.com/alojamientos/walt-madrid,alojamientos
80541,DoubleTree by Hilton Madrid - Prado,40.415170200000,-3.696794600000,(+34) 91 360 08 20,Madrid_Prado_Info@hilton.com,"San Agustín, 3",http://www.esmadrid.com/alojamientos/doubletree-hilton-madrid-prado,alojamientos
79522,T&oacute;tem Madrid,40.426438239124,-3.685430288315,(+34) 91 426 00 35,info@totem-madrid.com,"Hermosilla, 23",http://www.esmadrid.com/alojamientos/totem-madrid,alojamientos
78018,Vincci The Mint,40.419578500000,-3.698562600000,(+34) 91 203 06 50,,"Gran Vía, 10",http://www.esmadrid.com/alojamientos/vincci-mint,alojamientos
77420,Only You Hotel Atocha,40.407290000000,-3.688120000000,+34 914 09 78 76,atocha@onlyyouhotels.com,"de la Infanta Isabel, 13",http://www.esmadrid.com/alojamientos/only-you-hotel-atocha,alojamientos
76684,Eurostars Central,40.427073500000,-3.698533300000,(+34) 91 396 71 80,reservas@eurostarscentral.com,"Mejia Lequerica, 10",http://www.esmadrid.com/alojamientos/eurostars-central,alojamientos
76363,Novotel Madrid Center,40.422072723627,-3.672437667847,(+34) 91 221 40 60,info@novotelmadridcenter.com,"O´Donnell, 53",http://www.esmadrid.com/alojamientos/novotel-madrid-center,alojamientos
74876,Dear Hotel,40.423357088519,-3.710468709469,(+34) 91 412 32 00,reservas@dearhotel.com,"Gran Vía, 80",http://www.esmadrid.com/alojamientos/dear-hotel,alojamientos
67867,Castilla II,40.415797564532,-3.704983592033,(+34) 91 532 57 38,info@hostalcastilla.com,"Marqués Viudo de Pontejos, 2",http://www.esmadrid.com/alojamientos/castilla-ii,alojamientos
67866,DormirDcine,40.436320100000,-3.679371900000,(+34) 91 411 08 09,info@dormirdcine.com,"Príncipe de Vergara, 87",http://www.esmadrid.com/alojamientos/dormirdcine,alojamientos
67865,NH Madrid Alonso Mart&iacute;nez,40.428725019095,-3.696223497391,(+34) 91 594 02 13,nhalonsomartinez@nh-hotels.com,"Santa Engracia, 5",http://www.esmadrid.com/alojamientos/nh-madrid-alonso-martinez,alojamientos
67864,The Hat,40.414312922895,-3.707070350647,(+34) 91 772 85 72,info@thehatmadrid.com,"Imperial, 9",http://www.esmadrid.com/alojamientos/the-hat,alojamientos
67863,URSO Hotel &amp; Spa Madrid,40.427005857836,-3.698079586029,(+34) 91 444 44 58,info@hotelurso.com,"Mejía Lequerica, 8",http://www.esmadrid.com/alojamientos/urso-hotel-spa-madrid,alojamientos
67862,One Shot 04,40.420925146334,-3.691336512566,(+34) 91 182 00 70,recoletos04@oneshothotels.com,"Salustiano Olózaga, 4",http://www.esmadrid.com/alojamientos/one-shot-04,alojamientos
67861,Hotel Indigo,40.420706655201,-3.707402944565,(+34) 91 200 85 85,info@indigomadrid.com,"de Silva, 6",http://www.esmadrid.com/alojamientos/hotel-indigo,alojamientos
67860,One Shot Luchana 22,40.430221592821,-3.700126111507,(+34) 91 292 29 40,luchana22@oneshothotels.com,"Luchana, 22",http://www.esmadrid.com/alojamientos/one-shot-luchana,alojamientos
67859,One Shot Prado 23,40.415108000000,-3.698133400000,(+34) 914 20 40 01,prado23@oneshothotels.com,"del Prado, 23",http://www.esmadrid.com/alojamientos/one-shot-prado-23,alojamientos
67858,Safestay Madrid,40.428008366952,-3.698248565197,+34 91445 03 00,reception-madrid@safestay.com,"Sagasta, 22",http://www.esmadrid.com/alojamientos/safestay-madrid,alojamientos
67857,La posada de El Chafl&aacute;n,40.466872400000,-3.674466400000,(+34) 91 345 04 50,posada@laposadadeelchaflan.com,"de Pío XII, 34",http://www.esmadrid.com/alojamientos/la-posada-de-el-chaflan,alojamientos
67856,Senator Barajas,40.458780778228,-3.582505881786,(+34) 91 747 13 55,reservas@playasenator.com,"del Galeón, 27",http://www.esmadrid.com/alojamientos/senator-barajas,alojamientos
67855,NH Collection Madrid Suecia,40.417817196366,-3.696282505989,(+34) 91 200 05 70,nhcollectionsuecia@nh-hotels.com,"Marqués de Casa Riera, 4",http://www.esmadrid.com/alojamientos/nh-collection-madrid-suecia,alojamientos
67854,Exe Moncloa,40.433731700000,-3.717543500000, (+34) 91 745 92 99,reservas@hotelexemoncloa.com,"Arcipreste de Hita, 10",http://www.esmadrid.com/alojamientos/exe-moncloa,alojamientos
67853,Only You Boutique Hotel Madrid,40.422220900000,-3.695704500000,(+34) 91 005 22 22,madrid@onlyyouhotels.com,"Barquillo, 21",http://www.esmadrid.com/alojamientos/only-you-boutique-hotel-madrid,alojamientos
67852,Hotel Travelodge Madrid Alcal&aacute;,40.437075200000,-3.631172000000,(+ 34) 91 260 84 40,madrid.alcala@travelodge.co.uk,"Santa Leonor, , 34",http://www.esmadrid.com/alojamientos/hotel-travelodge-madrid-alcala,alojamientos
67850,Holiday Inn Madrid - Calle Alcal&aacute;,40.439347800000,-3.632080600000,(+34) 91 375 68 00,info@himadrid.es,"Alcalá, 476",http://www.esmadrid.com/alojamientos/holiday-inn-madrid-calle-alcala,alojamientos
67849,Eurostars Plaza Mayor,40.413030900000,-3.703946300000,(+34) 91 330 86 60 ,reservas@eurostarsplazamayor.com,"Doctor Cortezo , 10",http://www.esmadrid.com/alojamientos/eurostars-plaza-mayor,alojamientos
67251,Lapepa Chic B&amp;B,40.415828196408,-3.695585131645,(+34) 648 47 47 42,hola@lapepa-bnb.com,"de las Cortes , 4-7º Drch.",http://www.esmadrid.com/alojamientos/lapepa-chic-b-b,alojamientos
67762,Artistic B&amp;B,40.413876407516,-3.698247894645,(+34) 654 368 611,info@artisticbandb.com,"Lope de Vega, 11. 3º",http://www.esmadrid.com/alojamientos/artistic-b-b,alojamientos
67761,Hotel Sardinero Madrid,40.427898900000,-3.695749500000,(34) 91 206 21 60 ,madrid@sardinerohoteles.com,"Alonso Martínez, 3",http://www.esmadrid.com/alojamientos/hotel-sardinero-madrid,alojamientos
67250,Artrip Hotel,40.407191600000,-3.700035900000,(+34) 91 539 32 82,info@artriphotel.com,"Valencia, 11",http://www.esmadrid.com/alojamientos/artrip-hotel,alojamientos
67847,Hotel Petit Palace Lealtad Plaza,40.416787988123,-3.691036105156,(+34) 91 522 45 47,lealtad@petitpalace.com,"Antonio Maura, 5",http://www.esmadrid.com/alojamientos/hotel-petit-palace-lealtad-plaza,alojamientos
67760,Hotel Petit Palace Savoy Alfonso XII,40.417167816808,-3.689335584641,(+34) 91 522 19 20,alfonsoxii@petitpalace.com,"Alfonso XII, 18",http://www.esmadrid.com/alojamientos/hotel-petit-palace-savoy-alfonso-xii,alojamientos
67759,Hotel Petit Palace Santa B&aacute;rbara,40.426438239124,-3.696341514587,(+34) 91 391 44 21,santabarbara@petitpalace.com,"Santa Bárbara, 10",http://www.esmadrid.com/alojamientos/hotel-petit-palace-santa-barbara,alojamientos
67758,La Posada del Drag&oacute;n,40.413124800000,-3.708570500000,(+34) 91 119 14 24,info@posadadeldragon.com,"Cava Baja, 14",http://www.esmadrid.com/alojamientos/la-posada-del-dragon,alojamientos
67846,Catalonia Plaza Mayor,40.413128900000,-3.700768700000,(+34) 91 369 44 09,plazamayor@cataloniahotels.com,"Atocha, 36",http://www.esmadrid.com/alojamientos/catalonia-plaza-mayor,alojamientos
67802,Catalonia Atocha,40.411858189077,-3.697924017906,(+34) 91 420 37 70,atocha@cataloniahotels.com,"Atocha, 81",http://www.esmadrid.com/alojamientos/catalonia-atocha,alojamientos
67757,Hotel NH Ribera del Manzanares,40.406323477313,-3.721554279327,(+34) 91 600 81 46,nhriberadelmanzanares@nh-hotels.com,"Virgen del Puerto, 57",http://www.esmadrid.com/alojamientos/hotel-nh-ribera-del-manzanares,alojamientos
67249,Posada del Le&oacute;n de Oro,40.413190740800,-3.708535507321,(+34) 91 119 14 94,info@posadadelleondeoro.com,"de la Cava Baja, 12",http://www.esmadrid.com/alojamientos/posada-del-leon-de-oro,alojamientos
67801,Hotel NH Collection Madrid Palacio de Tepa,40.413836800000,-3.701579900000,(+34) 91 389 64 90 ,nhcollectionpalaciodetepa@nh-hotels.com,"San Sebastián , 2",http://www.esmadrid.com/alojamientos/nh-palacio-de-tepa,alojamientos
67800,Suites 33,40.422135400000,-3.710495000000,(+34) 91 758 38 50,reservas@exesuites33.com,"Leganitos, 33",http://www.esmadrid.com/alojamientos/suites-33,alojamientos
67799,SHS Aeropuerto,40.449258000000,-3.548333000000,(+34) 91 746 70 80,aeropuerto@shshoteles.com,"del Aeropuerto, 22",http://www.esmadrid.com/alojamientos/shs-aeropuerto,alojamientos
67248,Barajas Plaza,40.473062900000,-3.577139400000,(+34) 91 301 00 81,hotelbarajasplaza@hotmail.com,"Camarillas , 5-7",http://www.esmadrid.com/alojamientos/barajas-plaza,alojamientos
67845,Crowne Plaza Madrid Airport,40.447240988852,-3.542017936707,(+34) 91 206 34 10 ,recepcion@crowneplazamadrid.com,"de Lola Flores, 1",http://www.esmadrid.com/alojamientos/crowne-plaza-madrid-airport,alojamientos
67626,Hotel  Nuevo Boston,40.449094346471,-3.576800823212,(+34) 91 748 16 13,info@hotelnuevoboston.com,"Aragón, 332",http://www.esmadrid.com/alojamientos/hotel-nuevo-boston,alojamientos
67798,Tach by Clement Hoteles,40.472905800000,-3.585369200000,(+34) 91 301 07 21,info@tach-hotel.es,"Timón, 35",http://www.esmadrid.com/alojamientos/tach-by-clement-hoteles,alojamientos
67797,Agora Juan de Austria,40.432109400000,-3.699241400000,(+34) 902 886 386,,"de Juan de Austria, 5",http://www.esmadrid.com/alojamientos/agora-juan-de-austria,alojamientos
67844,AC Atocha,40.403859800000,-3.690070200000,(+34) 91 506 22 21,acatocha@ac-hotels.com,"Delicias, 42",http://www.esmadrid.com/alojamientos/ac-atocha,alojamientos
67756,Hotel Santo Domingo,40.420678800000,-3.708356900000,(+34) 91 547 98 00,reserva@hotelsantodomingo.es,"San Bernardo, 1",http://www.esmadrid.com/alojamientos/hotel-santo-domingo,alojamientos
67619,Hostal Gala,40.419616230899,-3.708194196224,(+34) 91 032 51 19,info@hostalgala.com,"Costanilla de los Ángeles, 15",http://www.esmadrid.com/alojamientos/hostal-gala,alojamientos
67247,Espahotel Gran V&iacute;a,40.422617918079,-3.709979206324,(+34) 91 541 31 70,granvia@espahotel.es,"Gran Vía, 65",http://www.esmadrid.com/alojamientos/espahotel-gran-via,alojamientos
67755,The Principal Madrid Hotel,40.419357600000,-3.697188900000,(+34) 91 521 87 43,info@theprincipalmadridhotel.com,"Marqués de Valdeiglesias, 1",http://www.esmadrid.com/alojamientos/principal-madrid-hotel,alojamientos
67843,"Radisson Blu Hotel, Madrid Prado",40.412519873231,-3.694168925285,(+34) 91 524 26 26,info.madrid@radissonblu.com,"de Moratín, 52",http://www.esmadrid.com/alojamientos/radisson-blu-hotel-madrid-prado,alojamientos
67842,Mayerling,40.413449300000,-3.704942900000,(+34) 91 420 15 80,recepcion@mayerlinghotel.com ,"Conde de Romanones, 6",http://www.esmadrid.com/alojamientos/mayerling,alojamientos
67841,Urban Sea Atocha 113,40.410375502812,-3.694608807564,(+34) 91 369 28 95,recepcionatocha@blueseahotels.es,"Atocha , 113",http://www.esmadrid.com/alojamientos/urban-sea-atocha-113,alojamientos
67245,Axor Feria,40.447461434947,-3.583130836487,(+34) 91 312 23 79,info@axorhoteles.com,"Campezo, 4",http://www.esmadrid.com/alojamientos/axor-feria,alojamientos
67246,Axor Barajas Plus,40.447820678887,-3.583012819290,(+34) 91 312 19 60,info@axorhoteles.com,"Campezo, 4",http://www.esmadrid.com/alojamientos/axor-barajas-plus,alojamientos
67754,Oxum,40.422020100000,-3.699914600000,(+34) 91 521 71 79,hostaloxum@hotmail.es,"Hortaleza, 31, 3 Ext.",http://www.esmadrid.com/alojamientos/oxum,alojamientos
67244,Apartosuites Jardines de Sabatini,40.420970069657,-3.714907765389,(+34) 91 542 59 00,reservas@jardinesdesabatini.com,"Cuesta de San Vicente, 16",http://www.esmadrid.com/alojamientos/apartosuite-jardines-de-sabatini,alojamientos
67840,Mirador de Chamart&iacute;n,40.482964227116,-3.671085834503,(+34) 91 768 01 41,reservas@miradordechamartin.com,"del Arte, 14",http://www.esmadrid.com/alojamientos/mirador-de-chamartin,alojamientos
67747,&Aacute;rtico,40.436438700000,-3.715610100000,(+34) 91 543 15 12,,"Donoso Cortés, 69",http://www.esmadrid.com/alojamientos/artico,alojamientos
67751,Splendid,40.419757800000,-3.700231800000,(+34) 91 522 47 37 ,hostalsplendid@hotmail.com ,"Gran Vía, 15-5º A",http://www.esmadrid.com/alojamientos/splendid,alojamientos
67749,Felipe V,40.419818300000,-3.700161600000,(+34)  91 522 61 43,hostalfelipev@hostalfelipev.com,"Gran Vía, 15-4º d",http://www.esmadrid.com/alojamientos/felipe-v,alojamientos
67748,Los &Aacute;ngeles,40.447333000000,-3.702055800000,(+34) 91 533 03 75,,"Artistas, 18",http://www.esmadrid.com/alojamientos/los-angeles,alojamientos
67753,Suites Barrio de Salamanca,40.436356584452,-3.685717284679,(+34) 91 825 59 00,info@hotelbarriodesalamanca.es,"General Oraa, 17",http://www.esmadrid.com/alojamientos/suites-barrio-de-salamanca,alojamientos
67796,Hotel &Uacute;nico,40.428461600000,-3.686210800000,(+34) 91 781 01 73,info@unicohotelmadrid.com,"Claudio Coello, 67",http://www.esmadrid.com/alojamientos/hotel-unico,alojamientos
67795,Aparthotel Encasa,40.404695000000,-3.591358100000,(+34) 91 371 63 83,recepcion@aparthotelencasa.es,"Vicálvaro a la estación de O´Donnell, 18",http://www.esmadrid.com/alojamientos/aparthotel-encasa,alojamientos
67744,Rofer,40.408386282875,-3.710927367210,(+34) 91 366 39 69,hostalrofer@hostalrofer.com,"Toledo, 94 2-D",http://www.esmadrid.com/alojamientos/rofer,alojamientos
67746,Pensi&oacute;n Stella,40.420235300000,-3.705348200000,(+34) 915 31 14 84,gestionhostalesgv@gmail.com,"Gran Vía , 44, 5",http://www.esmadrid.com/alojamientos/pension-stella,alojamientos
67743,Rico,40.421998192956,-3.700819462538,(+34) 91 531 09 28,hostal.rico@hotmail.com,"de Fuencarral, 22-1º D",http://www.esmadrid.com/alojamientos/rico,alojamientos
67793,Matheu,40.415973700000,-3.701994900000,(+34) 91 521 49 43,reservas@hostalmatheu.com,"de la Victoria, 6",http://www.esmadrid.com/alojamientos/matheu,alojamientos
67790,Patria,40.416534767809,-3.705974668264,(+34) 91 366 21 87,hostal_patria_madrid@yahoo.es,"Mayor, 10 - 4º",http://www.esmadrid.com/alojamientos/patria,alojamientos
67742,Playa,40.416492400000,-3.703172400000,(+34) 91 521 38 44,info@hostalplaya.com ,"de la Victoria, 2-4º Izq.",http://www.esmadrid.com/alojamientos/playa,alojamientos
67745,Santa B&aacute;rbara,40.427418297204,-3.696502447128,(+34) 91 446 23 45,santabarbara_h@yahoo.es,"Santa Bárbara, 4-3º",http://www.esmadrid.com/alojamientos/santa-barbara,alojamientos
67741,Hostal Pacios,40.413385771061,-3.701652288437,(+34) 91 369 33 71 ,info@hostalpacios.es,"Atocha, 28-2º A",http://www.esmadrid.com/alojamientos/hostal-pacios,alojamientos
67740,Hostal Oriente,40.417839400000,-3.708986600000,(+34) 91 548 03 14,info@hostaloriente.es,"Arenal, 23-1º I",http://www.esmadrid.com/alojamientos/hostal-oriente,alojamientos
67839,Naranjos I,40.412865600000,-3.703823400000,(+34) 91 369 39 34,hostalnaranjos15@gmail.com,"Doctor Cortezo, 15-2º I",http://www.esmadrid.com/alojamientos/naranjos-i,alojamientos
67739,Pensi&oacute;n Mollo,40.410411000000,-3.695276000000,(+34) 91 528 71 76,,"Atocha, 104-4º",http://www.esmadrid.com/alojamientos/casa-de-huespedes-mollo,alojamientos
67738,Casa de hu&eacute;spedes La Muralla,40.421512900000,-3.701078300000,(+34)  911 260 076,info@hostalmurallas.com,"Fuencarral, 23-4º D",http://www.esmadrid.com/alojamientos/casa-de-huespedes-la-muralla,alojamientos
67788,Mendoza,40.419509000000,-3.703856900000,(+34) 91 531 39 50,,"Chinchilla, 4-1º D",http://www.esmadrid.com/alojamientos/mendoza,alojamientos
67787,Mayrit (Hostal Ivor y Hostal Mayrit ),40.417632800000,-3.707965600000,(+34) 91 548 04 03,reservas@hostalivor.com,"Arenal, 24-3º I",http://www.esmadrid.com/alojamientos/hostal-ivor-hostal-mayrit,alojamientos
67789,Hostal Miguel &Aacute;ngel,40.426146800000,-3.698146700000,(+34) 91 447 54 00,,"San Mateo, 21",http://www.esmadrid.com/alojamientos/hostal-miguel-angel,alojamientos
67243,Marlasca,40.415563800000,-3.701750700000,(+34) 91 521 48 38 ,correo@hostalmarlasca.net,"Cruz, 14-2º",http://www.esmadrid.com/alojamientos/marlasca,alojamientos
67242,Los Perales,40.426692700000,-3.707616000000,(+34) 91 522 71 91 ,,"La Palma , 61-1º Izq.",http://www.esmadrid.com/alojamientos/los-perales,alojamientos
67835,Internacional,40.416203400000,-3.699611300000,(+34) 91 429 62 09,contacto@hostalinternacional.com,"Echegaray, 5-2º D",http://www.esmadrid.com/alojamientos/internacional,alojamientos
67833,Guerra,40.416689500000,-3.701807300000,(+34) 91 522 55 77  ,contacto@hostalguerra.net,"San Jerónimo, 3",http://www.esmadrid.com/alojamientos/guerra,alojamientos
67834,Hostal Horizonte,40.413505700000,-3.701620600000,(+34) 91 369 09 96,info@hostalhorizonte.com,"Atocha, 28-2ºB",http://www.esmadrid.com/alojamientos/hostal-horizonte,alojamientos
67837,Alojamiento Ja&eacute;n,40.414309400000,-3.698094300000,(+34) 91 429 48 58,hjaen@aliste.info ,"Cervantes, 5-3º D",http://www.esmadrid.com/alojamientos/casa-de-huespedes-jaen,alojamientos
67838,Las Fuentes,40.417422900000,-3.708638300000,(+34) 91 542 18 53 ,reserva@hostallasfuentes.com,"Las Fuentes, 10-1º D",http://www.esmadrid.com/alojamientos/las-fuentes,alojamientos
67736,El Pasaje,40.416253500000,-3.701393200000,(+34) 91 521 29 95,reservas@elpasajehs.com,"Pozo, 4",http://www.esmadrid.com/alojamientos/el-pasaje,alojamientos
67737,Faustino,40.414911800000,-3.702637100000,(+34) 91 532 90 98,,"Cruz, 33",http://www.esmadrid.com/alojamientos/faustino,alojamientos
67735,El Catal&aacute;n,40.421449400000,-3.700349400000,(+34) 91 532 30 17 ,attcliente@hostalelcatalan.es,"Hortaleza, 17-2º I",http://www.esmadrid.com/alojamientos/el-catalan,alojamientos
67734,Edreira,40.411974700000,-3.698384600000,(+34) 91 429 01 84,miguelcarracedo@hostaledreira.com,"Atocha, 75-2º ",http://www.esmadrid.com/alojamientos/edreira,alojamientos
67733,Conchita II,40.419202800000,-3.709220200000,(+34) 915 47 50 61,,"Campomanes, 10-4º I",http://www.esmadrid.com/alojamientos/conchita-ii,alojamientos
67732,Abami 2,40.423293500000,-3.707524100000,(+34) 91 542 46 88,info@abami2.com,"San Bernardo, 35-2º I",http://www.esmadrid.com/alojamientos/abami-2,alojamientos
67832,Hostal Biarritz,40.416631200000,-3.701691500000,(+34) 91 521 92 12 ,hostalbiarritz@hotmail.com,"Victoria, 2-2º",http://www.esmadrid.com/alojamientos/hostal-biarritz,alojamientos
67731,Dom&iacute;nguez,40.424398000000,-3.700579300000,(+34) 91 532 15 47,,"Santa Brígida, 1-1º ",http://www.esmadrid.com/alojamientos/dominguez,alojamientos
67730,Aresol,40.416888300000,-3.705173300000,(+34) 91 521 58 67,,"Arenal , 6-3º",http://www.esmadrid.com/alojamientos/aresol,alojamientos
67725,Pensi&oacute;n Corbero,40.414172800000,-3.696228600000,(+34) 91 429 93 09,,"Cervantes, 34",http://www.esmadrid.com/alojamientos/pension-corbero,alojamientos
67726,Hostal del Pez Azul,40.423374800000,-3.704876400000,(+34) 91 532 47 45,,"Pez, 9-1º-D",http://www.esmadrid.com/alojamientos/hostal-del-pez-azul,alojamientos
67727,Florida,40.412842600000,-3.703950600000,(+34) 91 429 83 32,,"Doctor Cortezo, 15-3º D",http://www.esmadrid.com/alojamientos/florida,alojamientos
67728,Hispalense,40.417543400000,-3.708637300000,(+34) 91 542 18 52,info@hostalhispalense.es ,"Fuentes, 12, 2º izq",http://www.esmadrid.com/alojamientos/hispalense,alojamientos
67724,Hostal Chelo,40.421233800000,-3.700461800000,(+34) 91 532 70 33,reservas@chelo.com,"Hortaleza , 17-3º I",http://www.esmadrid.com/alojamientos/hostal-chelo,alojamientos
67831,Pensi&oacute;n Barja,40.422206600000,-3.703083300000,(+34) 91 521 04 64,pensionbarja@gmail.com ,"Puebla, 14-3º D",http://www.esmadrid.com/alojamientos/pension-barja,alojamientos
67786,Pensi&oacute;n Cartagenera,40.422206600000,-3.703083300000,(+34) 91 531 56 44,,"La puebla, 14-1º",http://www.esmadrid.com/alojamientos/pension-cartagenera,alojamientos
67241,Casa de Huespedes Casillas,40.420583100000,-3.700897100000,(+34) 91 522 41 16,info@hostalcasillas.es,"Hortaleza, 4-4º D",http://www.esmadrid.com/alojamientos/casa-huespedes-casillas,alojamientos
67723,Pensi&oacute;n Casado,40.412369300000,-3.701360900000,(+34) 91 369 36 30,,"Magdalena, 19-2º I",http://www.esmadrid.com/alojamientos/pension-casado,alojamientos
67785,Pensi&oacute;n Berti,40.420612500000,-3.700878700000,(+34) 918 27 56 71,,"Hortaleza, 7",http://www.esmadrid.com/alojamientos/pension-berti,alojamientos
67722,Hostal Bah&iacute;a Madrid,40.414920700000,-3.703192700000,(+34) 91 522 98 46,info@hostalbahiamadrid.com,"Carretas, 31, 2º-I",http://www.esmadrid.com/alojamientos/hostal-bahia-madrid,alojamientos
67240,Pensi&oacute;n Numancia,40.434940700000,-3.705209200000,(+34)  91 448 20 74,info@pensionnumancia.es,"Fernández de los Ríos, 3º-4º I",http://www.esmadrid.com/alojamientos/pension-numancia,alojamientos
67828,Alaska,40.415895200000,-3.702363000000,(+34) 91 524 92 08,hostalalaska@hotmail.com,"Espoz y Mina, 7-4º dch",http://www.esmadrid.com/alojamientos/alaska,alojamientos
67829,Angelines,40.433372000000,-3.716813100000,(+34) 91 543 56 40,info@hostalangelines.com,"Hilarión Eslava, 12-bajo",http://www.esmadrid.com/alojamientos/angelines,alojamientos
67720,Pensi&oacute;n Adeco,40.421794500000,-3.701032000000,(+34) 91 544 70 08,pensionadeco@hotmail.com,"Fuencarral, 27-2º",http://www.esmadrid.com/alojamientos/pension-adeco,alojamientos
67239,Ilunion Hotels Atrium,40.447567400000,-3.655261200000,(+34) 91 398 38 70,,"Emilio Vargas, 3 y 5",http://www.esmadrid.com/alojamientos/ilunion-hotels-atrium,alojamientos
67719,Jard&iacute;n Real de Mirasierra ,40.489281500000,-3.714098100000,(+34) 91 727 76 09,,"La Masó, 83",http://www.esmadrid.com/alojamientos/jardin-real-mirasierra,alojamientos
67716,NH Las Tablas,40.498427200000,-3.664821700000,(+34) 91 718 69 99 ,nhlastablas@nh-hotels.com,"Burgos, 131",http://www.esmadrid.com/alojamientos/nh-las-tablas,alojamientos
67717,Compostela Suites,40.447671200000,-3.580304100000,(+34) 91 748 00 90 ,info@compostelasuites.com,"Zambrana, 4",http://www.esmadrid.com/alojamientos/compostela-suites,alojamientos
67827,Los Coronales,40.466579000000,-3.590116700000,(+34) 91 748 15 45 ,reservas@hostalcoronales.com,"Briones, 38",http://www.esmadrid.com/alojamientos/los-coronales,alojamientos
67718,Apartamentos Madrid,40.408979000000,-3.691728000000,(+34) 628 21 67 66,info@apartamentosmadrid.com,"Atocha, 19-1 izq",http://www.esmadrid.com/alojamientos/apartamentos-madrid,alojamientos
67715,Rosewood Villa Magna,40.429951500000,-3.688152500000,(+34) 91 587 12 34,villamagna@rosewoodhotels.com,"Castellana, 22",http://www.esmadrid.com/alojamientos/rosewood-villa-magna,alojamientos
67826,Hotel Eco V&iacute;a Lusitana,40.372605200000,-3.742279100000,(+34) 91 511 03 80,ecovialusitana@ecohoteles.com,"Secoya, 2",http://www.esmadrid.com/alojamientos/hotel-eco-via-lusitana,alojamientos
67825,Eurostars Madrid Tower,40.476741677704,-3.687930107117,(+34) 91 334 27 00 ,reservations@eurostarsmadridtower.com,"de la Castellana, 259 B",http://www.esmadrid.com/alojamientos/eurostars-madrid-tower,alojamientos
67714,Petit Palace Mayor-Plaza,40.415985700000,-3.709079900000,(+34) 91 542 69 99,mayor@petitpalace.com,"Mayor, 46",http://www.esmadrid.com/alojamientos/petit-palace-mayor-plaza,alojamientos
67238,Hostal Odesa,40.421948000000,-3.699803700000,(+34) 915 21 03 38,,"Hortaleza, 38",http://www.esmadrid.com/alojamientos/hostal-odesa,alojamientos
67784,Hostal Dos Naciones,40.413470000000,-3.704800400000,(+34) 91 369 35 42,info@hostaldosnaciones.com,"Conde de Romanones, 8",http://www.esmadrid.com/alojamientos/hostal-dos-naciones,alojamientos
67713,Hotel Julia,40.434200000000,-3.632720000000,(+34) 91 440 12 17 ,madrid@hoteljulia.es,"Julián Camarillo, 9",http://www.esmadrid.com/alojamientos/hotel-julia,alojamientos
67824,Hilton Madrid Airport,40.452180440898,-3.585748672485,(+34) 91 153 40 00  ,info.madridairport@hilton.com,"De la Hispanidad, 2-4",http://www.esmadrid.com/alojamientos/hilton-madrid-airport,alojamientos
67822,Maydrit,40.451400000000,-3.593112000000,(+34) 91 196 92 00,reservasmaydrit@h-santos.es,"Piragua, 1",http://www.esmadrid.com/alojamientos/maydrit-airport,alojamientos
67237,Apartamentos Ram&oacute;n de la Cruz,40.428963000000,-3.680408000000,(+34) 91 781 15 97,info@ramondelacruz41.com,"Ramón de la Cruz, 41",http://www.esmadrid.com/alojamientos/apartamentos-ramon-de-la-cruz,alojamientos
67783,B &amp; B Hotel Madrid Airport,40.447682100000,-3.548858300000,(+34) 91 748 16 57,hotel.madridairportt1t2t3@hotelbb.com,"Aragón, 402",http://www.esmadrid.com/alojamientos/b-b-hotel-madrid-airport,alojamientos
67782,Ibis Calle Alcal&aacute; Hotel,40.439394200000,-3.626450600000,(+34) 91 375 90 43 ,H3312@ACCOR.COM,"Valentin Beato, 20",http://www.esmadrid.com/alojamientos/ibis-madrid-alcala-hotel,alojamientos
67781,Eco Alcal&aacute; Suites,40.437748000000,-3.631643000000,(+34) 91 440 10 54,alcalasuites@ecohoteles.com,"Santa Leonor, 24",http://www.esmadrid.com/alojamientos/eco-alcala-suites,alojamientos
67780,Suites Viena,40.424830000000,-3.714895000000,(+34) 91 758 36 05 ,reservas@suitesviena.es,"Juan Álvarez Mendizábal, 17",http://www.esmadrid.com/alojamientos/suites-viena,alojamientos
67779,Hostal Colors Host,40.422638000000,-3.700828000000,(+34) 91 521 46 46,,"Fuencarral, 39 4ºizd",http://www.esmadrid.com/alojamientos/hostal-colors-host,alojamientos
67712,Adri&aacute; Santa Ana,40.415174600000,-3.701278100000,(+34) 91 521 13 39,info@hostaladriasantaana.com,"Nuñez del Arce, 15, 3º",http://www.esmadrid.com/alojamientos/adria-santa-ana,alojamientos
67226,Armesto,40.414906000000,-3.696927000000,(+34) 91 429 90 31,reservas@hostalarmesto.com,"San Agustín, 6, 1º D",http://www.esmadrid.com/alojamientos/armesto,alojamientos
67777,Barcel&oacute; Castellana Norte,40.488415100000,-3.668730800000,(+34) 902 10 10 01,castellananorte@barcelo.com,"Manoteras, 20",http://www.esmadrid.com/alojamientos/barcelo-castellana-norte,alojamientos
67776,Room Mate Laura,40.418630000000,-3.707330000000,(+34) 91 701 16 70,laura@room-matehotels.com,"de Trujillos, 3",http://www.esmadrid.com/alojamientos/room-mate-laura,alojamientos
67821,Hostal la Fontana ,40.420834000000,-3.702205000000,(+34) 91 521 84 49 ,info@hostallafontana.com,"de Valverde , 6, 1º",http://www.esmadrid.com/alojamientos/hostal-la-fontana,alojamientos
67710,Pizarro,40.423130000000,-3.705918000000,(+34) 91 531 91 58,info@hostalpizarro.eu,"Pizarro, 14",http://www.esmadrid.com/alojamientos/pizarro,alojamientos
67711,Hostal Puerta del Sol,40.416996000000,-3.702731000000,(+34) 91 522 51 26 ,booking@hostalpuertadelsol.com,"Puerta del Sol, 14-4º",http://www.esmadrid.com/alojamientos/hostal-puerta-del-sol,alojamientos
67709,Room Mate &Oacute;scar ,40.420658600000,-3.699197500000,(+34) 91 701 11 73,oscar@room-matehotels.com,"Pedro Zerolo , 12",http://www.esmadrid.com/alojamientos/room-mate-oscar,alojamientos
67775,Cats Hostel Madrid Sol,40.413143000000,-3.701653000000,(+34) 91 369 28 07,madridsol@catshostels.com,"de los Cañizares, 6",http://www.esmadrid.com/alojamientos/cats-hostel-madrid-sol,alojamientos
67232,San Ferm&iacute;n,40.370390000000,-3.688983000000,(+34) 91 792 08 97 ,albergue@san-fermin.org,"Fueros, 36",http://www.esmadrid.com/alojamientos/san-fermin,alojamientos
67234,Hostel Los Amigos,40.417873200000,-3.708136700000,(+34) 91 559 24 72,,"Arenal, 26, 3º Izq",http://www.esmadrid.com/alojamientos/hostel-amigos,alojamientos
67235,Albergue MuchoMadrid,40.422250000000,-3.709113000000,(+34) 91 559 2350 ,reservas@muchomadrid.com,"Gran Vía 59, 7ºdr",http://www.esmadrid.com/alojamientos/albergue-muchomadrid,alojamientos
67814,Apartamentos Juan Bravo,40.432211600000,-3.674263200000,(+34) 91 402 98 00,juanbravo@apartamentos-jb.com,"Juan Bravo, 58",http://www.esmadrid.com/alojamientos/apartamentos-juan-bravo,alojamientos
67818,Albergue Internacional Posada de Huertas,40.413740000000,-3.699392000000,(+34) 91 429 55 26,info@posadadehuertas.com,"Huertas, 21",http://www.esmadrid.com/alojamientos/albergue-internacional-posada-de-huertas,alojamientos
67231,Cats Chill Out Hostel,40.411934000000,-3.702172000000,(+34) 91 506 48 40,info@madhostel.com ,"De la Cabeza, 24",http://www.esmadrid.com/alojamientos/cats-chill-out-hostel,alojamientos
67820,Albergue Barbieri International,40.421430000000,-3.698045000000,(+34) 91 531 02 58,booking@barbieriinternational.com,"Barbieri, 15, 2º",http://www.esmadrid.com/alojamientos/albergue-barbieri-international,alojamientos
67215,Residencia Universitaria Cardenal Spinola,40.444119500000,-3.714204900000,(+34) 91 533 14 05 ,residencia@residenciauniversitariaspinolamadrid.es,"General Rodrigo, 11",http://www.esmadrid.com/alojamientos/residencia-universitaria-cardenal-spinola,alojamientos
67212,Residencia U. Nuestra Se&ntilde;ora del Rosario,40.429317000000,-3.686831300000,(+34) 91 435 60 13 , resimadrid@gmail.com,"Don ramón de la Cruz, 4",http://www.esmadrid.com/alojamientos/residencia-u-nuestra-senora-del-rosario,alojamientos
67213,Residencia U. Siervas del Sagrado Coraz&oacute;n,40.468110000000,-3.670696000000,(+34) 91 766 46 89,info@residenciasagradoscorazones.com,"Cardenal Marcelo Spínola, 40",http://www.esmadrid.com/alojamientos/residencia-u-siervas-del-sagrado-corazon,alojamientos
67214,Residencia Universitaria Virgen de las Nieves,40.461620000000,-3.697949000000,(+34) 91 559 99 52,residenciavirgennieves@gmail.com,"Bravo Murillo, 297-p 2",http://www.esmadrid.com/alojamientos/residencia-universitaria-virgen-de-las-nieves,alojamientos
67216,Apartamentos Centro Col&oacute;n,40.425290000000,-3.692233000000,(+34) 91 349 00 00 , reservas@apartahotel-centro-colon.es,"Maques de la Ensenada, 16",http://www.esmadrid.com/alojamientos/apartamentos-centro-colon,alojamientos
67218,Residencia Universitaria Mar&iacute;a Inmaculada,40.442825100000,-3.698872900000,(+34) 91 442 60 11,resiponzano@yahoo.es,"Ponzano, 66",http://www.esmadrid.com/alojamientos/residencia-universitaria-maria-inmaculada,alojamientos
67230,Aparthotel Serrano Recoletos,40.423060000000,-3.690676000000,(+34) 91 431 91 00,info@apart-hotelserranorecoletos.com,"Villanueva , 2",http://www.esmadrid.com/alojamientos/aparthotel-serrano-recoletos,alojamientos
67229,Apartamentos Olano,40.445118000000,-3.672570000000,(+34) 91 519 15 20,info@apartamentosolano.es,"Ros de Olano, 2",http://www.esmadrid.com/alojamientos/apartamentos-olano,alojamientos
67228,Apartamentos Principe 11,40.415874000000,-3.700367000000,(+34) 91 429 44 70,reservas@atprincipe11.com ,"principe , 11",http://www.esmadrid.com/alojamientos/apartamentos-principe-11,alojamientos
67227,Apartamentos Goya 75,40.425160000000,-3.678654000000,(+34) 91 435 63 46,info@apartamentosgoya75.com,"General Pardiñas, 13",http://www.esmadrid.com/alojamientos/apartamentos-goya-75,alojamientos
67224,The Pavilions Madrid,40.427079362067,-3.691411614418,(+34) 91 310 75 00,Info.madrid@pavilionshotels.com,"Amador de los Ríos, 3",http://www.esmadrid.com/alojamientos/pavilions-madrid,alojamientos
67223,Residencia U. Instituci&oacute;n del Divino Maestro,40.426230000000,-3.708466000000,(+34)  91 531 08 98,informacion@instituciondeldivinomaestro.es,"San Vicente Ferrer, 82",http://www.esmadrid.com/alojamientos/residencia-u-institucion-del-divino-maestro,alojamientos
67222,Residencias de Postgraduados P&iacute;o XI y Le&oacute;n XIII,40.444874000000,-3.719954000000,(+34)  91 514 17 09,secretaria@residenciapioxi.es,"Juan XXIII, 3",http://www.esmadrid.com/alojamientos/residencia-de-postgraduados-pio-xi-y-leon-xiii,alojamientos
67220,Stylish city aparhotel,40.443140000000,-3.674407000000,(+34) 634259009 ,alejandro_groizard@yahoo.com ,"Luis Cabrera, 37",http://www.esmadrid.com/alojamientos/stylish-city-aparhotel,alojamientos
67219,Residencia Universitaria Augustinus-Nebrija,40.439056000000,-3.715409000000,(+34) 91 452 11 50,residencias@nebrija.es,"Cea Bermúdez, 59",http://www.esmadrid.com/alojamientos/residencia-universitaria-augustinus-nebrija,alojamientos
67707,Apartahotel VP El Madro&ntilde;o,40.435055000000,-3.676410000000,(+34) 91 562 52 92 ,md@vphoteles.com,"del General Díaz Porlier, 101",http://www.esmadrid.com/alojamientos/apartahotel-vp-madrono,alojamientos
67205,Residencia Universitaria Sant&iacute;sima Trinidad,40.440674000000,-3.640028000000,(+34) 91 406 15 29,trini@anayfran.com,"Arturo Soria, 28",http://www.esmadrid.com/alojamientos/residencia-universitaria-santisima-trinidad,alojamientos
67196,Residencia Universitaria G&oacute;mez-Pardo,40.443055900000,-3.701118600000,(+34) 91 441 79 21 ,residencia@fgomezpardo.es ,"Cristobal Bordiú, 30 bis",http://www.esmadrid.com/alojamientos/residencia-universitaria-gomez-pardo,alojamientos
67195,Colegio Mayor Jaime del Amo,40.445950000000,-3.722282000000,(+34) 91 554 08 04  ,secretaria@jaimedelamo.org,"Gregorio del Amo, 5",http://www.esmadrid.com/alojamientos/colegio-mayor-jaime-del-amo,alojamientos
67194,Club Universitario,40.436607000000,-3.693704000000,(+34) 639 213 441,club.universitario@yahoo.com,"García de Paredes, 78",http://www.esmadrid.com/alojamientos/club-universitario,alojamientos
67193,Colegio Mayor Xim&eacute;nez de Cisneros,40.435673000000,-3.727911000000,(+34) 91 394 10 06,cmucisneros.comunicacion@gmail.com,"Séneca, 8",http://www.esmadrid.com/alojamientos/colegio-mayor-ximenez-de-cisneros,alojamientos
67192,Centro Universitario Castilla,40.442292400000,-3.689877200000,(+34) 91 345 59 58,cucastilla@gmail.com,"Calle Vitruvio, 3",http://www.esmadrid.com/alojamientos/centro-universitario-castilla,alojamientos
67191,Colegio Mayor Aquinas,40.452671400000,-3.721471700000,(+34) 91 543 88 00,director@cmaquinas.com,"Leonardo Prieto Castro, 6",http://www.esmadrid.com/alojamientos/colegio-mayor-aquinas,alojamientos
67189,Colegio Mayor P&iacute;o XII,40.444874000000,-3.719954000000,(+34) 91 514 17 11,info@colegiomayorpioxii.es,"Juan XXIII, 3",http://www.esmadrid.com/alojamientos/colegio-mayor-pio-xii,alojamientos
67197,Residencia de Estudiantes EASO,40.422100000000,-3.708881000000,(+34) 91 542 31 83 ,info@easo.es,"Gran Vía, 64-8º Iz",http://www.esmadrid.com/alojamientos/residencia-de-estudiantes-easo,alojamientos
67198,Residencia Universitaria Benito P&eacute;rez Gald&oacute;s,40.449100000000,-3.718392000000,(+34) 91 144 16 54,info@nexoresidencias.com,"Ramiro de Maeztu, 2",http://www.esmadrid.com/alojamientos/residencia-universitaria-benito-perez-galdos,alojamientos
67199,Aparthotel Th la Florida,40.467724000000,-3.801265000000,(+34) 91 372 88 93 ,thlaflorida@th-hoteles.com,"Procion,  12",http://www.esmadrid.com/alojamientos/aparthotel-th-la-florida,alojamientos
67206,Residencia Universitaria Porta Coeli,40.436840000000,-3.700681000000,(+34) 91 448 66 95 ,web@hermanastrinitarias.net,"García de Paredes, 21",http://www.esmadrid.com/alojamientos/residencia-universitaria-porta-coeli,alojamientos
67207,Aparthotel Th  Aravaca,40.464210000000,-3.799467000000,(+34) 91 357 16 00,tharavaca@th-hoteles.com,"Alsasua, 5",http://www.esmadrid.com/alojamientos/aparthotel-th-aravaca,alojamientos
67202,Aparthotel G3 Gale&oacute;n,40.458738700000,-3.699280500000,(+34) 91 571 21 20 ,reservas@g3galeon.com,"Francisco Medrano, 4",http://www.esmadrid.com/alojamientos/aparthotel-g-3-galeon,alojamientos
67209,Residencia Virgen del Pilar,40.435660000000,-3.683312000000,(+34) 91 563 35 64,,"Velázquez, 103",http://www.esmadrid.com/alojamientos/residencia-virgen-del-pilar,alojamientos
67210,Residencia Universitaria El Pilar,40.458583000000,-3.753567100000,(+34) 91 307 13 40 ,residenciaelpilar_mic@yahoo.es ,"Coruña, km 9",http://www.esmadrid.com/alojamientos/residencia-universitaria-el-pilar,alojamientos
67211, Bluesense Madrid Genova,40.428640000000,-3.694697000000,(+34) 91 319 80 94 ,reservas.madridgenova@bluesensehotels.com,"Almagro, 10",http://www.esmadrid.com/alojamientos/bluesense-madrid-genova,alojamientos
67201,Tagaste Madrid,40.426838000000,-3.678506000000,(+34) 91 435 41 80 ,holamadrid@tagaste.com,"General Pardiñas, 34 (bis)",http://www.esmadrid.com/alojamientos/tagaste-madrid,alojamientos
67200,Residencia Universitaria Presentaci&oacute;n de Mar&iacute;a,40.445170500000,-3.716340300000,(+34) 91 554 72 44,residencia.universipm@gmail.com,"Poeta Ángela Figuera, 12",http://www.esmadrid.com/alojamientos/residencia-universitaria-presentacion-de-maria,alojamientos
67208,Residencia Universitaria Verbo Encarnado ,40.446090000000,-3.700432000000,(+34) 91 534 05 16 ,residencia@verboencarnado.es,"Alenza, 28",http://www.esmadrid.com/alojamientos/residencia-universitaria-verbo-encarnado,alojamientos
67699,Residencia Universitaria Nebrija-Chamber&iacute;,40.429530000000,-3.698915000000,(+34) 91 447 12 00,residencias@nebrija.es,"Nicasio Gallego, 12",http://www.esmadrid.com/alojamientos/residencia-universitaria-nebrija-chamberi,alojamientos
67706,Residencia Asociaci&oacute;n Cat&oacute;lica Internacional ,40.436165000000,-3.708158000000,(+34) 91 593 18 70 ,acisjfjuntamadrid.com@acisjfjuntamadrid.com,"Donoso Cortés, 24, 1º izq.",http://www.esmadrid.com/alojamientos/residencia-asociacion-catolica-internacional,alojamientos
67705,Residencia Trinitarias de Madrid,40.429977000000,-3.718278000000,(+34) 91 541 22 78 ,liquetealmudena@hotmail.com,"Marques de Urquijo, 18",http://www.esmadrid.com/alojamientos/residencia-trinitarias-de-madrid,alojamientos
67704,Aparthotel Quo Eraso,40.433920000000,-3.671806000000,(+34) 91 355 32 00 ,eraso@hotelesquo.com,"Ardemans, 13",http://www.esmadrid.com/alojamientos/aparthotel-quo-eraso,alojamientos
67703,Residencia Sant&iacute;sima Trinidad,40.430853900000,-3.718469500000,(+34) 91 548 49 44,info@hermanastrinitarias.com,"Altamirano, 9",http://www.esmadrid.com/alojamientos/residencia-santisima-trinidad,alojamientos
67701,Residencia Nuestra Se&ntilde;ora de Coromoto,40.444965000000,-3.716383000000,(+34) 91 553 54 16,info@residenciacoromoto.es,"General Asensio Cabanillas, 19",http://www.esmadrid.com/alojamientos/residencia-nuestra-senora-de-coromoto,alojamientos
67693,Colegio Mayor San Pablo,40.440326421945,-3.715342283249,(+34) 91 598 96 00,colegiomayor@cmusp.com,"Isaac Peral, 58",http://www.esmadrid.com/alojamientos/colegio-mayor-san-pablo,alojamientos
67696,Colegio Mayor Antonio de Nebrija ,40.435673000000,-3.727911000000,(+34) 91 394 10 05  ,,"Séneca, 8",http://www.esmadrid.com/alojamientos/colegio-mayor-antonio-de-nebrija,alojamientos
67694,Colegio Mayor Santillana,40.494710000000,-3.706283000000,(+34) 91 735 50 31,cmsantillana@cmsantillana.org,"Marbella, 60",http://www.esmadrid.com/alojamientos/colegio-mayor-santillana,alojamientos
67695,Espahotel Plaza Bas&iacute;lica,40.449835266989,-3.698455095291,(+34) 91 535 36 42,plazabasilica@espahotel.es,"Comandante Zorita, 27-31",http://www.esmadrid.com/alojamientos/aparthotel-plaza-basilica,alojamientos
67700,Residencia Universitaria Madre del Divino Pastor,40.433537000000,-3.714497000000,(+34) 91 543 83 64,residenciamdp@yahoo.es,"Andrés Mellado, 31",http://www.esmadrid.com/alojamientos/residencia-universitaria-madre-del-divino-pastor,alojamientos
67697,Residencia Universitaria Ciudad Escolar,40.523900000000,-3.687260000000,(+34) 91 734 27 00 ,residenciadeestudiantes@educa.madrid.org,"Colmenar Viejo, km 12, 80",http://www.esmadrid.com/alojamientos/residencia-universitaria-ciudad-escolar,alojamientos
67698,Residencia Universitaria Sagrado Coraz&oacute;n ,40.430720000000,-3.694787000000,(+34) 91 310 16 00,info@residenciauniversitariasagradocorazon.es,"Caracas, 17",http://www.esmadrid.com/alojamientos/residencia-universitaria-sagrado-corazon,alojamientos
67766,Colegio Mayor Nuestra Se&ntilde;ora de Guadalupe,40.436356000000,-3.725781000000,(+34) 915 435 200,info.guadalupe@eoi.es,"Séneca, 4",http://www.esmadrid.com/alojamientos/colegio-mayor-nuestra-senora-de-guadalupe,alojamientos
67188,Residencia Universitaria Erasmo,40.548430000000,-3.698033000000,(+34) 91 131 21 00 ,erasmo@resa.es ,"Erasmo de Rotterdam, 5-7",http://www.esmadrid.com/alojamientos/residencia-universitaria-erasmo,alojamientos
67187,Colegio Mayor Barber&aacute;n,40.434470000000,-3.732797000000,(+34) 91 549 54 00,cmubarberan@mde.es,"Séneca, 16",http://www.esmadrid.com/alojamientos/colegio-mayor-barberan,alojamientos
67186,Colegio Mayor Chaminade,40.447160000000,-3.717772000000,(+34) 91 554 54 00,secretaria@fugjchaminade.es ," Juan XXIII, 9",http://www.esmadrid.com/alojamientos/colegio-mayor-chaminade,alojamientos
67769,Residencia Universitaria Sof&iacute;a Barat,40.468910000000,-3.676393000000,(+34) 91 302 00 00,sbarat@rscj.es,"Santa Magdalena Sofía, 10",http://www.esmadrid.com/alojamientos/residencia-universitaria-sofia-barat,alojamientos
67770,Apartamentos Sercotel Esentia Togumar,40.443844300000,-3.672685300000,(+34) 91 519 05 51,reservas@apartamentostogumar.com,"Canillas, 59",http://www.esmadrid.com/alojamientos/apartamentos-sercotel-togumar,alojamientos
67771,Colegio Mayor Diego de Covarrubias,40.435420000000,-3.728947000000,(+34) 91 550 46 00,ccmm@pas.ucm.es,"Séneca, 10",http://www.esmadrid.com/alojamientos/colegio-mayor-diego-de-covarrubias,alojamientos
67772,Colegio Mayor El&iacute;as Ah&uacute;ja,40.450788000000,-3.715267000000,(+34) 91 533 77 00,info@eliasahuja.org,"Rector Royo-Villanova, 4",http://www.esmadrid.com/alojamientos/colegio-mayor-elias-ahuja,alojamientos
67773,Muralto Madrid Princesa,40.429250000000,-3.716565000000,(+34) 91 542 44 00,reservas@muralto.es ,"Buen Suceso, 3",http://www.esmadrid.com/alojamientos/muralto-madrid-princesa,alojamientos
67774,Colegio Mayor Universitario Mendel,40.450695000000,-3.716653000000,(+34) 91 534 07 00,mendel@cmmendel.com,"Rector Rollo Villanova, 6",http://www.esmadrid.com/alojamientos/colegio-mayor-universitario-mendel,alojamientos
67677,Colegio Mayor Fundaci&oacute;n SEPI ,40.446780000000,-3.718768000000,(+34) 91 533 68 12,colegiomayor@fundaciónsepi.es,"Gregorio del Amo, 2",http://www.esmadrid.com/alojamientos/colegio-mayor-fundacion-sepi,alojamientos
67178,Apartamentos Los Jer&oacute;nimos ,40.414032000000,-3.690422000000,(+34) 91 420 02 11,jeronimos@espahotel.es,"Moreto, 9",http://www.esmadrid.com/alojamientos/apartamentos-los-jeronimos,alojamientos
67180,Colegio Mayor Juan Luis Vives,40.464940000000,-3.684431000000,(+34) 91 497 99 00,cmluisvives@uam.es,"Francisco Suárez, 7",http://www.esmadrid.com/alojamientos/colegio-mayor-juan-luis-vives,alojamientos
67181,Colegio Mayor Nuestra Se&ntilde;ora de Africa,40.448660000000,-3.721035000000,(+34) 91 554 01 04 ,info.africa@eoi.es,"Ramiro de Maeztu, 8",http://www.esmadrid.com/alojamientos/colegio-mayor-nuestra-senora-de-africa,alojamientos
67183,Colegio Mayor Argentino Nuestra Se&ntilde;ora de Luj&aacute;n,40.435620000000,-3.731367000000,(+34) 91 181 20 50,administracion@cmanslujan.com,"Martín Fierro, 3",http://www.esmadrid.com/alojamientos/colegio-mayor-argentino-nuestra-senora-de-lujan,alojamientos
67184,Colegio Mayor Santa Mar&iacute;a de Europa,40.438820000000,-3.709006000000,(+34) 91 533 62 00,deurop@pas.es,"Cea Bermúdez, 17",http://www.esmadrid.com/alojamientos/colegio-mayor-santa-maria-de-europa,alojamientos
67185,Colegio Mayor Isabel de Espa&ntilde;a,40.448730000000,-3.720093000000,(+34) 91 533 61 04,cmisabel@cmisabel.com,"Ramón Menéndez Pidal, 5",http://www.esmadrid.com/alojamientos/colegio-mayor-isabel-de-espana,alojamientos
67768,Colegio Mayor Teresa de Jes&uacute;s,40.435170000000,-3.729984000000,(+34) 91 394 10 08,subdirecciontdj@gmail.com,"Séneca, 12",http://www.esmadrid.com/alojamientos/colegio-mayor-teresa-de-jesus,alojamientos
67685,Colegio Mayor Mater Salvatoris ,40.464030300000,-3.781585000000,(+34) 91 307 12 47,madrid.cmu@matersalvatoris.org,Carretera de la Coruña Km9,http://www.esmadrid.com/alojamientos/colegio-mayor-mater-salvatoris,alojamientos
67691,Colegio Mayor Montalb&aacute;n,40.434998000000,-3.684268000000,(+34) 91 563 72 98,info@cmmontalban.com,"Diego de León, 14",http://www.esmadrid.com/alojamientos/colegio-mayor-montalban,alojamientos
67690,Aparthotel Rosales,40.429588300000,-3.718748000000,(+34) 91 542 03 51 ,arosales@apartohotel-rosales.com,"Marqués de Urquijo , 23",http://www.esmadrid.com/alojamientos/aparthotel-rosales,alojamientos
67689,Colegio Mayor Moncloa,40.445942000000,-3.715269000000,(+34) 91 533 85 00,info@cmmoncloa.org,"de la Moncloa, 3",http://www.esmadrid.com/alojamientos/colegio-mayor-moncloa,alojamientos
67688,Colegio Mayor Alcal&aacute;,40.447815000000,-3.719740000000,(+34) 91 553 30 04,info@cmalcala.es,"Ramón Menéndez Pidal, 2",http://www.esmadrid.com/alojamientos/colegio-mayor-alcala,alojamientos
67683,Hogar Nuestra Se&ntilde;ora del Sagrado Coraz&oacute;n ,40.420723000000,-3.711281000000,(+34) 91 559 99 52,misionme@yahoo.es,"Marina Española, 1, 2º Dc",http://www.esmadrid.com/alojamientos/hogar-nuestra-senora-del-sagrado-corazon,alojamientos
67682,Colegio Mayor Somosierra ,40.458992000000,-3.662156000000,(+34) 91 413 60 11,cmsomosierra@cmsomosierra.com,"Pablo Vidal, 6",http://www.esmadrid.com/alojamientos/colegio-mayor-somosierra,alojamientos
67681,Aparthotel Tribunal,40.425507000000,-3.701143000000,(+34) 91 522 14 55,info@hotel-tribunal.com,"San Vicente Ferrer, 1",http://www.esmadrid.com/alojamientos/aparthotel-tribunal,alojamientos
67680,Colegio Mayor Berrospe,40.446545000000,-3.716914000000,(+34) 91 533 59 00,cmberrospe@berrospe.org,"Moncloa, 9",http://www.esmadrid.com/alojamientos/colegio-mayor-berrospe,alojamientos
67679,Colegio Mayor Alcor,40.443268000000,-3.715217000000,(+34) 91 533 92 08 ,info@cmalcor.com,"General Ampudia, 7",http://www.esmadrid.com/alojamientos/colegio-mayor-alcor,alojamientos
67813,Colegio Mayor Vedruna ,40.445673000000,-3.714986000000,(+34) 91 534 23 06,recepcion@cmvedruna.org,"Presidente García Moreno, 2",http://www.esmadrid.com/alojamientos/colegio-mayor-vedruna,alojamientos
67812,Colegio Mayor Santa M&oacute;nica,40.450420000000,-3.714099000000,(+34) 91 533 30 01 ,informacion@cmumonica.es,"Juan XXIII, 19",http://www.esmadrid.com/alojamientos/colegio-mayor-santa-monica,alojamientos
67811,Colegio Mayor Santa Mar&iacute;a del Pino,40.489290000000,-3.966751000000,(+34) 91 543 24 09 ,secretaria@colegiomayorpino.com  ,"San Francisco de Sales, 13",http://www.esmadrid.com/alojamientos/colegio-mayor-santa-maria-del-pino,alojamientos
67692,Colegio Mayor Marqu&eacute;s de la Ensenada,40.434372000000,-3.733462000000,(+34) 91 549 71 00,info@cmumarquesdelaensenada.com,"Séneca, 18",http://www.esmadrid.com/alojamientos/colegio-mayor-marques-de-la-ensenada,alojamientos
67767,Colegio Mayor Santa Mar&iacute;a del Estudiante,40.448369700000,-3.717007100000,(+34) 91 213 42 00,santamaria@resa.es,"Juan XXIII, 13",http://www.esmadrid.com/alojamientos/colegio-mayor-santa-maria-del-estudiante,alojamientos
67765,Colegio Mayor C&eacute;sar Carlos,40.447815000000,-3.719740000000,(+34)  91 131 11 00,info@cesarcarlos.com ,"Ramón Menéndez Pidal, 3",http://www.esmadrid.com/alojamientos/colegio-mayor-cesar-carlos,alojamientos
67806,Colegio Mayor Juan XXIII Roncalli,40.448660000000,-3.721035000000,(+34) 91 533 94 09,direccion@roncalli.es,"Ramiro de Maeztu, 3",http://www.esmadrid.com/alojamientos/colegio-mayor-juan-xxiii-roncalli,alojamientos
67764,Colegio Mayor Casa do Brasil ,40.438538800000,-3.725290700000,(+34) 91 455 15 60,sec@casadobrasil.es,"de la Memoria, 3",http://www.esmadrid.com/alojamientos/colegio-mayor-casa-do-brasil,alojamientos
67807,Bluesense Madrid Serrano,40.435024000000,-3.684970000000,(+34) 91 563 32 51,reservas.madridserrano@bluesensehotels.com,"Diego de León, 10",http://www.esmadrid.com/alojamientos/bluesense-madrid-serrano,alojamientos
67808,Colegio Mayor Mara,40.449593000000,-3.715969000000,(+34) 91 553 66 04,secretaria@colegiomayormara.com,"Juan XXIII, 15",http://www.esmadrid.com/alojamientos/colegio-mayor-mara,alojamientos
67809,Colegio Mayor Zurbar&aacute;n,40.453297000000,-3.672325000000,(+34) 651 76 04 93,admisionzurbaran@gmail.com,"Victor de la Serna, 13",http://www.esmadrid.com/alojamientos/colegio-mayor-zurbaran,alojamientos
67810,Colegio Mayor Padre Poveda ,40.443311000000,-3.719434900000,(+34) 91 456 25 89,secretaria@cmppoveda.es,"Isaac Peral, 60",http://www.esmadrid.com/alojamientos/colegio-mayor-padre-poveda,alojamientos
67678,Espahotel Plaza de Espa&ntilde;a,40.422660798354,-3.711847364903,(+34) 91 542 85 85,aparplaza@espahotel.es,"España, 7",http://www.esmadrid.com/alojamientos/espahotel-plaza-de-espana,alojamientos
67803,Abal&uacute;,40.423900000000,-3.705744000000,(+34) 91 521 44 92,info@hotelabalu.com,"Pez, 19",http://www.esmadrid.com/alojamientos/abalu,alojamientos
67176,Camping Osuna,40.475426900000,-3.582302600000,(+34) 91 741 05 10 ,info@campingosuna.com,"C/ Jardines de Aranjuez, 1. Madrid 28042",http://www.esmadrid.com/alojamientos/camping-osuna,alojamientos
67177,Colegio Mayor Universitario Loyola,40.450104000000,-3.715105000000,(+34) 91 534 04 04,secretaria@cmuloyola.org,"Juan XXIII, 17",http://www.esmadrid.com/alojamientos/colegio-mayor-universitario-loyola,alojamientos
67805,Colegio Mayor San Agust&iacute;n,40.436720300000,-3.727607300000,(+34) 91 550 50 00,colegio@cmusa.net ," Antonio Nebrija, 4",http://www.esmadrid.com/alojamientos/colegio-mayor-san-agustin,alojamientos
67804,Colegio Mayor Jorge Juan,40.434934000000,-3.731745300000,(+34) 91 550 71 00,secretaria@cmjorgejuan.es,"Séneca, 14",http://www.esmadrid.com/alojamientos/colegio-mayor-jorge-juan,alojamientos
67763,Hospes Puerta de Alcal&aacute;,40.420010000000,-3.688378000000,(+34) 91 432 29 11,madrid@hospes.com,"Independencia, 3",http://www.esmadrid.com/alojamientos/hospes-puerta-alcala,alojamientos
67658,Mar&iacute;a Luisa,40.421605800000,-3.700353300000,(+34) 91 521 16 30 ,info@hostalmarialuisa.com,"Hortaleza, 19",http://www.esmadrid.com/alojamientos/maria-luisa,alojamientos
67654,Mar&iacute;a Ronda,40.384655000000,-3.741007000000,(+34) 91 466 00 20 ,reservas@hostalmronda.com,"Batalla de Torrijos, 26",http://www.esmadrid.com/alojamientos/maria-ronda,alojamientos
67653,Hostal la Macarena,40.414680000000,-3.708155000000,(+34) 91 365 92 21,macarena@silserranos.com,"Cava de San Miguel, 8, 2º",http://www.esmadrid.com/alojamientos/hostal-la-macarena,alojamientos
67650,Lourdes,40.418840000000,-3.699683000000,(+34) 91 532 77 57,info@casadehuespedeslourdes.com,"Virgen de los Peligros, 10, 4º",http://www.esmadrid.com/alojamientos/lourdes,alojamientos
67648,Le&oacute;n,40.416588000000,-3.698962000000,(+34) 91 429 67 78,,"San Jerónimo, 32, 4º I",http://www.esmadrid.com/alojamientos/leon,alojamientos
67644,Milabi,40.434940000000,-3.705209000000,(+34) 91 448 20 75 ,,"Fernández de los Rios, 5, 2º ",http://www.esmadrid.com/alojamientos/milabi,alojamientos
67660,Montecarlo,40.419827000000,-3.700176000000,(+34) 91 531 01 39,hostalmontecarlo@gmail.com,"Gran Vía, 15",http://www.esmadrid.com/alojamientos/montecarlo,alojamientos
67649,Hostal Lido,40.416218000000,-3.699655000000,(+34) 91 429 62 07,info@hostallido.com,"Echegaray, 5, 2º Izq.",http://www.esmadrid.com/alojamientos/hostal-lido,alojamientos
67676,Mar&iacute;a Cristina,40.421623000000,-3.701084000000,(+34) 91 531 63 00 ,info@hmcristina.es,"Fuencarral, 20, 1º",http://www.esmadrid.com/alojamientos/maria-cristina,alojamientos
67661,Moncloa,40.433716000000,-3.716787000000,(+34) 91 544 91 95,hostalmoncloa@hotmail.com,"Hilarión Eslava, 16, bº",http://www.esmadrid.com/alojamientos/moncloa,alojamientos
67662,Jemasaca-Palma 61,40.426716000000,-3.707631000000,(+34)  915 32 70 11,info@hostaljemasaca-palma61.com,"Palma, 61, 2º",http://www.esmadrid.com/alojamientos/jemasaca-palma-61,alojamientos
67663,Josefina,40.420235000000,-3.705354000000,(+34) 91 521 81 31,reservas@hostal-josefina.com,"Gran Vía, 44, 7º",http://www.esmadrid.com/alojamientos/josefina,alojamientos
67672,Hostal Atocha Almudena Mart&iacute;n,40.413291400000,-3.701280100000,(+34) 91 429 95 79,hostalatocha43@gmail.com,"Atocha, 43, 3º",http://www.esmadrid.com/alojamientos/hostal-atocha-almudena-martin,alojamientos
67673,Hostal Madrid,40.416058000000,-3.705166000000,(+34) 91 522 00 60,hs@hostal-madrid.info,"Esparteros, 6, 2º",http://www.esmadrid.com/alojamientos/hostal-madrid,alojamientos
67675,Mar&iacute;a del Mar,40.415740000000,-3.705020000000,(+34) 91 531 90 64 ,hostalmariadelmar@hotmail.com,"Marqués Viudo de Pontejos, 7, 3º",http://www.esmadrid.com/alojamientos/maria-del-mar,alojamientos
67671,Luis XV,40.419632000000,-3.701791000000,(+34) 915 221 021,reservas@hostalluisxvmadrid.com,"Montera, 47-8º",http://www.esmadrid.com/alojamientos/luis-xv,alojamientos
67670,L&oacute;pez,40.413230000000,-3.696671000000,(+34) 91 429 43 49,reservas@hostallopez.com,"Huertas, 54",http://www.esmadrid.com/alojamientos/lopez,alojamientos
67669,Lisboa,40.415283000000,-3.698999000000,(+34) 91 429 46 76,hostallisboa@hostallisboa.com,"Ventura de la Vega, 17",http://www.esmadrid.com/alojamientos/lisboa,alojamientos
67668,Lauria,40.420907100000,-3.706596400000,(+34) 91 541 91 82,info@hostal-lauria.com,"Gran Vía, 50, 4º",http://www.esmadrid.com/alojamientos/lauria,alojamientos
67666,Praktik Metropol,40.419632000000,-3.701791000000,(+34) 91 521 29 35,reservas@praktikmetropol.com,"Montera, 47",http://www.esmadrid.com/alojamientos/praktik-metropol,alojamientos
67665,Hostal Lamalonga,40.421390000000,-3.707770000000,(+34) 91 547 68 94,hlamalonga@hotmail.com,"Gran Vía, 56, 2º",http://www.esmadrid.com/alojamientos/hostal-lamalonga,alojamientos
67664,Hostal Fuencarral Kryse,40.421658000000,-3.701073000000,(+34) 91 532 20 60 ,info@hostalzamoran.com﻿,"Fuencarral, 25, 1º I",http://www.esmadrid.com/alojamientos/hostal-fuencarral-kryse,alojamientos
67624,Fuente Mar,40.412384000000,-3.700190000000,(+34) 91 369 35 79 ,,"Magdalena, 29",http://www.esmadrid.com/alojamientos/fuente-mar,alojamientos
67623,La Perla Asturiana,40.415061400000,-3.705886900000,(+34) 91 366 46 00 ,info@perlaasturiana.com,"Santa Cruz, 3",http://www.esmadrid.com/alojamientos/la-perla-asturiana,alojamientos
67622,Fern&aacute;ndez,40.414180000000,-3.698804000000,(+34) 91 429 56 37,hostal-fernandez@hotmail.com ,"León, 10, 1º",http://www.esmadrid.com/alojamientos/fernandez,alojamientos
67621,Persal,40.414352000000,-3.702248000000,(+34) 91 369 46 43 ,info@hostalpersal.com,"del Ángel, 12",http://www.esmadrid.com/alojamientos/persal,alojamientos
67625,Pensi&oacute;n P&eacute;rez,40.426624000000,-3.716620000000,(+34) 91 541 91 90 ,Pensión Pérez,"Juan Álvarez Mendizábal, 44, 3º D",http://www.esmadrid.com/alojamientos/pension-perez,alojamientos
67617,Fuente Sol,40.416630000000,-3.701691000000,(+34) 91 521 66 74 ,hostalfuentesolmadrid@gmail.com,"Victoria, 2, 3º I",http://www.esmadrid.com/alojamientos/fuente-sol,alojamientos
67615,Flores,40.420502410376,-3.702920302749,(+34) 91 522 81 52 ,hostalflores@hostalflores.com,"Gonzalo Jiménez de Quesada, 2, 8º D",http://www.esmadrid.com/alojamientos/flores,alojamientos
67614,Falfes,40.453430000000,-3.701670000000,(+34) 91 570 11 08 ,info@hostalfalfes.com,"Juan de Olías, 15",http://www.esmadrid.com/alojamientos/falfes,alojamientos
67627,Par&iacute;s,40.417694000000,-3.702824000000,(+34) 910 232 983, info@hostalparismadrid.com,"Montera, 15",http://www.esmadrid.com/alojamientos/paris_8,alojamientos
67641,Nuestra Se&ntilde;ora de Sonsoles,40.421500000000,-3.701122000000,(+34) 91 532 75 23 ,sonsoles@hostalsonsodesa.com ,"Fuencarral, 18, 2º D",http://www.esmadrid.com/alojamientos/nuestra-senora-de-sonsoles,alojamientos
67640,Hostal el Pilar,40.416054000000,-3.703301000000,(+34) 91 531 26 26 ,info@hostalelpilar.net,"Carretas, 13, 2º-3",http://www.esmadrid.com/alojamientos/hostal-el-pilar,alojamientos
67637,Gonzalo,40.414172800000,-3.696228600000,(+34) 91 429 27 14 ,hostal@hostalgonzalo.com,"Cervantes, 34, 3º",http://www.esmadrid.com/alojamientos/gonzalo,alojamientos
67635,Oporto,40.416702000000,-3.697447000000,(+34) 91 429 78 56 ,info@hostaloporto.com ,"Zorrilla, 9-1º",http://www.esmadrid.com/alojamientos/oporto,alojamientos
67632,Gallardo,40.427143000000,-3.701673000000,(+34) 91 594 45 75 ,info@hostalgallardo.com ,"Fuencarral, 95, 4º D",http://www.esmadrid.com/alojamientos/gallardo,alojamientos
67630,Parajas,40.411728000000,-3.695661000000,(+34) 91 429 38 00 ,,"Fucar, 10, 1º",http://www.esmadrid.com/alojamientos/parajas,alojamientos
67629,Galaico,40.419827000000,-3.700176000000,(+34) 91 521 03 34 ,info@hostalgalaico.com,"Gran Vía, 15, 5º D",http://www.esmadrid.com/alojamientos/galaico,alojamientos
67628,Ch Galaica,40.426918000000,-3.673980000000,(+34) 91 431 58 83 ,info@chgalaica.com,"Alcántara , 16, 2º-3",http://www.esmadrid.com/alojamientos/ch-galaica,alojamientos
67620,Far Home Plaza Mayor,40.412840000000,-3.703951000000,(+34) 91 369 46 94,plazamayor@farhomehostels.com,"Doctor Cortezo, 15-4º D",http://www.esmadrid.com/alojamientos/far-home-plaza-mayor,alojamientos
67636,Olga,40.416813500000,-3.696951800000,(+34) 91 429 78 87 ,hostal@hostalolgamadrid.com,"Calle Cervantes 34, 3º ",http://www.esmadrid.com/alojamientos/olga,alojamientos
67312,Ginebra,40.421085000000,-3.701277000000,(+34) 91 532 10 35 ,,"Fuencarral, 17, 1º",http://www.esmadrid.com/alojamientos/ginebra,alojamientos
67313,Hostal Greco,40.421024000000,-3.700799000000,(+34) 91 522 46 32 ,info@hostalgreco.com,"Calle de las Infantas, 3",http://www.esmadrid.com/alojamientos/hostal-greco,alojamientos
67315,Gran V&iacute;a 63 Rooms,40.422570000000,-3.709630000000,(+34)  917 58 11 32,RESERVAS@GRANVIA63ROOMS.COM,"Gran Vía, 63, 5º",http://www.esmadrid.com/alojamientos/madrid-gran-via-lxiii,alojamientos
67314,Hispano,40.421948000000,-3.699803700000,(+34) 91 521 87 80,info@hostalhispano.com,"Hortaleza, 38, 2º",http://www.esmadrid.com/alojamientos/hispano,alojamientos
67316,Hispano Argentino,40.419827000000,-3.700176000000,(+34) 91 532 24 48,info@hispano-argentino.com ,"C/ Gran Vía, 15 ",http://www.esmadrid.com/alojamientos/hispano-argentino,alojamientos
67317,Nuestra Se&ntilde;ora de la Paloma,40.415700000000,-3.705283000000,(+34) 91 532 21 72 ,hostalnuestra@hotmail.com,"Esparteros, 12, 3º",http://www.esmadrid.com/alojamientos/nuestra-senora-de-la-paloma,alojamientos
67318,Ibias,40.410896000000,-3.696267000000,(+34) 91 539 00 46 ,,"Atocha, 90, 3º",http://www.esmadrid.com/alojamientos/ibias,alojamientos
67319,La Nava,40.426666000000,-3.671714000000,(+34) 91 402 67 86  ,info@hostallanava.com,"Alcalá, 177-1º B",http://www.esmadrid.com/alojamientos/la-nava,alojamientos
67320,Narv&aacute;ez,40.421550000000,-3.677132000000,(+34) 91 575 01 07 ,hostalnarvaez@gmail.com,"C/ O`Donnell, 27 5º ",http://www.esmadrid.com/alojamientos/narvaez,alojamientos
67607,Esmeralda,40.416630000000,-3.701691000000,(+34) 91 521 00 77  ,info@hresmeralda.net,"CalleVictoria, 1-2º",http://www.esmadrid.com/alojamientos/esmeralda,alojamientos
67307,La Prensa,40.420531900000,-3.705840800000,(+34) 91 531 93 07 ,,"Gran Vía, 46, 8º",http://www.esmadrid.com/alojamientos/la-prensa,alojamientos
67603,Don Pedro,40.387110000000,-3.745176000000,(+34) 91 525 81 14, info@hostaldonpedro.es,"Calle Guabairo, 1",http://www.esmadrid.com/alojamientos/don-pedro,alojamientos
67602,Puerta Bonita,40.387610000000,-3.740370000000,(+34) 91 462 37 12 ,hostalpuertabonita@msn.com ,"Humanitarias, 21",http://www.esmadrid.com/alojamientos/puerta-bonita,alojamientos
67305,Principado,40.416695000000,-3.697653000000,(+34) 91 369 40 60,,"Calle de Zorrilla, 7",http://www.esmadrid.com/alojamientos/principado,alojamientos
67606,Prim,40.421969900000,-3.693373600000,(+34) 91 521 54 95 ,info@hostalprim.com,"Prim, 15-2º",http://www.esmadrid.com/alojamientos/prim,alojamientos
67600,Don Alfonso,40.417225000000,-3.706005000000,(+34) 91 531 98 40 ,,"Celenque, 1",http://www.esmadrid.com/alojamientos/don-alfonso,alojamientos
67599,Cruz Sol,40.415314000000,-3.705661000000,(+34) 91 532 71 97 ,info@hostalcruzsol.com ,"Santa Cruz, 6, 3º",http://www.esmadrid.com/alojamientos/cruz-sol,alojamientos
67597,Hostal CC Atocha,40.406390000000,-3.694357000000,(+34) 91 527 31 89 ,info@hostal-cordoba.com,"Santa María de la Cabeza, 21, 1º",http://www.esmadrid.com/alojamientos/hostal-cc-atocha,alojamientos
67596,Palacios,40.421658000000,-3.701073000000,(+34) 91 531 10 58 ,reservas@hostal-palacios.com,"Fuencarral, 25, 1º D",http://www.esmadrid.com/alojamientos/palacios,alojamientos
67613,Good Rooms,40.419827000000,-3.700176000000,(+34) 91 521 17 25 ,reservas1@hostal-laplata.com ," Gran vía, 15 4b",http://www.esmadrid.com/alojamientos/good-rooms,alojamientos
67612,Plaza D'ort Rooms,40.414400000000,-3.702442000000,(+34) 91 429 90 41,,"Plaza del Ángel, 13",http://www.esmadrid.com/alojamientos/plaza-dort-rooms,alojamientos
67611,JC Rooms Puerta del Sol,40.418236000000,-3.707814000000,(+34) 91 559 40 14 ,sol@jchoteles.com,"C/ Flora, 4- 1º ",http://www.esmadrid.com/alojamientos/jc-rooms-puerta-sol,alojamientos
67595,Riesco,40.416560000000,-3.704314000000,(+34) 91 522 26 92,info@hostalriesco.com,"Calle del Correo, 2",http://www.esmadrid.com/alojamientos/riesco,alojamientos
67605,Emilio,40.472445100000,-3.579804100000,(+34) 91 329 17 52 ,,"Calle del Canal de Suez, 24",http://www.esmadrid.com/alojamientos/emilio,alojamientos
67609,Pretoria,40.416317200000,-3.703027200000,(+34) 91 531 93 29 ,hostal_pretoria@hotmail.com,"Carretas, 7, 3º-4º",http://www.esmadrid.com/alojamientos/pretoria,alojamientos
67608,Esparteros,40.415700000000,-3.705283000000,(+34) 91 521 09 03,contact@esparteros.com,"Esparteros, 12, 4º",http://www.esmadrid.com/alojamientos/esparteros,alojamientos
67610,Prada,40.421333000000,-3.700387000000,(+34) 91 521 20 04,info@hostalprada.com,"Hortaleza, 19, 3º",http://www.esmadrid.com/alojamientos/prada,alojamientos
67604,Dulcinea,40.414345000000,-3.696495000000,(+34) 91 429 93 09,donato@hostaldulcinea.com,"Calle de Cervantes, 19",http://www.esmadrid.com/alojamientos/dulcinea,alojamientos
67601,Don Juan,40.420960000000,-3.699884600000,(+34) 915 22 77 46,,"Pedro Zerolo, 1, 2º ",http://www.esmadrid.com/alojamientos/don-juan,alojamientos
67292,Comercial,40.415700000000,-3.705283000000,(+34) 91 522 66 30 ,reservas@hostalcomercial.com ,"Esparteros, 12, 2º",http://www.esmadrid.com/alojamientos/comercial,alojamientos
67293,Riba,40.425117000000,-3.710249000000,(+34) 91 541 91 21,,"Calle de San Bernardino, 10",http://www.esmadrid.com/alojamientos/riba,alojamientos
67294,Woohoo Hostal Madrid,40.420776000000,-3.704771000000,(+34) 91 522 68 83,info@woohoohostalmadrid.com,"Calle Concepción Arenal, 6, 3º",http://www.esmadrid.com/alojamientos/woohoo-hostal-madrid,alojamientos
67295,Conchita,40.419697000000,-3.707152000000,(+34) 91 522 49 23  ,,"Preciados, 33, 2º",http://www.esmadrid.com/alojamientos/conchita,alojamientos
67296,Condestable,40.422302000000,-3.703874000000,(+34) 91 531 62 02 ,info@hostalcondestable.com,"Puebla, 15",http://www.esmadrid.com/alojamientos/condestable,alojamientos
67297,Continental,40.420457600000,-3.705482400000,(+34) 91 521 46 40 ,info@hostalcontinental.com,"Gran Vía, 44, 3º-4",http://www.esmadrid.com/alojamientos/continental,alojamientos
67298,R&iacute;as Bajas,40.423294000000,-3.707524000000,(+34) 91 559 85 95,reservas@hostalriasbajas.es,"Calle de San Bernardo, 35",http://www.esmadrid.com/alojamientos/rias-bajas,alojamientos
67300,Hostal Narvaez Retiro,40.421550000000,-3.677132000000,(+34) 91 576 00 37,info@hostalretiro.com,"O'Donnell, 27, 5º",http://www.esmadrid.com/alojamientos/hostal-narvaez-retiro,alojamientos
67301,Delfina,40.419490000000,-3.698946000000,(+34) 91 522 64 23 ,hostaldelfina@gmail.com,"Gran Vía, 12 - 4º Drcha ",http://www.esmadrid.com/alojamientos/delfina,alojamientos
67304,Vel&aacute;zquez 45 by Pillow,40.427128000000,-3.683968000000,(+34) 91 435 07 60 ,E. velázquez45@bypillow.com,"Velázquez, 45, 5º-7",http://www.esmadrid.com/alojamientos/velazquez-45-pillow,alojamientos
67303,Reconquista,40.416695000000,-3.697653000000,(+34) 91 429 81 97 ,info@hostalreconquista.com,"Calle de Zorrilla, 7",http://www.esmadrid.com/alojamientos/reconquista,alojamientos
67364,Rivera,40.407156100000,-3.693741100000,(+34) 91 527 37 17,hrivera4@yahoo.es,"Paseo Santa María de la Cabeza, 228012",http://www.esmadrid.com/alojamientos/rivera,alojamientos
67289,Hostal Ballesta,40.421497000000,-3.703576000000,(+34) 91 532 36 04 ,reservas@hostalballesta.com,"De la Ballesta, 5",http://www.esmadrid.com/alojamientos/hostal-ballesta,alojamientos
67353,Hostal Santo Domingo,40.421677000000,-3.705306000000,(+34) 91 531 32 90 ,reservas@hostalsantodomingo.es,"Calle de la Luna, 6, 28004 Madrid",http://www.esmadrid.com/alojamientos/hostal-santo-domingo,alojamientos
67354,Sleep'n Atocha,40.409066900000,-3.693068900000,(+34) 91 539 98 07,reservations@sleepnatocha.com,"Doctor Drumen, 4",http://www.esmadrid.com/alojamientos/sleepn-atocha,alojamientos
67356,Santa Cruz,40.415314000000,-3.705661000000,(+34) 91 522 24 41 ,info@hostalsantacruz.com,"Plaza de Santa Cruz, 6",http://www.esmadrid.com/alojamientos/santa-cruz,alojamientos
67355,Santa Isabel,40.410725000000,-3.698172000000,(+34) 91 528 00 63 ,info@hostalsantaisabel.com,"Calle de Santa Isabel, 15",http://www.esmadrid.com/alojamientos/santa-isabel,alojamientos
67358,San Lorenzo,40.420483000000,-3.699363000000,(34) 91 521 30 57 ,reservas@hotel-sanlorenzo.com , C/ CLAVEL Nº 8,http://www.esmadrid.com/alojamientos/san-lorenzo,alojamientos
67359,Hostal San Isidro,40.415359700000,-3.700227200000,(+34) 91 429 15 91 ,info@hostalsanisidro.com ,"CallePríncipe, 17, 2º28012",http://www.esmadrid.com/alojamientos/hostal-san-isidro,alojamientos
67360,San Antonio,40.414017000000,-3.698872000000,(+34) 91 429 51 37 ,hostalsanantoniomadrid@gmail.com,"C/ León, Nº 13, 2º Piso - 28014 MADRID",http://www.esmadrid.com/alojamientos/san-antonio,alojamientos
67361,Hostal Salamanca,40.429703000000,-3.670993000000,(+34) 91 402 40 46 ,info@hostalsalamanca.com,C/ José Ortega y Gasset 89 28006 Madrid  info@hostalsalama,http://www.esmadrid.com/alojamientos/hostal-salamanca,alojamientos
67363,Rober,40.417710000000,-3.708354000000,(+34) 91 541 91 75 ,hostalrober26@gmail.com,"Calle Arenal, 26, 5º D. (28013) - Madrid (España)",http://www.esmadrid.com/alojamientos/rober,alojamientos
67365,Hostal Cervantes,40.414345000000,-3.696243000000,(+34) 91 429 83 65,correo@hostal-cervantes.com,"Cervantes, 34, 2º",http://www.esmadrid.com/alojamientos/hostal-cervantes,alojamientos
67352,Breogan y Kryse,40.421658000000,-3.701073000000,(+34) 91 522 81 53 ,,"Fuencarral, 25, 2º",http://www.esmadrid.com/alojamientos/breogan-kryse,alojamientos
67272,Bru&ntilde;a,40.412643000000,-3.694360000000,(+34) 91 429 47 01 ,hostalbruna@ctv.es,"C/ Moratín, 50",http://www.esmadrid.com/alojamientos/bruna,alojamientos
67279,Carabanchel,40.390617000000,-3.746198000000,(+34) 91 361 68 27,carabanchelhostal@gmail.com,"Calle del Petirrojo, 34",http://www.esmadrid.com/alojamientos/carabanchel,alojamientos
67276,San Mart&iacute;n,40.420776000000,-3.704771000000,(+34) 91 531 91 76 ,hostal_sanmartin@yahoo.es,"Calle Concepción Arenal, 4",http://www.esmadrid.com/alojamientos/san-martin,alojamientos
67275,Callao,40.419693000000,-3.707108000000,(+34) 91 542 00 67  ,reservashostalcallao@gmail.com,"Preciados, 35, 3º D",http://www.esmadrid.com/alojamientos/callao,alojamientos
67274,Buenos Aires,40.422430000000,-3.709396000000,(+34) 91 542 01 02 ,hostalbuenosaires@hotmail.com,"Gran Vía, 61",http://www.esmadrid.com/alojamientos/buenos-aires,alojamientos
67271,Sardinero,40.414801900000,-3.698681300000,(+34) 91 429 57 56 ,info@hostalsardinero.com,"Prado, 16, 3º",http://www.esmadrid.com/alojamientos/sardinero,alojamientos
67280,Carrera,40.416585100000,-3.699134900000,(+34) 91 429 68 08,reservas@alojamientocarrera.com,"San Jerónimo, 30-3º",http://www.esmadrid.com/alojamientos/carrera,alojamientos
67273,Santillan,40.422100000000,-3.708881000000,(+34) 91 548 23 28 ,info@hostalsantillan.com,Gran Via 64,http://www.esmadrid.com/alojamientos/santillan,alojamientos
67281,Casanova,40.413801900000,-3.698363700000,(+34) 91 429 56 91 ,info@hostalcasanova.es," Calle Lope de Vega, 8",http://www.esmadrid.com/alojamientos/casanova,alojamientos
67285,Centro Sol,40.416660000000,-3.701455000000,(+34) 91 522 15 82 ,reservas@hostalcentrosol.com,"San Jerónimo, 5, 2º-4º",http://www.esmadrid.com/alojamientos/centro-sol,alojamientos
67284,Ruano,40.416520000000,-3.704887000000,(+34) 91 532 15 63,admin@aparsol.com,"Calle Mayor, 1",http://www.esmadrid.com/alojamientos/ruano,alojamientos
67282,Castilla I,40.413462100000,-3.700961300000,(+34) 91 429 00 95,infocastilla@gmail.com,"Atocha, 43 - 2ºd",http://www.esmadrid.com/alojamientos/castilla-i,alojamientos
67288,Cervelo,40.413364000000,-3.701284000000,(+34) 91 429 95 94,info@hostalcervelo.com ,"Atocha, 43, 1º ",http://www.esmadrid.com/alojamientos/cervelo,alojamientos
67287,R&iacute;o Paran&aacute;,40.416035000000,-3.702339000000,(+34) 91 531 49 89 ,,"Espoz y Mina, 5, 3º I",http://www.esmadrid.com/alojamientos/rio-parana,alojamientos
67286,R&iacute;os,40.411804000000,-3.698118000000,(+34) 91 559 51 56,,"Juan Álvarez Mendizábal, 44, 4º D",http://www.esmadrid.com/alojamientos/rios,alojamientos
67346,Tijcal II,40.414867000000,-3.702737000000,(+34) 91 360 46 28 ,spain2@hostaltijcal.com ,"Cruz, 26, 1º ",http://www.esmadrid.com/alojamientos/tijcal-ii,alojamientos
67347,Inter Plaza Mayor,40.415417000000,-3.706352000000,(+34) 913 64 52 60,,"Calle de Zaragoza, 6 3º Derecha	 Madrid	 28012	",http://www.esmadrid.com/alojamientos/inter-plaza-mayor,alojamientos
67253,Hostal Avenida,40.419827000000,-3.700176000000,(+34) 91 521 27 28 , hostalavenidamadrid@hotmail.com,"Gran Vía, 15 - 4º A 28013 Madrid, España",http://www.esmadrid.com/alojamientos/hostal-avenida,alojamientos
67349,Barrera,40.410698000000,-3.695892000000,(+34) 91 527 53 81,info@hostalbarrera.com ,"Atocha, 96, 2º",http://www.esmadrid.com/alojamientos/barrera,alojamientos
67258,Besaya,40.421574000000,-3.707932000000,(+34) 91 758 76 30,info@hostalbesaya.com ,"C/ San Bernardo 13, 8º Esq. Gran Vía. 28015 Madrid",http://www.esmadrid.com/alojamientos/besaya,alojamientos
67252,Atocha Almudena Mart&iacute;n,40.407303000000,-3.693791000000,(+34) 91 429 95 79,,"Calle Atocha, 43, 3ª planta | 28012 - Madrid",http://www.esmadrid.com/alojamientos/atocha-almudena-martin,alojamientos
67255,Sil &amp; Serranos,40.427143000000,-3.701673000000,(+34) 91 448 89 72 ,info@silserranos.com,"Fuencarral, 95, 2º D",http://www.esmadrid.com/alojamientos/sil-serranos,alojamientos
67254,Benamar,40.425728000000,-3.698978000000,(+34) 91 308 00 92 ,benamar@hostalbenamar.es,"Calle San Mateo 20 2D,  28004, Madrid",http://www.esmadrid.com/alojamientos/benamar,alojamientos
67256,Bermejo,40.413364000000,-3.701284000000,(+34) 91 429 96 04 ,reservas@hostalbermejo.es,"Calle Atocha, 43, 2º izda, Madrid",http://www.esmadrid.com/alojamientos/bermejo,alojamientos
67257,THC Bergant&iacute;n hostel,40.416481700000,-3.701587200000,(+34) 91 521 31 15 ,reservasbergantin@thchostels.com,"C/ Victoria, 1. 28012, Madrid",http://www.esmadrid.com/alojamientos/bergantin,alojamientos
67348,El Tera,40.412384000000,-3.700190000000,(+34) 91 369 32 04,,"Calle Magdalena, 29, 28000 Madrid",http://www.esmadrid.com/alojamientos/el-tera,alojamientos
67259,Betanzos,40.413284000000,-3.702397000000,(+34) 91 369 14 40 ,,"Luis Vélez de Guevara, 8, 3º I",http://www.esmadrid.com/alojamientos/betanzos,alojamientos
67260,La Selecta,40.419827000000,-3.700176000000,(34) 91 531 01 58 ,info@laselecta.es,"Calle Gran Vía, 15, 28013 Madrid",http://www.esmadrid.com/alojamientos/la-selecta,alojamientos
67261,Bianco,40.416214000000,-3.699654000000,(+34) 91 369 13 32 ,info@hostalbianco.com ,C/ Echegaray 5. 1º Dcha 28014 Madrid,http://www.esmadrid.com/alojamientos/bianco,alojamientos
67586,Americano,40.416742296221,-3.703304529190,(+34) 91 522 28 22,hostalamericano@yahoo.es,"Puerta del Sol, 11",http://www.esmadrid.com/alojamientos/americano,alojamientos
67334,Los Alpes,40.421129200000,-3.701318800000,(+34) 91 531 70 71,info@hostallosalpes.com,"Fuencarral, 17",http://www.esmadrid.com/alojamientos/los-alpes,alojamientos
67345,Astoria,40.416474900000,-3.699282500000,(+34) 91 429 11 88,info@hostal-astoria.com,"Carrera San Jerónimo, 30-32,5º 28014 Madrid España ",http://www.esmadrid.com/alojamientos/astoria,alojamientos
67328,Victoria III,40.416590000000,-3.699165000000,(+34) 91 420 23 57,,"C/ Carrera San Jerónimo, 30 - 4º ",http://www.esmadrid.com/alojamientos/victoria-iii,alojamientos
67344,Tudescos,40.422570000000,-3.703778000000,(+34) 915315266,hostaltudescos@telefonica.net,"Baja de San Pablo, 1, 2º D",http://www.esmadrid.com/alojamientos/tudescos,alojamientos
67593,Las Torres,40.413030000000,-3.699279000000,(+34) 91 429 17 04,hostallastorres@hotmail.com,"León, 29",http://www.esmadrid.com/alojamientos/las-torres,alojamientos
67592,Trevinca,40.428288000000,-3.698516000000,(+34) 91 445 92 90,info@hostal-trevinca.com," Calle Sagasta n° 23, 6°. (321,34 km) 28004 Madrid",http://www.esmadrid.com/alojamientos/trevinca,alojamientos
67589,Los Arcos,40.415730000000,-3.704719000000,(+34) 91 522 59 76,contact@los-arcos.net,"Marqués Viudo de Pontejos, 3",http://www.esmadrid.com/alojamientos/los-arcos,alojamientos
67588,Valencia,40.420457600000,-3.705482400000,(+34) 91 522 11 15 ,info@hostal-valencia.com                                                ,C/ Gran Vía 44 - 5º Planta - 28013 - Madrid,http://www.esmadrid.com/alojamientos/valencia,alojamientos
67585,Hostal Alonso,40.414513000000,-3.702361000000,(+34) 91 531 56 79,hostalalonso@gmail.com,"Espoz y Mina, 17, 3º",http://www.esmadrid.com/alojamientos/hostal-alonso,alojamientos
67583,La Vera	,40.412413400000,-3.701057500000,(+34) 91 369 17 38,info@hostal-lavera.com,"C/ Magdalena 21, 28012 - Madrid",http://www.esmadrid.com/alojamientos/la-vera,alojamientos
67582,Victoria,40.416317200000,-3.703027200000,(+34) 91 522 99 82,reservas@hostal-victoria.com,"Carretas, 7, 2º",http://www.esmadrid.com/alojamientos/victoria,alojamientos
67591,Triana,40.419235000000,-3.703379000000,(+34) 91 532 68 12,,"Calle de la Salud, 13, 1º, Centro de Madrid, 28013 Madrid, España ",http://www.esmadrid.com/alojamientos/triana,alojamientos
67329,Victoria II,40.416557000000,-3.703344000000,(+34) 91 522 15 49,reservas@hostal-victoria.com,"C/ carretas 3 2,4 , Madrid, madrid, 28012, España",http://www.esmadrid.com/alojamientos/victoria-ii,alojamientos
67330,Alhambra Suites,40.416100000000,-3.702360000000,(+34) 91 522 91 03,info@suitealhambra.com,"Espoz y Mina, 8 28012 Madrid España ",http://www.esmadrid.com/alojamientos/alhambra-suites,alojamientos
67331,Veracruz,40.416481700000,-3.701587200000,(+34) 91 522 76 35 ,info@hostalveracruz.com,"c/ Victoria, 1, 3º Madrid",http://www.esmadrid.com/alojamientos/veracruz,alojamientos
67332,Aliste,40.419545500000,-3.701106300000,(+34) 91 521 59 79 ,info@hostalaliste.net,"Caballero de Gracia, 6. 3ª Planta",http://www.esmadrid.com/alojamientos/aliste,alojamientos
67335,V&aacute;zquez de Mella,40.420853000000,-3.699909000000,(+34) 91 522 19 60,info@hostalvazquezdemella.com,"Pedro Zerolo  , 1, 3º",http://www.esmadrid.com/alojamientos/vazquez-de-mella,alojamientos
67336,Am&eacute;rica,40.421581000000,-3.700247900000,(+34) 91 522 64 48,info@hostalamerica.net,"Hortaleza, 19, 5ª Planta",http://www.esmadrid.com/alojamientos/america,alojamientos
67337,Andorra,40.420030500000,-3.704179600000,(+34) 91 532 31 16 ,info@hostalandorra.com,"Calle Gran Vía, 33, 28013 Madrid",http://www.esmadrid.com/alojamientos/andorra,alojamientos
67340,Hostal Coraz&oacute;n,40.421513000000,-3.698681000000,(+34) 91 531 11 65,infohostalcorazondemadrid@gmail.com,"San Bartolomé, 7",http://www.esmadrid.com/alojamientos/hostal-corazon,alojamientos
67343,Arrate,40.437042000000,-3.715406000000,(+34) 91 544 30 63,mariarsp@telefonica.net,"Gaztambide, 61",http://www.esmadrid.com/alojamientos/arrate,alojamientos
67594,Tokio,40.422080800000,-3.702391200000,(+34) 91 522 95 14,reservas@hostaltokio.com,"Puebla, 6, 1º D",http://www.esmadrid.com/alojamientos/tokio,alojamientos
67325,Zabala,40.412413400000,-3.701057500000,(+34) 91 369 19 88, info@hostalzabala.es,"Magdalena, 21, 2º Izqda",http://www.esmadrid.com/alojamientos/zabala,alojamientos
67262,La Zona,40.421205200000,-3.701928200000,(+34) 91 521 99 04,info@hostallazona.com,"Calle Valverde 7, 1º y 2º, 28004, Madrid",http://www.esmadrid.com/alojamientos/la-zona,alojamientos
67327,Villam&aacute;&ntilde;ez,40.413990700000,-3.697011700000,(+34) 91 429 81 97,info@hostalreconquista.com,"San Agustín, 16",http://www.esmadrid.com/alojamientos/villamanez,alojamientos
67326,Hostal Aeropuerto,40.468955538081,-3.580791950226,(+34) 91 747 53 11,hostalaeropuerto@msn.com,"de Logroño, 102",http://www.esmadrid.com/alojamientos/aeropuerto,alojamientos
67267,Hostal MH Fuencarral,40.420932100000,-3.701108400000,(+34) 91 522 05 85 ,reservas@hostalmh.com,"Fuencarral, 10, 3º",http://www.esmadrid.com/alojamientos/hostal-mh-fuencarral,alojamientos
67324,Hostal Abril,40.422619500000,-3.700874300000,(+34) 91 531 53 38, reservas@hostalabrilmadrid.com,"Fuencarral, 39, 4º dcha",http://www.esmadrid.com/alojamientos/hostal-abril,alojamientos
67323,Zamora,40.420960000000,-3.699884600000,(+34) 91 521 70 31,reservas@hostalzamora.com,"Pedro Zerolo, 1, 4º I",http://www.esmadrid.com/alojamientos/zamora,alojamientos
67322,Hostal Abami,40.425846500000,-3.707296200000,(+34) 91 532 39 31,reservas@abamihostal.com,"San Bernardo, 55, 3º izquierda",http://www.esmadrid.com/alojamientos/hostal-abami,alojamientos
67270,Alfaro,40.415295000000,-3.698999000000,(+34) 91 429 61 73,info@hostalalfaro.com,"Ventura de la Vega, 16, 2-3",http://www.esmadrid.com/alojamientos/alfaro,alojamientos
67269,Hostal Alegr&iacute;a,40.405741387079,-3.692130446434,(+34) 91 528 76 82,hostalalegria@gmail.com,"Rafael de Riego, 8 5º",http://www.esmadrid.com/alojamientos/hostal-alegria,alojamientos
67263,Zamor&aacute;n,40.421500000000,-3.701122000000,(+34) 91 532 20 60 /,info@hostalzamoran.com,"Fuencarral, 18, 2º I",http://www.esmadrid.com/alojamientos/zamoran,alojamientos
67264,Adriano,40.414884217691,-3.702843189240,(+34) 91 521 13 39,info@hostaladriano.com,"Cruz, 26, 4º",http://www.esmadrid.com/alojamientos/adriano,alojamientos
67265,Aguilar,40.416474400000,-3.699167300000,(+34) 91 429 59 26,aguilar@hostalaguilar.com,"San Jerónimo, 32, 2ª -3ª Planta",http://www.esmadrid.com/alojamientos/aguilar,alojamientos
67266,Hostal Atelier,40.415173000000,-3.700302000000,(+345) 91 531 66 00,reservasnersan@gmail.com,"Príncipe, 18 - 1º dcha ",http://www.esmadrid.com/alojamientos/hostal-atelier,alojamientos
67268,Viky,40.473725100000,-3.575670000000,(+34) 91 305 48 12 ,info@hostalviky.com,"Marte, 2",http://www.esmadrid.com/alojamientos/viky,alojamientos
67534,Los 5 Pinos,40.449370200000,-3.569316000000,(+34) 91 312 01 21,hotel@los5pinos.com,"Aragón, 366",http://www.esmadrid.com/alojamientos/los-5-pinos,alojamientos
67618,4C Puerta Europa,40.464989000000,-3.693191500000,(+34) 91 579 60 77,info@hotel-puertaeuropa.com,"Bravo Murillo, 364",http://www.esmadrid.com/alojamientos/4c-puerta-europa,alojamientos
67526,Sancho,40.400160100000,-3.694204900000,(+34) 91 530 67 00 ,reservas@hotel-sancho.com,"Delicias, 56",http://www.esmadrid.com/alojamientos/sancho,alojamientos
67519,Apartahotel Marcenado,40.445720000000,-3.672846000000,(+34) 91 519 03 38 ,info@apartahotelmarcenado.com,"Marcenado, 9",http://www.esmadrid.com/alojamientos/apartahotel-marcenado,alojamientos
67525,Casual Madrid Del Teatro,40.416430800000,-3.699596300000,(+34) 91 429 95 51,casualmadriddelteatro@casualhoteles.com,"de Echegaray, 1 ",http://www.esmadrid.com/alojamientos/casual-madrid-teatro,alojamientos
67521,Gran Legazpi,40.391586000000,-3.695809000000,(+34) 91 539 66 00,info@hotelgranlegazpi.com,"Paseo de la Chopera, 71, 28045 Madrid",http://www.esmadrid.com/alojamientos/gran-legazpi,alojamientos
67522,Moderno,40.416805000000,-3.704749000000,(+34) 91 531 09 00 ,info@hotel-moderno.com ,"ARENAL, 2 28013 MADRID ESPAÑA",http://www.esmadrid.com/alojamientos/moderno,alojamientos
67518,Senator Castellana,40.458690000000,-3.694996000000,(+34 ) 91 579 97 38 ,reservas@playasenator.com,"Calle de Julián Besteiro, 37",http://www.esmadrid.com/alojamientos/senator-castellana,alojamientos
67524,Acta Madfor,40.421447888596,-3.721715211868,(+34) 91 547 14 00,reservas.madfor@actahotels.com,"Florida, 13",http://www.esmadrid.com/alojamientos/acta-madfor,alojamientos
67520,Don Luis,40.472775000000,-3.578517000000,(+34) 91 312 04 30,hoteldonluis@donluishotel.com ,"Avda. General, 12 Madrid, 28042 Madrid",http://www.esmadrid.com/alojamientos/don-luis,alojamientos
67523,Aquaria Negresco,40.419758000000,-3.704202000000,(+34) 91 523 86 10 ,negresco@aquaria-hotels.es ,"Mesonero Romanos, 12",http://www.esmadrid.com/alojamientos/aquaria-negresco,alojamientos
67514,Francisco I,40.416943000000,-3.705438000000,(+34) 91 548 02 04 ,info@hotelfrancisco.com,"Calle del Arenal 15,28013, Madrid",http://www.esmadrid.com/alojamientos/francisco-i,alojamientos
67517,Europa,40.417522500000,-3.703415500000,(+34) 91 521 29 00,info@hoteleuropa.eu,"del Carmen, 4 ",http://www.esmadrid.com/alojamientos/europa,alojamientos
67516,Caballero Errante,40.466125100000,-3.696039900000,(+34) 91 119 7131 ,hotel@hotelcaballeroerrante.com,Calle Pinos Alta – Nº14 - 28029 – MADRID - Spain,http://www.esmadrid.com/alojamientos/caballero-errante,alojamientos
67515,Ibis Madrid Aeropuerto Barajas,40.470306000000,-3.580674000000,(+34) 91 301 09 99,H3753@accor.com,"General, 49",http://www.esmadrid.com/alojamientos/ibis-madrid-aeropuerto-barajas,alojamientos
67495,Ganivet ,40.408214400000,-3.710743000000,(+34) 91 365 36 00 ,ganivet@hotelesporcel.com,"Toledo, 111-113",http://www.esmadrid.com/alojamientos/ganivet,alojamientos
67509,Mora,40.411354000000,-3.693034000000,(+34) 91 420 15 69 ,hotelmorareservas@hotelmora.com,"Paseo del Prado, 32  28014 Madrid",http://www.esmadrid.com/alojamientos/mora,alojamientos
67513,Ibis Madrid Centro ,40.428610000000,-3.703221000000,(+34) 91 448 58 16 ,h3318@accor.com,"Manuela Malasaña, 6",http://www.esmadrid.com/alojamientos/ibis-madrid-centro,alojamientos
67512,Isis,40.388700000000,-3.700201000000,(+34) 91 476 32 11,contacto@hotelisismadrid.com,"Antonio López, 168",http://www.esmadrid.com/alojamientos/isis,alojamientos
67511,Mediod&iacute;a,40.408650000000,-3.692352000000,(+34) 91 527 30 60 ,info@mediodiahotel.com,"Plaza del Emperador Carlos V, 8 28012 Madrid España",http://www.esmadrid.com/alojamientos/mediodia,alojamientos
67510,M&eacute;xico,40.411510000000,-3.694270000000,(+34) 91 429 25 00,hotelmexicomadrid@gmail.com,"Gobernador , 24",http://www.esmadrid.com/alojamientos/mexico,alojamientos
67508,Hotel Plaza Mayor,40.414790000000,-3.705582000000,(+34) 91 360 06 06 ,info@h-plazamayor.com ,"Atocha, 2",http://www.esmadrid.com/alojamientos/hotel-plaza-mayor,alojamientos
67507,NH Madrid Barajas Airport,40.451084000000,-3.594544000000,(+34) 91 742 02 00,nhbarajas@nh-hotels.com,"Catamarán, 1 28042 Barajas Madrid - España",http://www.esmadrid.com/alojamientos/nh-madrid-barajas-airport,alojamientos
67506,Neo Magna,40.428510000000,-3.671213000000,(+34) 91 401 65 10,info@neomagna.com,"Don Ramón de la Cruz, 94",http://www.esmadrid.com/alojamientos/neo-magna,alojamientos
67505,Di Carlo,40.463272000000,-3.697880000000,(+34) 91 449 02 72 ,reservas@dicarlohoteles.es,"Azucenas, 5",http://www.esmadrid.com/alojamientos/di-carlo,alojamientos
67504,Concordy,40.464188000000,-3.790002000000,(+34) 91 307 65 54 ,info@hotelconcordy.com,"Hotel Concordy, Ctra. de La Coruña, 12, 28023 Madrid",http://www.esmadrid.com/alojamientos/concordy,alojamientos
67503,Room Mate Mario,40.418660000000,-3.709575000000,(+34) 91 548 85 48,mario@room-matehotels.com,"c/ Campomanes 28013, Madrid",http://www.esmadrid.com/alojamientos/room-mate-mario,alojamientos
67500,Sterling,40.423016900000,-3.707660800000,(+34) 91 542 04 00 ,reservas@hotelsterlingmadrid.com,"San Bernardo, 29 y 31 , 28015 Madrid (España) ",http://www.esmadrid.com/alojamientos/sterling,alojamientos
67501,Hotel Asturias,40.416797600000,-3.700177800000,(+34) 91 429 66 76 ,info@hotel-asturias.com,"Sevilla, 2, Madrid, España",http://www.esmadrid.com/alojamientos/hotel-asturias,alojamientos
67502,4C Bravo Murillo,40.454094000000,-3.702871000000,(+34) 91 567 08 82,bravomurillo@hoteles4c.com,"Bravo Murillo, 180",http://www.esmadrid.com/alojamientos/4c-bravo-murillo,alojamientos
67498,&Eacute;rase un Hotel,40.462948000000,-3.696698600000,(+34) 91 571 28 80,reservas@eraseunhotel.com,"Bravo Murillo, 304",http://www.esmadrid.com/alojamientos/erase-hotel,alojamientos
67499,Petit Palace Ducal Chueca,40.420354000000,-3.701102400000,(+34) 91 521 10 43 ,CHUECA@PETITPALACE.COM," CALLE DE HORTALEZA, 3, 28004 MADRID, ESPAÑA",http://www.esmadrid.com/alojamientos/petit-palace-ducal-chueca,alojamientos
67496,Best Western Los Condes,40.421932000000,-3.706458000000,(+34) 91 521 54 55,info@hotel-loscondes.com,"Libreros, 7",http://www.esmadrid.com/alojamientos/best-western-los-condes,alojamientos
67497,Miau,40.414310800000,-3.700216200000,(+34) 91 369 71 20 ,info@hotelmiau.com,Calle El Príncipe 26  28012 Madrid	 España	,http://www.esmadrid.com/alojamientos/miau_6,alojamientos
67544,Hotel Avenida Gran V&iacute;a,40.419900000000,-3.704100000000,(+34) 91 532 71 07,reservas@hotelavenidagravia.com,"Mesonero Romanos, 14",http://www.esmadrid.com/alojamientos/hotel-avenida-gran-via,alojamientos
67527,AC Avenida de Am&eacute;rica,40.438100000000,-3.672450000000,(+34) 91 724 42 40,acamerica@ac-hotels.com,"de Cartagena, 83-85",http://www.esmadrid.com/alojamientos/ac-avenida-de-america,alojamientos
67566,Rafael Hoteles Ventas,40.432102200000,-3.656451300000,(+34) 91 326 16 20,ventas@rafaelhoteles.com,"Alcalá, 269",http://www.esmadrid.com/alojamientos/rafael-hoteles-ventas,alojamientos
67568,Regina,40.417862000000,-3.700042700000,(+34) 91 521 47 25,info@hotelreginamadrid.com,"Alcalá, 19",http://www.esmadrid.com/alojamientos/regina,alojamientos
67565,Holiday Inn Madrid-Pir&aacute;mides,40.402564300000,-3.711520800000,(+34) 91 517 18 28,holidayinnmadridpiramides@himadridpiramides.com,"Paseo De Las Acacias, 40    Madrid  28005   Spain ",http://www.esmadrid.com/alojamientos/holiday-inn-madrid-piramides,alojamientos
67564,Hotel Puerta de Toledo Madrid,40.406316100000,-3.712249100000,(+34) 91 474 71 00,madrid@hotelpuertadetoledo.es,"Puerta de Toledo, 4",http://www.esmadrid.com/alojamientos/puerta-de-toledo,alojamientos
67563,Pr&iacute;ncipe P&iacute;o,40.421154900000,-3.714592200000,(+34) 91 547 08 00,reservas@hotelprincipepio.com,"CUESTA DE SAN VICENTE, 14 28008, MADRID (ESPAÑA)",http://www.esmadrid.com/alojamientos/principe-pio,alojamientos
67562,Ibis Styles Madrid Prado,40.414827100000,-3.698990000000,(+34) 91 369 02 34,hotelprado@pradohotel.com,"Calle Prado, 11",http://www.esmadrid.com/alojamientos/ibis-styles-madrid-prado,alojamientos
67561,Petit Palace Tres Cruces,40.419359900000,-3.702810100000,(+34) 91 522 33 27,trescruces@petitpalace.com," CALLE DE LAS TRES CRUCES, 6, 28013 MADRID, ESPAÑA",http://www.esmadrid.com/alojamientos/petit-palace-tres-cruces,alojamientos
67560,Petit Palace Puerta del Sol,40.417016900000,-3.705102800000,(+34) 91 521 05 42,puertadelsol@petitpalace.com," CALLE DEL ARENAL, 4, 28013 MADRID, ESPAÑA",http://www.esmadrid.com/alojamientos/petit-palace-puerta-del-sol,alojamientos
67559,Petit Palace Preciados,40.418084900000,-3.704423000000,(+34) 91 531 41 05,preciados@petitpalace.com,"Galdo, 2",http://www.esmadrid.com/alojamientos/petit-palace-preciados,alojamientos
67558,Petit Palace Triball,40.420466600000,-3.702926400000,(+34) 91 522 47 90,triball@petitpalace.com,"C/ GONZALO JIMENEZ DE QUESADA, 2, 28004 MADRID, ESPAÑA",http://www.esmadrid.com/alojamientos/petit-palace-triball,alojamientos
67569,Room Mate Alicia,40.414535400000,-3.700012800000,(+34) 91 389 60 95,alicia@room-matehotels.com,Calle del Prado 2 Madrid,http://www.esmadrid.com/alojamientos/room-mate-alicia,alojamientos
67570,Se&ntilde;orial,40.422500000000,-3.710738000000,(+34) 91 758 09 30,senorialreservas@hotmail.com,"Leganitos, 41",http://www.esmadrid.com/alojamientos/senorial,alojamientos
67571,Silken Torre Garden,40.419500000000,-3.624870000000,(+34) 91 313 58 10,hoteltorregarden@hoteles-silken.com,"Hermanos García Noblejas, 190 bis",http://www.esmadrid.com/alojamientos/silken-torre-garden,alojamientos
67575,Tryp Madrid Chamber&iacute;,40.438384000000,-3.700857300000,(+34) 91 447 40 00,tryp.madrid.chamberi@melia.com,"José Abascal, 8",http://www.esmadrid.com/alojamientos/tryp-madrid-chamberi,alojamientos
67581,Victoria 4,40.416242400000,-3.701736100000,(+34) 91 523 84 30,reservas@hotelvictoria4.com,"Victoria, 4",http://www.esmadrid.com/alojamientos/victoria-4,alojamientos
67580,Hotel Madrid Centro,40.422905800000,-3.709732200000,(+34) 91 541 72 27,hotel.madrid.centro@melia.com,"Calle Gran Vía, 72 Madrid",http://www.esmadrid.com/alojamientos/hotel-madrid-centro,alojamientos
67578,Infanta Mercedes,40.458000000000,-3.698590000000,(+34) 91 570 33 33,reservas@hotelinfantamercedes.es,"Huesca, 21",http://www.esmadrid.com/alojamientos/infanta-mercedes,alojamientos
67577,Hotel Madrid Gran V&iacute;a,40.419868000000,-3.702206900000,(+34) 91 522 11 21,hotelmadridgranvia@melia.com,"Calle Gran Vía, 25 Madrid",http://www.esmadrid.com/alojamientos/tryp-madrid-gran-via,alojamientos
67576,Tryp Madrid Chamart&iacute;n,40.472024900000,-3.684761700000,(+34) 91 733 34 00,tryp.madrid.chamartin@melia.com,"Mauricio Ravel, 10",http://www.esmadrid.com/alojamientos/tryp-madrid-chamartin,alojamientos
67574,Cortezo,40.413696400000,-3.703650800000,(+34) 91 369 01 01,reservas@hotelcortezo.com,"Doctor Cortezo, 3",http://www.esmadrid.com/alojamientos/cortezo,alojamientos
67573,Travelodge Torrelaguna,40.444419900000,-3.655168600000,(+34) 91 405 73 93,reservas@travelodge.co.uk,"Torrelaguna, 69",http://www.esmadrid.com/alojamientos/travelodge-torrelaguna,alojamientos
67572,Hotel Indigo Madrid - Princesa,40.430586700000,-3.716913700000,(+34) 91-548-19-00,info@indigomadridprincesa.com,"Marqués de Urquijo, 4",http://www.esmadrid.com/alojamientos/hotel-indigo-madrid-princesa,alojamientos
67557,Petit Palace Arenal,40.417311400000,-3.706481000000,(+34) 91 564 43 55,OPERA@PETITPALACE.COM," CALLE DEL ARENAL, 16, 28013 MADRID, ESPAÑA",http://www.esmadrid.com/alojamientos/petit-palace-arenal,alojamientos
67556,Osuna,40.453414400000,-3.612484400000,(+34) 91 741 81 00,info@hotelosuna.es,"Luis de la Mata, 18",http://www.esmadrid.com/alojamientos/osuna,alojamientos
67532,Atl&aacute;ntico,40.420200000000,-3.704626000000,(+34) 91 522 64 80,informacion@hotelatlantico.es,"Calle Gran Vía, 38 28013 Madrid",http://www.esmadrid.com/alojamientos/atlantico,alojamientos
67535,Hotel Trafalgar,40.434028900000,-3.701790600000,(+34) 91 445 62 00,info@hotel-trafalgar.com,"C/ Trafalgar, 35 28010 Madrid Madrid España",http://www.esmadrid.com/alojamientos/hotel-trafalgar,alojamientos
67536,Hotel Villa de Barajas,40.472901400000,-3.582159400000,(+34) 91 329 28 18,villabarajas@infonegocio.com,"de Logroño, 331",http://www.esmadrid.com/alojamientos/best-western-hotel-villa-de-barajas,alojamientos
67546,Leonardo Hotel Madrid City Center,40.430002900000,-3.708479900000,(+34) 91 446 09 00,res.madrid@leonardo-hotels.com,"Alberto Aguilera, 18",http://www.esmadrid.com/alojamientos/leonardo-hotel-madrid-city-center,alojamientos
67543,Petit Palace Cliper Gran V&iacute;a,40.419221100000,-3.704052400000,(+34) 91 531 17 00,cliper@petitpalace.com," Calle de Chinchilla, 6, 28013 Madrid, España",http://www.esmadrid.com/alojamientos/petit-palace-cliper-gran-via,alojamientos
67541,Eurostars Zarzuela Park,40.470813400000,-3.768915500000,(+34) 91 211 49 00,reservas@eurostarszarzuelapark.com,"Dario Aparicio, 32",http://www.esmadrid.com/alojamientos/eurostars-zarzuela-park,alojamientos
67540,Dos Castillas,40.419234700000,-3.704313200000,(+34) 91 524 97 50,reservas@hoteldoscastillas.com,"Abada, 7",http://www.esmadrid.com/alojamientos/dos-castillas,alojamientos
67539,Claridge,40.406400300000,-3.669225200000,(+34) 91 551 94 00,reservas@hotelclaridge.com,"Conde de Casal, 6",http://www.esmadrid.com/alojamientos/claridge,alojamientos
67538,Hrc-hotel,40.409878500000,-3.713055700000,(+34) 91 365 86 00,reservas@hrc-hotel.com,C/ del Ángel 18 Madrid,http://www.esmadrid.com/alojamientos/hrc-hotel,alojamientos
67567,Regente,40.419717000000,-3.704295400000,(+34) 91 521 29 41,reservas@hotelregente.com,"Mesonero Romanos, 9",http://www.esmadrid.com/alojamientos/regente,alojamientos
67531,Ateneo,40.418153400000,-3.702459600000,(+34) 91 521 20 12,info@hotel-ateneo.com,"Montera, 22",http://www.esmadrid.com/alojamientos/ateneo,alojamientos
67529,Anaco,40.419369700000,-3.703054000000,(+34) 91 522 46 04,info@anacohotel.com,"Tres Cruces, 3, 28013 Madrid",http://www.esmadrid.com/alojamientos/anaco,alojamientos
67555,&Oacute;pera,40.418800000000,-3.710293000000,(+34) 91 541 28 00,reservas@hotelopera.com,"Cuesta de Santo Domingo, 2 - 28013 Madrid, España ",http://www.esmadrid.com/alojamientos/opera,alojamientos
67554,NH Zurbano,40.438639500000,-3.692970100000,(+34) 91 441 45 00,nhzurbano@nh-hotels.com ,"Zurbano, 79-81",http://www.esmadrid.com/alojamientos/nh-zurbano,alojamientos
67553,NH Atocha,40.407813700000,-3.689414700000,(+34) 91 539 94 00,nhatocha@nh-hotels.com,"Infanta Isabel, 9",http://www.esmadrid.com/alojamientos/nh-atocha,alojamientos
67552, NH Madrid Sur,40.398906500000,-3.669939800000,(+34) 91 434 11 20,nhmadridsur@nh-hotels.com,"Ciudad de Barcelona, 113",http://www.esmadrid.com/alojamientos/nh-madrid,alojamientos
67551,NH Lagasca,40.427488200000,-3.685033900000,(+34) 91 575 46 06,nhlagasca@nh-hotels.com ,"Lagasca, 64",http://www.esmadrid.com/alojamientos/nh-lagasca,alojamientos
67549,NH Madrid Chamber&iacute;,40.439639400000,-3.698263000000,(+34) 91 442 83 00,nhchamberi@nh-hotels.com,"Bretón de los Herreros, 29 2",http://www.esmadrid.com/alojamientos/nh-madrid-chamberi,alojamientos
67548,NH Madrid Balboa,40.435964615037,-3.681761026382,(+34) 91 563 03 24,nhbalboa@nh-hotels.com ,"de Núñez de Balboa, 112",http://www.esmadrid.com/alojamientos/nh-madrid-balboa,alojamientos
67547,Leonardo Boutique Hotel Madrid,40.437225600000,-3.708545800000,(+34) 91 593 97 77,info.boutiquemadrid@leonardo-hotels.com,"Vallehermoso 65, 28015 Madrid",http://www.esmadrid.com/alojamientos/leonardo-boutique-hotel-madrid,alojamientos
67528,Acis y Galatea,40.450347000000,-3.612955200000,(+34) 91 743 49 01,res.acisygalatea@hotelesglobales.com,"Galatea, 6",http://www.esmadrid.com/alojamientos/acis-y-galatea,alojamientos
67537,Cas&oacute;n del Tormes,40.422300000000,-3.711621000000,(+34) 91 541 97 46,reservas@hotelcasondeltormes.com," Calle Río, 7 28013 Madrid",http://www.esmadrid.com/alojamientos/cason-del-tormes,alojamientos
67487,Preciados,40.419682300000,-3.707450800000,(+34) 91 454 44 00 ,preciadoshotel@preciadoshotel.com,"Preciados, 37",http://www.esmadrid.com/alojamientos/preciados,alojamientos
67488,Quinta de los Cedros,40.459565700000,-3.662937900000,(+34) 91 515 22 00 ,reservas@quintadeloscedros.com ,"Calle Allendesalazar, 4 – 28043. Madrid",http://www.esmadrid.com/alojamientos/quinta-de-los-cedros,alojamientos
67489,Suite Prado,40.415131500000,-3.699138800000,(+34) 91 420 23 18 ,hotel@suiteprado.com,"Manuel Fernández y Gonzalez, 10",http://www.esmadrid.com/alojamientos/suite-prado,alojamientos
67490,Tryp Alameda Aeropuerto,40.468890000000,-3.580724000000,(+34) 91 747 48 00 ,tryp.alameda.aeropuerto@melia.com,"Av de Logroño, 100 Madrid",http://www.esmadrid.com/alojamientos/tryp-alameda-aeropuerto,alojamientos
67491,Sercotel Alcal&aacute; 611,40.447180000000,-3.611423000000,(+34) 91 743 41 30,reservas@sercotel.com,"Alcalá, 611",http://www.esmadrid.com/alojamientos/sercotel-alcala-611,alojamientos
67493,Hotel Madrid Plaza Espa&ntilde;a,40.422860000000,-3.710097000000,(+34) 91 547 09 00 ,hotel.madrid.plaza@melia.com,"Calle Gran Vía, 74 Madrid",http://www.esmadrid.com/alojamientos/hotel-madrid-plaza-espana,alojamientos
67494,Villamadrid,40.489508000000,-3.689522300000,(+34) 91 253 50 00 ,info@hotelvillamadrid.com,"Xaudaró, 2",http://www.esmadrid.com/alojamientos/villamadrid,alojamientos
67470,Vincci V&iacute;a 66,40.422412800000,-3.708937800000,(+34) 91 550 42 99 ,via66@vinccihoteles.com,"Calle Gran Vía, 66, 28013 Madrid",http://www.esmadrid.com/alojamientos/vincci-via-66,alojamientos
67471,Vincci Soho,40.414933900000,-3.698268500000,(+34) 91 141 41 00,soho@vinccihoteles.com,"Calle del Prado, 18, 28014 Madrid",http://www.esmadrid.com/alojamientos/vincci-soho,alojamientos
67475,AC Coslada Aeropuerto,40.444441462050,-3.537064872035,(+34) 91 746 27 30,accoslada@ac-hotels.com,Rejas,http://www.esmadrid.com/alojamientos/ac-coslada-aeropuerto,alojamientos
67476,Agumar,40.406932200000,-3.683195200000,(+34) 91 552 69 00 ,hotelagumar@h-santos.es,"Pso. Reina Cristina, 7 28014 Madrid España ",http://www.esmadrid.com/alojamientos/agumar,alojamientos
67477,Artiem Madrid,40.442812700000,-3.648091600000,(+34) 91 291 15 00,madrid.recepcion@artiemhotels.com,"Juan Pérez Zúñiga, 20",http://www.esmadrid.com/alojamientos/artiem-madrid,alojamientos
67478,Exe El Coloso,40.421209900000,-3.709891100000,(+34) 91 548 76 40 ,reservas@exehotelelcoloso.com,"Leganitos, 13",http://www.esmadrid.com/alojamientos/el-coloso,alojamientos
67473,Zenit Conde de Orgaz,40.456594300000,-3.649394400000,(+34) 91 748 97 60,condeorgaz@zenithoteles.com,"Moscatelar, 24",http://www.esmadrid.com/alojamientos/zenit-conde-de-orgaz,alojamientos
67480,Don P&iacute;o,40.463135000000,-3.676031000000,(+34) 91 353 07 80 ,hoteldonpio@hoteldonpio.com,"Avenida Pío XII, 25 - 28016. Madrid, Spain",http://www.esmadrid.com/alojamientos/don-pio,alojamientos
67481,Sercotel Eurobuilding 2,40.458392000000,-3.694652200000,(+34) 91 154 90 60,reservas@eurobuilding2.es,"C.\ Orense, 69  Madrid, 28020,España",http://www.esmadrid.com/alojamientos/sercotel-eurobuilding-2,alojamientos
67482,Hotel City House Florida Norte,40.421074000000,-3.720990000000,(+34) 91 542 83 00 ,reservas.floridanorte@farandahotels.com,"Paseo de la Florida, 5 28008, Madrid. Tel: +34 91 542 8300 · Madrid",http://www.esmadrid.com/alojamientos/hotel-city-house-florida-norte,alojamientos
67483,NYX Madrid,40.450441468611,-3.698122501373,(+34) 91 553 59 00 ,info.nyxmadrid@leonardo-hotels.com,"del Comandante Zorita, 34",http://www.esmadrid.com/alojamientos/nyx-madrid,alojamientos
67484,Gran Versalles,40.428270000000,-3.697204000000,(+34) 91 447 57 00 ,hgv@hotelgranversalles.es ,"Covarrubias, 4",http://www.esmadrid.com/alojamientos/gran-versalles,alojamientos
67485,VP Jard&iacute;n de Recoletos,40.422306000000,-3.688944000000,(+34) 91 781 16 40 ,rc@vphoteles.com,"Gil de Santivañés, 6",http://www.esmadrid.com/alojamientos/vp-jardin-de-recoletos,alojamientos
67472,Zenit Abeba,40.432078400000,-3.673607000000,(+34) 91 401 16 50,reservasabeba@zenithoteles.com,"Alcántara, 63",http://www.esmadrid.com/alojamientos/zenit-abeba,alojamientos
67486,Hotel Meninas,40.418990000000,-3.709310000000,(+34) 91 541 28 05 ,reservas@hotelmeninas.com ,"Campomanes, 7",http://www.esmadrid.com/alojamientos/hotel-meninas,alojamientos
67474,Hotel Via Castellana,40.467695500000,-3.688331100000,(+34) 91 567 43 00,reservas@hotelviacastellana.com,"Castellana, 220",http://www.esmadrid.com/alojamientos/hotel-castellana,alojamientos
67455,Rafael Hoteles Atocha,40.401357900000,-3.687103600000,(+34) 91 468 81 00,atocha@rafaelhoteles.com,"Mendez Alvaro, 30",http://www.esmadrid.com/alojamientos/rafael-hoteles-atocha,alojamientos
67466,Innside Madrid Gran V&iacute;a,40.420478100000,-3.703887000000,(+34) 91 276 4747,,"de Mesonero Romanos, 13",http://www.esmadrid.com/alojamientos/innside-madrid-gran,alojamientos
67456,H10 Tribeca,40.455237800000,-3.694260700000,(+34) 91 597 15 68,h10.tribeca@h10hotels.com,"Pedro Teixeira, 5",http://www.esmadrid.com/alojamientos/h10-tribeca,alojamientos
67450,Petit Palace Plaza del Carmen,40.418436900000,-3.703723900000,(+34) 91 523 88 45,plazadelcarmen@petitpalace.com,"Plaza del Carmen, 4, 28013, Madrid, SP",http://www.esmadrid.com/alojamientos/petit-palace-plaza-del-carmen,alojamientos
67469,Vincci Centrum Madrid,40.417574100000,-3.698599400000,(+34) 91 360 47 20,centrum@vinccihoteles.com,"Cedaceros, 4",http://www.esmadrid.com/alojamientos/vincci-centrum-madrid,alojamientos
67468,Vincci Capitol,40.420446500000,-3.706582100000,(+34) 91 521 83 91 ,capitol@vinccihoteles.com,"CALLE GRAN VÍA, 41, 28013. MADRID., MADRID",http://www.esmadrid.com/alojamientos/vincci-capitol,alojamientos
67465,TRYP Madrid Atocha,40.411690800000,-3.697532900000,(+34) 91 330 05 00,tryp.atocha@melia.com,"Atocha, 83",http://www.esmadrid.com/alojamientos/tryp-madrid-atocha,alojamientos
67464,Gran Meli&aacute; Palacio de los Duques,40.419687701198,-3.709656000137,(+34) 91 541 67 00,gmpalacio@melia.com,"de Santo Domingo, 5",http://www.esmadrid.com/alojamientos/gran-melia-palacio-duques,alojamientos
67463,Mercure Madrid Plaza de Espa&ntilde;a,40.425743100000,-3.713871800000,(+34) 91 541 98 80,H1320@accor.com," Tutor, 1",http://www.esmadrid.com/alojamientos/mercure-madrid-plaza-de-espana,alojamientos
67462,Pullman Madrid Airport &amp; Feria,40.462299060451,-3.615354895592,(+34) 91 721 00 70,H1606@accor.com,"Capital de España, 10",http://www.esmadrid.com/alojamientos/pullman-madrid-airport-feria,alojamientos
67461,Silken Puerta Madrid,40.447617000000,-3.636922000000,(+34) 91 743 83 00,recepcion.puertamadrid@hoteles-silken.com ,"Juan Rizi, 5",http://www.esmadrid.com/alojamientos/silken-puerta-madrid,alojamientos
67460,Exe Puerta Castilla,40.467155000000,-3.689401000000,(+34) 91 453 19 00,reservas@hotelexeplaza.com,"Castellana, 191",http://www.esmadrid.com/alojamientos/silken-puerta-castilla,alojamientos
67459,Siete Islas Hotel,40.421387000000,-3.702008000000,(+34) 91 523 46 88,reservas@7islashotel.com,"Valverde, 14",http://www.esmadrid.com/alojamientos/siete-islas-hotel,alojamientos
67457,Senator Gran V&iacute;a 70 Spa,40.422789100000,-3.709539900000,(+34) 91 522 82 65,reservas@playasenator.com,"Gran Vía, 70",http://www.esmadrid.com/alojamientos/senator-gran-via-70-spa,alojamientos
67454,Quatro Puerta del Sol,40.417060600000,-3.699828100000,(+34) 91 532 90 49,info@hotelquatropuertadelsol.com,C/ Sevilla 4 28014 Madrid,http://www.esmadrid.com/alojamientos/quatro-puerta-del-sol,alojamientos
67453,Praga,40.394117300000,-3.707720000000,(+34) 91 469 06 00,hotelpraga@h-santos.es,"Antonio López, 65",http://www.esmadrid.com/alojamientos/praga,alojamientos
67452,Petit Palace Plaza de Espa&ntilde;a,40.420885500000,-3.708358800000,(+34) 91 542 51 15,plazaespana@petitpalace.com,"Calle de San Bernardo, 3, 28013, Madrid, España",http://www.esmadrid.com/alojamientos/petit-palace-plaza-espana,alojamientos
67451,Petit Palace Posada del Peine,40.415693800000,-3.705851400000,(+34) 91 523 81 51,posadadelpeine@petitpalace.com,"Calle Postas, 17, 28012 Madrid, España",http://www.esmadrid.com/alojamientos/petit-palace-posada-del-peine,alojamientos
67432,Meli&aacute; Madrid Serrano,40.435262330788,-3.685505390167,(+34) 91 562 66 00,melia.madrid.serrano@melia.com,"Claudio Coello, 139",http://www.esmadrid.com/alojamientos/melia--madrid-serrano,alojamientos
67433,NH Collection Madrid Abascal,40.438232000000,-3.695122000000,(+34) 91 441 00 15,nhcollectionabascal@nh-hotels.com,"Jose Abascal, 47",http://www.esmadrid.com/alojamientos/nh-collection-madrid-abascal,alojamientos
67434,H10 Puerta de Alcal&aacute;,40.422150400000,-3.681201000000,(+34) 91 435 10 60,h10.puerta.dealcala@h10hotels.com,"Alcalá, 66",http://www.esmadrid.com/alojamientos/nh-puerta-de-alcala,alojamientos
67448,Petit Palace Alcal&aacute; Torre,40.417933300000,-3.699501000000,(+34) 91 532 19 01,alcala@petitpalace.com,"Virgen de los Peligros , 2",http://www.esmadrid.com/alojamientos/petit-palace-alcala-torre,alojamientos
67447,Icon Wipton by Petit Palace,40.423902272561,-3.685261309147,(+34) 91 435 54 11,hellowipton@petitpalace.com,"C/ Jorge Juan, 17, 28001 - Madrid (Madrid) - España",http://www.esmadrid.com/alojamientos/icon-wipton-petit-palace,alojamientos
67446,Palacio de San Mart&iacute;n,40.418716600000,-3.706697500000,(+34) 91 701 50 00,sanmartin@intur.com,"PlazaSan Martín, 528013",http://www.esmadrid.com/alojamientos/palacio-de-san-martin,alojamientos
67436,NH La Habana,40.455740000000,-3.681786000000,(+34) 91 443 07 20 ,nhhabana@nh-hotels.com,"de la Habana , 73 ",http://www.esmadrid.com/alojamientos/nh-la-habana,alojamientos
67445,Nuevo Madrid,40.469765900000,-3.669335400000,(+34) 91 298 26 00,info@hotelnuevomadrid.com,"Bausá, 27",http://www.esmadrid.com/alojamientos/nuevo-madrid,alojamientos
67444,Exe Madrid Norte,40.491064900000,-3.671231200000,(+34) 91 302 49 00,reservas@exemadridnorte.com,"Martina Díaz, 4",http://www.esmadrid.com/alojamientos/exe-madrid-norte,alojamientos
67443,Ibis Styles Madrid City Las Ventas,40.441329497990,-3.657889366150,(+34)91 724 76 00,  HB4U5@ACCOR.COM,Albacete 1 Esquina avenida de badajoz 28027 MADRID ESPAÑA,http://www.esmadrid.com/alojamientos/novotel_ibis_style_madrid_city_las_ventas,alojamientos
67442,Novotel Madrid Campo de las Naciones,40.462556600000,-3.615096500000,(+34)91 721 18 18,H1636@accor.com,"Amsterdam, 3",http://www.esmadrid.com/alojamientos/novotel-madrid-campo-de-las-naciones,alojamientos
67440,NH Pr&iacute;ncipe de Vergara,40.436672000000,-3.679152000000,(+34) 91 563 26 95,nhprincipedevergara@nh-hotels.com ," Príncipe de Vergara, 92. 28006 Madrid - España",http://www.esmadrid.com/alojamientos/nh-principe-de-vergara,alojamientos
67439,NH Madrid Ventas,40.436070000000,-3.664097000000,(+34) 91 361 02 88,nhventas@nh-hotels.com,"Biarritz, 2",http://www.esmadrid.com/alojamientos/nh-madrid-ventas,alojamientos
67438,NH Madrid Nacional,40.409620000000,-3.692441000000,(+34) 91 429 66 29,nhnacional@nh-hotels.com ,"Paseo del Prado, 48",http://www.esmadrid.com/alojamientos/nh-madrid-nacional,alojamientos
67437,Mercader,40.360298000000,-3.665296000000,+34 917 866 320,recepcion@hotelmercader.com,"Eje  2-7A (Polígono Alimentario Mercamadrid), ",http://www.esmadrid.com/alojamientos/mercader,alojamientos
67441,Hotel NH Collection Madrid Col&oacute;n,40.425746600000,-3.688944300000,(+34) 91 576 08 00,nhcollectioncolon@nh-hotels.com,"Marqués de Zurgena, 4",http://www.esmadrid.com/alojamientos/hotel-nh-collection-madrid-colon,alojamientos
67449,Petit Palace Embassy,40.426933300000,-3.687334800000,(+34) 91 431 30 60,helloembassy@petitpalace.com,"Serrano, 46",http://www.esmadrid.com/alojamientos/petit-palace-embassy,alojamientos
67435,NH Collection Madrid Eurobuilding ,40.458134000000,-3.685646000000,(+34) 91 353 73 00,nhcollectioneurobuilding@nh-hotels.com,"Padre Damián, 23",http://www.esmadrid.com/alojamientos/nh-collection-madrid-eurobuilding,alojamientos
67416,Barcel&oacute; Emperatriz,40.436510000000,-3.688464000000,(+34) 91 342 24 90,emperatriz@barcelo.com,"Calle López de Hoyos, 4 28006 Madrid ,  España",http://www.esmadrid.com/alojamientos/barcelo-emperatriz,alojamientos
67431,Meli&aacute; Barajas,40.469154000000,-3.581501000000,(+34) 91 747 77 00 ,melia.barajas@melia.com,"Av de Logroño, 305 Madrid",http://www.esmadrid.com/alojamientos/melia-barajas,alojamientos
67430,Meli&aacute; Avenida Am&eacute;rica,40.447770000000,-3.628269000000,(+34) 91 423 24 00 ,melia.avenida.america@melia.com,"Calle de Juan Ignacio Luca de Tena, 36  Madrid",http://www.esmadrid.com/alojamientos/melia-avenida-america,alojamientos
67429,Me Madrid Reina Victoria,40.414616000000,-3.701383000000,(+34) 91 701 60 00 ,memadrid@melia.com,"Plaza de Santa Ana, 14  Madrid",http://www.esmadrid.com/alojamientos/me-madrid-reina-victoria,alojamientos
67428,Hotel Mayorazgo,40.422200000000,-3.709653000000,(+34) 91 547 26 00 ,reservas@hotelmayorazgo.com,"Flor Baja, 3",http://www.esmadrid.com/alojamientos/hotel-mayorazgo,alojamientos
67427,Eurostars Casa de la L&iacute;rica,40.418366500000,-3.701300400000,(+34) 91 360 49 30,reservas@eurostarscasadelalirica.com,"Aduana, 19 Madrid 28013 España",http://www.esmadrid.com/alojamientos/eurostars-casa-lirica,alojamientos
67426,Lusso Infantas,40.420106900000,-3.697054200000,(+34) 91 521 28 28 ,hotelinfantas@lussohoteles.com,"Hotel Lusso Infantas, Calle Infantas, 29, Chueca, 28004 Madrid, ",http://www.esmadrid.com/alojamientos/lusso-infantas,alojamientos
67425,Liabeny,40.418686900000,-3.704003100000,(+34) 91 531 90 00 ,info@hotelliabeny.com,"Calle de la Salud, 3 28013 Madrid España",http://www.esmadrid.com/alojamientos/liabeny,alojamientos
67424,Iberostar Las Letras Gran V&iacute;a,40.419662000000,-3.699553000000,(+34) 91 523 79 80 ,reservas@hoteldelasletras.com,"Calle Gran Vía, 11, 28013 Madrid",http://www.esmadrid.com/alojamientos/de-las-letras,alojamientos
67415,Hotel Emperador,40.421439720780,-3.708148598671,(+34) 91 547 28 00 ,hemperador@emperadorhotel.com,"Gran Vía, 53",http://www.esmadrid.com/alojamientos/hotel-emperador,alojamientos
67414,Ilunion hotels Suites Madrid,40.447594000000,-3.669068000000,(+34) 91 744 50 00 ,RESERVASSUITES@ILUNIONHOTELS.COM,"López de Hoyos, 143",http://www.esmadrid.com/alojamientos/ilunion-hotels-suites-madrid,alojamientos
67418,Hotel Weare Chamart&iacute;n,40.472203953467,-3.683423995972,(+34) 91 334 49 00 ,reservas.chamartin@weare-hotels.com,"Calle de Agustín de Foxá s/n, Madrid",http://www.esmadrid.com/alojamientos/hotel-weare-chamartin,alojamientos
67419,Hotel Paseo del Arte,40.409934000000,-3.693752700000,(+34) 912 98 48 00 ,paseodelarte@hotelpaseodelarte.com,"Atocha, 123",http://www.esmadrid.com/alojamientos/hotel-paseo-del-arte,alojamientos
67421,Hotel Serrano,40.431122800000,-3.687444400000,(+34) 91 576 96 26  ,recepcion.serrano@aa-hoteles.com,"Marqués de Villamejor, 8",http://www.esmadrid.com/alojamientos/hotel-serrano,alojamientos
67422,VP Jard&iacute;n Metropolitano,40.447220700000,-3.705675100000,(+34) 91 183 18 10,metropolitano@vphoteles.com,"Avda. Reina Victoria, 12 28003 Madrid España",http://www.esmadrid.com/alojamientos/vp-jardin-metropolitano,alojamientos
67423,Mercure Madrid Centro (Lope de Vega),40.413837000000,-3.694491000000,(+34) 91 360 00 11 ,H9618@accor.com,Calle Lope De Vega 49 28014 MADRID ESPAÑA,http://www.esmadrid.com/alojamientos/mercure-madrid-centro-lope-de-vega,alojamientos
67375,Clement Barajas ,40.471130000000,-3.580071000000,(+34) 91 746 03 30,info@clementhoteles.com,"Av. General, 43, 28042 Madrid, España",http://www.esmadrid.com/alojamientos/clement-barajas,alojamientos
67381,AC Carlton,40.405062500000,-3.693655400000,(+34) 91 539 71 00,accarltonmadrid@ac-hotels.com,"Delicias, 26",http://www.esmadrid.com/alojamientos/carlton,alojamientos
67382,Catalonia Goya,40.425253800000,-3.682199500000,(+34) 91 781 49 49,booking@cataloniahotels.com,"Goya, 49, Madrid",http://www.esmadrid.com/alojamientos/catalonia-goya,alojamientos
67384,Catalonia Las Cortes,40.414622400000,-3.699436000000,(+34) 91 389 60 51,LASCORTES@CATALONIAHOTELS.COM,"CALLE DEL PRADO 6 , 28014 MADRID",http://www.esmadrid.com/alojamientos/catalonia-las-cortes_3,alojamientos
67385,Catalonia Puerta del Sol,40.414026100000,-3.702874700000,(+34) 91 369 71 71,puertadelsol@cataloniahotels.com,"Atocha, 23, 28012 . Madrid",http://www.esmadrid.com/alojamientos/catalonia-puerta-del-sol,alojamientos
67387,Ayre Gran Hotel Col&oacute;n,40.412970000000,-3.668014000000,(+34) 91 400 99 00,reservas.colon@ayrehoteles.com,"C/ del Pez Volador, 1 28007. Madrid, España",http://www.esmadrid.com/alojamientos/ayre-gran-hotel-colon,alojamientos
67383,Catalonia Gran V&iacute;a,40.419490000000,-3.698946000000,(+34) 91 531 22 22,granvia.reservas@cataloniahotels.com,"Gran Vía, 7-9, Madrid",http://www.esmadrid.com/alojamientos/catalonia-gran-via,alojamientos
67405,Sercotel Madrid Aeropuerto,40.457599400000,-3.583908600000,(+34) 91 564 59 06,reservas@sercotelmadridaeropuerto.com,"Galeón, 25",http://www.esmadrid.com/alojamientos/sercotel-madrid-aeropuerto,alojamientos
67402,Sercotel Gran Hotel Conde Duque,40.430786000000,-3.707608000000,(+34) 91 447 70 00,reservas@hotelcondeduque.es,"Conde del Valle de Suchil, 5",http://www.esmadrid.com/alojamientos/sercotel-gran-hotel-conde-duque,alojamientos
67403,Bless Hotel Madrid,40.428114200000,-3.683539200000,(+34) 91 452 33 65,reservations@blesscollectionhotels.com,"de Velázquez, 62",http://www.esmadrid.com/alojamientos/bless-hotel-madrid,alojamientos
67404,H10 Villa de la Reina,40.420153900000,-3.700278400000,(+34) 91 523 91 01,h10.villa.delareina@h10hotels.com,"Gran Vía, 22  E-28013-Madrid Centro Madrid",http://www.esmadrid.com/alojamientos/h10-villa-de-la-reina,alojamientos
67406,Petit Palace Arturo Soria,40.439533500000,-3.638587800000,(+34) 91 406 21 30 ,arturosoria@petitpalace.com,"C/ Arturo Soria, 14, 28027",http://www.esmadrid.com/alojamientos/petit-palace-arturo-soria,alojamientos
67407,Holiday Inn Madrid - Las Tablas,40.512634000000,-3.675715000000,(+34) 91 358 64 00,reservas@himadridlastablas.com,"María Tubau, 16",http://www.esmadrid.com/alojamientos/holiday-inn-madrid-las-tablas,alojamientos
67409,Abba Madrid,40.438960000000,-3.672837000000,(+34) 91 212 50 00,reservas-madrid@abbahoteles.com,"América, 32",http://www.esmadrid.com/alojamientos/abba-madrid,alojamientos
67408,Petit Palace President Castellana,40.429363000000,-3.688330000000,(+34) 91 577 19 51,president@petitpalace.com,"C/ Marqués de Villamagna, 4 (esquina Paseo de la Castellana num 20), 28001",http://www.esmadrid.com/alojamientos/petit-palace-president-castellana,alojamientos
67410,Madrid Marriott Auditorium,40.449270000000,-3.558115000000,(+34) 91 400 44 00,," Avenida de Aragón, n.º 400, Madrid  28022 España",http://www.esmadrid.com/alojamientos/madrid-marriott-auditorium,alojamientos
67411,Hotel Occidental Madrid Este,40.434494100000,-3.630836400000,(+34) 91 387 94 00 ,madrideste@occidentalhotels.com,"Julián Camarillo, 19",http://www.esmadrid.com/alojamientos/hotel-occidental-madrid-este,alojamientos
67412,Ilunion Hotels Alcal&aacute; Norte ,40.436438400000,-3.621118800000,(+34) 91 754 84 00 ,reservasalcala@ilunionhotels.com,"C/San Romualdo, 30, 28037, Madrid",http://www.esmadrid.com/alojamientos/ilunion-hotels-alcala-norte,alojamientos
67413,Ilunion P&iacute;o XII,40.471443000000,-3.673847000000,(+34) 91 387 62 00 ,reservaspio@ilunionhotels.com,"Avda. Pío XII, 77, 28016, Madrid",http://www.esmadrid.com/alojamientos/ilunion-pio-xii,alojamientos
67401,NH Collection Madrid Paseo del Prado,40.414740000000,-3.694630000000,(+34) 91 330 24 00,nhcollectionpaseodelprado@nh-hotels.com,"Plaza Cánovas del Castillo, 4, 28014 Madrid – España",http://www.esmadrid.com/alojamientos/nh-collection-madrid-paseo-del-prado,alojamientos
67368,"Hotel Santo Mauro, Autograph Collection ",40.431027000000,-3.693373900000,(+34) 91 319 69 00,,"Zurbano, 36",http://www.esmadrid.com/alojamientos/hotel-santo-mauro-autograph-collection,alojamientos
67367,"Hotel Palacio del Retiro, Autograph Collection",40.417786000000,-3.688993000000,(+34) 91 523 74 60,pretiro@ac-hotels.com,"Alfonso XII, 14",http://www.esmadrid.com/alojamientos/ac-palacio-del-retiro,alojamientos
67366,Monte Real,40.474888000000,-3.742692000000,(+34) 91 736 52 73,hotelmontereal@hotelmontereal.com,C/ Arroyofresno 17 Madrid 28035 España,http://www.esmadrid.com/alojamientos/monte-real,alojamientos
67371,Hyatt Regency Hesperia Madrid,40.438858200000,-3.691512900000,+34 912 108 800,hesperiamadrid.regency@hyatt.com ,"Paseo de la Castellana, 57 28046 Madrid",http://www.esmadrid.com/alojamientos/hyatt-regency-hesperia-madrid,alojamientos
67392,Eurostars Suites Mirasierra,40.486518000000,-3.703443400000,(+34) 913 342 196,info@eurostarssuitesmirasierra.com,"Alfredo Marqueríe, 43 Madrid 28034 España",http://www.esmadrid.com/alojamientos/eurostars-suites-mirasierra,alojamientos
67370,"Hotel F&eacute;nix, a Gran Meli&aacute; Hotel                    ",40.426598000000,-3.689256000000,(+34) 91 431 67 00,hotel.gmfenix@melia.com,Calle de Hermosilla 2 Madrid,http://www.esmadrid.com/alojamientos/gran-melia-fenix,alojamientos
67400,Hotel Wellington,40.422040000000,-3.684210000000,(+34) 91 575 44 00 ,wellington@hotel-wellington.com,"Calle de Velázquez, 8, 28001 Madrid",http://www.esmadrid.com/alojamientos/hotel-wellington,alojamientos
67372,AC Aitana,40.456005000000,-3.689773000000,(+34) 91 458 49 70,aitana@ac-hoteles.com,"Castellana, 152",http://www.esmadrid.com/alojamientos/ac-aitana,alojamientos
67391,Meli&aacute; Madrid Princesa,40.427555000000,-3.714079000000,(+34) 91 541 82 00,melia.madrid.princesa@melia.com,"Calle de la Princesa, 27 Madrid",http://www.esmadrid.com/alojamientos/melia-madrid-princesa,alojamientos
67390,Meli&aacute; Castilla,40.461419600000,-3.691974600000,(+34) 91 567 50 00,info.melia.castilla@melia.com," Poeta Joan Maragall, 43",http://www.esmadrid.com/alojamientos/melia-castilla,alojamientos
67389,InterContinental Madrid,40.436333000000,-3.690009000000,(+34) 917 007 300,icmadrid@ihg.com,"de la Castellana, 49 ",http://www.esmadrid.com/alojamientos/intercontinental-madrid,alojamientos
67388,Princesa Plaza Madrid,40.429686200000,-3.715361500000,(+34)  915 42 21 00, hotel@princesaplaza.com,"Princesa, 40",http://www.esmadrid.com/alojamientos/princesa-plaza-madrid,alojamientos
67394,Orfila,40.427376000000,-3.693035000000,(+34) 91 702 77 70,inforeservas@hotelorfila.com,"Calle de Orfila, 6, 28010 Madrid",http://www.esmadrid.com/alojamientos/orfila,alojamientos
67396,Mandarin Oriental Ritz,40.415833000000,-3.693413000000,(+34) 91 701 67 67,mrmad-reservations@mohg.com,"de la Lealtad, 5",http://www.esmadrid.com/alojamientos/mandarin-oriental-ritz,alojamientos
67393,Hotel Miguel &Aacute;ngel,40.437638635120,-3.691749572754, (+34) 91 442 00 22 ,hotel.miguelangel@grupobluebay.com,"de Miguel Ángel, 29-31",http://www.esmadrid.com/alojamientos/hotel-miguel-angel,alojamientos
67397,The Westin Palace,40.415585000000,-3.695473000000,(+34) 91 360 80 00,reservations.palacemadrid@westin.com,"Cortes, 7",http://www.esmadrid.com/alojamientos/the-westin-palace,alojamientos
67398,Hotel Urban 5*GL ,40.416357104600,-3.698701858521,(+34) 91 787 77 70,urban@derbyhotels.com,"San Jerónimo, 34",http://www.esmadrid.com/alojamientos/hotel-urban-5gl,alojamientos
67379,Vincci SoMa,40.425053400000,-3.678073600000,(+34) 91 435 75 45 ,soma@vinccihoteles.com,"Calle de Goya, 79, 28001 Madrid",http://www.esmadrid.com/alojamientos/vincci-soma,alojamientos
67378,AC Recoletos,40.421516100000,-3.689447600000,(+34) 91 436 13 82,acrecoletos@ac-hotels.com ,"Recoletos, 18",http://www.esmadrid.com/alojamientos/ac-recoletos,alojamientos
67377,AC Los Vascos,40.448180000000,-3.711096000000,(+34) 91 598 62 20,aclosvascos@ac-hotels.com ,"Vascos, 27",http://www.esmadrid.com/alojamientos/ac-los-vascos,alojamientos
67376, AC Hotel Madrid Feria,40.474961200000,-3.634865200000,(+34) 91 382 47 81,acferiademadrid@ac-hotels.com,"Via de Los Poblados, 3",http://www.esmadrid.com/alojamientos/ac-hotel-madrid-feria,alojamientos
67399,Villa Real,40.415527000000,-3.696989000000,(+34) 91 420 37 67,villareal@derbyhotels.com,"Plaza de las Cortes, 10 Madrid 28014 España",http://www.esmadrid.com/alojamientos/villa-real,alojamientos
67374,AC Hotel Cuzco,40.458709500000,-3.690567500000,(+34) 91 556 06 00,accuzco@ac-hotels.com,"Castellana, 133",http://www.esmadrid.com/alojamientos/ac-hotel-cuzco,alojamientos
67373,AC Aravaca,40.464527000000,-3.784803000000,(+34) 91 740 06 80,acaravaca@ac-hotels.com,"Zarzuela, 3",http://www.esmadrid.com/alojamientos/ac-aravaca,alojamientos
67395,Puerta Am&eacute;rica,40.440254000000,-3.670216000000,(+34) 91 744 54 00,hotel.puertamerica@hoteles-silken.com,"América, 41",http://www.esmadrid.com/alojamientos/puerta-america,alojamientos
