ID,Name,Latitude,Longitude,Phone,Email,Address,Web
98118,Commodore Madrid,40.445800000000,-3.685700000000,(+34) 652 62 09 66,reservas@commodoremadrid.com,"de la República Argentina, 5",http://www.esmadrid.com/restaurantes/commodore-madrid
97976,La m&aacute;s croqueta,40.413945900000,-3.707367400000,(+34) 913 640 617,,"de Toledo, 23",http://www.esmadrid.com/restaurantes/croqueta
97794,El Taller,40.419300900000,-3.734736800000,,reservas@eltallerdellago.com,"de María Teresa, 5",http://www.esmadrid.com/restaurantes/taller
97777,Miss Sushi,40.414535400000,-3.700012800000,(+34) 910 100 811  ,santa.ana@misssushi.es,"del Prado, 2",http://www.esmadrid.com/restaurantes/miss-sushi
97502,La Terraza del Santo Domingo,40.420648900000,-3.708539300000,(+34) 91 559 49 31,,"de San Bernardo, 1",http://www.esmadrid.com/restaurantes/terraza-santo-domingo
97389,MO de Movimiento,40.440398100000,-3.694963200000,(+34) 667 97 45 99 |,mo@modemovimiento.com,"de Espronceda, 34",http://www.esmadrid.com/restaurantes/mo-movimiento
97387,Coquetto Bar,40.428249400000,-3.690976700000,(+34) 916 256 292 ,,"de Fortuny, 2",http://www.esmadrid.com/restaurantes/coquetto-bar
97310,Shukran City Ventas,40.430247000000,-3.663876100000,(+34) 633 610 511,,"de Alcalá, 200",http://www.esmadrid.com/restaurantes/shukran-city-ventas
97285,Santa y Pura,40.410225900000,-3.697212000000,(+34) 91 166 78 24,info@santaypura.es,"de  Santa Isabel, 27",http://www.esmadrid.com/restaurantes/santa-pura
97265,Mune Madrid,40.424798200000,-3.697005500000,(+34) 91 395 20 56,hola@munemadrid.com,"de Pelayo, 57",http://www.esmadrid.com/restaurantes/mune-madrid
97183,Le&ntilde;a,40.438859418606,-3.691513538361,(+34) 911 085 566,,"de la Castellana, 57",http://www.esmadrid.com/restaurantes/restaurante-leña
97178,Smoked Room,40.438867700000,-3.691686600000,(+34) 911 086 277,,"de la Castellana, 57",http://www.esmadrid.com/restaurantes/smoked-room
97061,Barbecho ,40.443951200000,-3.700422700000,(+34) 91 598 63 52,info@barbechobar.com,"de Alenza, 12",http://www.esmadrid.com/restaurantes/barbecho
97059,Diurno,40.421252300000,-3.697190700000,(+34) 91 522 00 09,info@diurno.com,"de San Marcos, 37",http://www.esmadrid.com/restaurantes/diurno
96607,Deessa,40.415758764136,-3.692607879639,(+34) 91 701 68 20,,"de la Lealtad, 5",http://www.esmadrid.com/restaurantes/deessa
96580,Villa Verbena,40.419909400000,-3.733878200000,(+34) 91 999 30 14,reservas@villaverbenamadrid.com,"de María Teresa,   3",http://www.esmadrid.com/restaurantes/villa-verbena
96556,Citynizer Plaza,40.411146700000,-3.705983900000,(+34) 915 395 630,info.lavapies@citynizerplaza.com,"de Juanelo,  17",http://www.esmadrid.com/restaurantes/citynizer-plaza
96375,Barracuda MX,40.419026700000,-3.689285300000,(+34) 91 108 89 99,,"de Valenzuela, 7",http://www.esmadrid.com/restaurantes/barracuda-mx
96126,Aloha Pok&eacute;,40.424719900000,-3.702104100000,91 990 14 23,tribunal@alohapoke.es,"Corredera Alta de San Pablo, 5",http://www.esmadrid.com/restaurantes/aloha-poke
95998,Tripea,40.434101200000,-3.708283400000,(+34) 91 828 69 47,,"de Vallehermoso, 36",http://www.esmadrid.com/restaurantes/tripea
95990,Castelados,40.420884500000,-3.679096700000,(+34) 91 051 56 25,,"de Antonio Acuña, 18",http://www.esmadrid.com/restaurantes/castelados
95987,La Maruca,40.427515400000,-3.683618400000,(+34) 917 814 969,,"de Velázquez, 54",http://www.esmadrid.com/restaurantes/maruca
95965,La MaM&aacute; Restaurante,40.444467500000,-3.696696700000,(+34) 91 061 97 64,comoencasa@lamamarestaurante.com,"de María Panes, 6",http://www.esmadrid.com/restaurantes/mama-restaurante
95963,Quinqu&eacute;,40.463505200000,-3.684131400000,(+34) 91 073 28 92,,"de  Apolonio Morales, 3",http://www.esmadrid.com/restaurantes/quinque
95960,Saddle,40.427422380750,-3.691116571426,(+34) 912 16 39 36,reservas@saddle-madrid.com,"Amador de los Ríos,  6",http://www.esmadrid.com/restaurantes/saddle
95774,Bocanegra,40.418269800000,-3.696180400000,(+34) 91 376 60 38,reservas@bocanegramadrid.com,"del Marqués de Casa Riera, 1",http://www.esmadrid.com/restaurantes/bocanegra
95456,Dani Brasserie,40.417282173411,-3.700249493122,(+34) 91 088 33 33,dani.madrid@ fourseasons.com,"de Sevilla,   3",http://www.esmadrid.com/restaurantes/dani-brasserie
95264,Bloom,40.430461000000,-3.712922800000,(+34) 91 108 33 56,bloom@restaurantesalvadorbachiller.es,"de Alberto Aguilera, 54",http://www.esmadrid.com/restaurantes/bloom
95070,La Venencia,40.415835700000,-3.699563300000,(+34) 91 429 73 13,,"de Echegaray, 7",http://www.esmadrid.com/restaurantes/venencia
95052,Gran V&iacute;a 55,40.421550000000,-3.708628600000,(+34) 91 330 87 05,,"Gran Vía , 55",http://www.esmadrid.com/restaurantes/gran-55
94984,Bodega de La Ardosa,40.423755700000,-3.701810100000,(+34) 91 521 49 79 ,,"de Colón, 13",http://www.esmadrid.com/restaurantes/bodega-ardosa
94983,Casa Julio,40.424329700000,-3.703752500000,(+34) 91 522 72 74,,"de la Madera, 37",http://www.esmadrid.com/restaurantes/casa-julio
94980,Casa Camacho,40.425654800000,-3.703820600000,(+34) 915 31 35 98,,"de San Andrés, 4",http://www.esmadrid.com/restaurantes/casa-camacho
94979,Bodegas Ricla,40.414290400000,-3.708149900000,(+34) 91 365 20 69,,"de Cuchilleros, 6",http://www.esmadrid.com/restaurantes/bodegas-ricla
94978,Bar Santurce,40.409680000000,-3.707770000000,(+34) 646 23 83 03,,"del General Vara del Rey, 14",http://www.esmadrid.com/restaurantes/bar-santurce
94977,Bar Santos,40.416517200000,-3.711180200000,(+34) 915 411 646,,"de Santiago, 2",http://www.esmadrid.com/restaurantes/bar-santos
94800,El Sainete,40.437198400000,-3.699074900000,+34 914 45 63 62,reservas@elsainete.com,"de Ponzano, 6",http://www.esmadrid.com/restaurantes/sainete
94769,Tablafina,40.409794200000,-3.692809000000,(+34) 91 600 81 46,,"del Prado, 48",http://www.esmadrid.com/restaurantes/tablafina
94768,Patio de Leones,40.420827300000,-3.688811000000,(+34) 651 55 50 00,info@patiodeleones.es,"de Serrano, 1",http://www.esmadrid.com/restaurantes/patio-leones
94764,Pr&iacute;stino,40.432623900000,-3.692915500000,(+34) 91 737 36 40,info@pristinorestaurante.com,"de Eduardo Dato, 8",http://www.esmadrid.com/restaurantes/pristino
94763,Neotaberna Santerra,40.442096100000,-3.698933000000,(+34) 91 907 04 15,reservas.neotaberna@santerra.es,"de Ponzano, 62",http://www.esmadrid.com/restaurantes/neotaberna-santerra
94762,Estimar,40.416126700000,-3.695954900000,(+34) 91 429 20 52,reservas@restaurantestimar.com,"del Marqués de Cubas, 18",http://www.esmadrid.com/restaurantes/estimar
94752,Ovillo,40.447440100000,-3.670379300000,(+34) 91 737 33 90,,"Pantoja, 8",http://www.esmadrid.com/restaurantes/ovillo
94651,Restaurante  La Tajada,40.455924800000,-3.680666400000,(+ 34) 912 322 204, reservas@dsncaja.com,"Ramón de Santillán, 15 ",http://www.esmadrid.com/restaurantes/restaurante-tajada
94462,Restaurante Ponzano,40.437508200000,-3.699177300000,+34 914 48 68 80,,"Ponzano, 12",http://www.esmadrid.com/restaurantes/restaurante-ponzano
94280,Berlanga,40.417692000000,-3.678346400000,(+34) 91 391 68 86,restaurante@restauranteberlanga.com,"de Menéndez Pelayo, 41",http://www.esmadrid.com/restaurantes/berlanga
94273,Hermanos Vinagre,40.418877800000,-3.676394000000,(+34) 91 539 11 69,info@hermanosvinagre.com,"de Narváez, 58",http://www.esmadrid.com/restaurantes/hermanos-vinagre
94067,V&aacute;lgame Dios,40.422111520382,-3.696561455727,(+34) 91 701 03 41,,"de Augusto Figueroa, 43",http://www.esmadrid.com/restaurantes/valgame-dios
94040,Maddock ,40.434890770456,-3.694347292185,(+34) 91 029 07 37,info@maddockmadrid.com,"del General Martínez Campos, 26",http://www.esmadrid.com/restaurantes/maddock
93477,Yugo the Bunker,40.410602700000,-3.694579500000,(+34) 91 444 90 34,reservas@yugothebunker.com,"de San Blas, 4",http://www.esmadrid.com/restaurantes/yugo-bunker
93475,Gofio by Cicero Canary,40.413889500000,-3.698282200000,(+34) 91 599 44 04,,"de Lope de Vega, 9",http://www.esmadrid.com/restaurantes/gofio-cicero-canary
93472,99 KŌ Sushi Bar,40.429573200000,-3.688154400000,(+34) 91 431 38 78,reservas@99kosushibar.com,"Marqués de Villamagna, 1",http://www.esmadrid.com/restaurantes/99-ko-sushi-bar
92908,Restaurante Casa Pepe 1899,40.405417000000,-3.701753100000,(+34) 91 527 27 47,,"de Valencia, 16",http://www.esmadrid.com/restaurantes/restaurante-casa-pepe-1899
92868,Landareak,40.427740700000,-3.704009600000,(+34) 910 64 74 69,landareak@landareak.es,"de Ruiz, 5",http://www.esmadrid.com/restaurantes/landareak
92866,La Huerta de Almer&iacute;a,40.412457400000,-3.696631200000,(+34) 91 279 92 54,lahuertadealmeria@hotmail.com,"de Moratín, 25",http://www.esmadrid.com/restaurantes/huerta-almeria
92856,B13,40.421946123534,-3.703519105911,,b13bar@gmail.com,"de la Ballesta, 13",http://www.esmadrid.com/restaurantes/b13
92855,Chilling Cafe,40.422052100000,-3.706212000000,(+34) 691 53 59 46,chillingcafemad@gmail.com,"de la Estrella, 5",http://www.esmadrid.com/restaurantes/chilling-cafe
92847,Hakuna Matata Veggie,40.430918000000,-3.710304700000,(+34) 618 35 55 22,hakunamatataveggie@gmail.com,"de Galileo, 12",http://www.esmadrid.com/restaurantes/hakuna-matata-veggie
92842,Cookaluzka,40.408306900000,-3.669086300000,(+34) 91 042 27 09,cookaluzka@gmail.com,"de Lira, 8",http://www.esmadrid.com/restaurantes/cookaluzka
92814,La t&iacute;a Carlota,40.407482000000,-3.699804800000,(+34) 91 210 82 73,info@latiacarlotagastrobar.com,"de la Sombrerería, 6",http://www.esmadrid.com/restaurantes/tia-carlota
92813,Bunny's Deli,40.424001200000,-3.697231800000,(+34) 648 732 783,info@bunnysdeli.com,"San Gregorio, 17",http://www.esmadrid.com/restaurantes/bunnys-deli
92793,Vega,40.422335111770,-3.706147670746,(+34) 91 070 49 69,hola@govega.es,"de la Luna, 9",http://www.esmadrid.com/restaurantes/vega
92786,Distrito Vegano,40.407084400000,-3.699709200000,(+34) 911 10 13 53,info@distritovegano.com,"del Doctor Fourquet, 32",http://www.esmadrid.com/restaurantes/distrito-vegano
92012,Run Run Run,40.441114600000,-3.695289600000,(+34) 91 166 90 94,runrunrun@grupolamusa.com,"de José Zorrilla, 1",http://www.esmadrid.com/restaurantes/run-run-run
91904,Occhiali,40.448504461760,-3.669063448906,(+34) 910 415 634,info@occhialirestaurante.com,"Sánchez Pacheco, 84",http://www.esmadrid.com/restaurantes/occhiali
91767,Col&oacute;simo,40.429974600000,-3.673941900000,(+34) 91 453 14 25,,"de José Ortega y Gasset, 67",http://www.esmadrid.com/restaurantes/colosimo
91766,Aitatxu,40.436731300000,-3.685045000000,(+34) 91 051 54 34,info@aitatxu.com,"de Claudio Coello, 122",http://www.esmadrid.com/restaurantes/aitatxu
91656,Hong Kong 70,40.409621700000,-3.709897300000,(+34) 910 59 83 78,info@hongkong70.com,"de Toledo, 70",http://www.esmadrid.com/restaurantes/hong-kong-70
91635,Zest,40.421877718546,-3.690224736929,(+34) 91 431 83 67,info@zestmadrid.com,"de Recoletos, 10",http://www.esmadrid.com/restaurantes/zest
91615,Salutteria,40.421924100000,-3.684588100000,(+34) 91 081 25 22,hello@salutteria.es,"de Velázquez, 9",http://www.esmadrid.com/restaurantes/salutteria
91609,Indalo Tapas,40.422436187086,-3.700091242790,(+34) 91 532 24 52,indalotapasmadrid@gmail.com,"Pérez Galdós, 7",http://www.esmadrid.com/restaurantes/indalo-tapas
91603,Casa Lolea,40.421901700000,-3.697282200000,(+34) 915 218 223 ,holamadrid@casalolea.com,"Libertad, 26",http://www.esmadrid.com/restaurantes/casa-lolea
91484,Kippu,40.430450700000,-3.678101700000,(+34) 91 066 70 44,,"del General Pardiñas, 70",http://www.esmadrid.com/restaurantes/kippu
91437,El Cl&aacute;sico,40.415675100000,-3.705099100000,(+34) 91 515 70 38,info@elclasicomadrid.com,"del Marqués Viudo de Pontejos, 9",http://www.esmadrid.com/restaurantes/clasico
91414,Xantar Astur,40.402396600000,-3.681040300000,(+34) 91 649 23 47,info@xantarastur.es,"de Téllez, 6",http://www.esmadrid.com/restaurantes/xantar-astur
91315,Alma Cocktails &amp; Tapas,40.424731500000,-3.671546600000,(+34) 91 401 61 27,,"de Goya, 119",http://www.esmadrid.com/restaurantes/alma-cocktails-tapas
91305,P&oacute;lvora,40.432841027106,-3.680680096149,(+34) 91 051 84 50,hola@restaurantepolvora.com,"de Juan Bravo, 23",http://www.esmadrid.com/restaurantes/polvora
91284,La Ventana de Flavia,40.427489900000,-3.685032100000,(+34) 91 529 63 37,reservas@ristoranteflavia.com,"de Lagasca, 64",http://www.esmadrid.com/restaurantes/ventana-flavia
91279,La Casita de Sabino,40.458135100000,-3.687569100000,(+34) 918 785 177,reservas@lacasitadesabinomadrid.com,"del Doctor Fleming, 32",http://www.esmadrid.com/restaurantes/casita-sabino
91278,Flora Fina,40.426934500000,-3.687334600000,(+34) 914 31 30 60, florafina@iconhotels.com,"Serrano, 46",http://www.esmadrid.com/restaurantes/flora-fina
91272,Da Luca Trattoria - Pizzeria,40.421970900000,-3.694074000000,(+34) 91 454 16 60,info@dalucamadrid.es,"de Prim, 7",http://www.esmadrid.com/restaurantes/da-luca-trattoria-pizzeria
91245,Caraba,40.439904600000,-3.697537800000,(+34) 91 154 71 31,reservas@carabamadrid.com,"de Alonso Cano, 28",http://www.esmadrid.com/restaurantes/caraba
91244,Avocado Love,40.425267255173,-3.703635782003,(+34) 915 320 927,hola@avocadolove.es,"del Espíritu Santo, 15",http://www.esmadrid.com/restaurantes/avocado-love
91191,El Mirador del Olivar,40.467698571372,-3.609609603882,(+34) 91 721 02 69,elmiradordelolivar@saboresmasquegolf.com,"de Dublín, s/n",http://www.esmadrid.com/restaurantes/mirador-olivar
91190,Azotea Forus Barcel&oacute;,40.426771700000,-3.698856900000,(+34) 91 530 17 61,info@azoteaforus.com,"Barcelo, 6",http://www.esmadrid.com/restaurantes/azotea-forus-barcelo
91144,Chigre,40.428946800000,-3.687535400000,(+34) 91 088 88 70,,"Serrano, 45",http://www.esmadrid.com/restaurantes/chigre
91142,Hermanas Arce,40.422984000000,-3.693623300000,(+34) 918 70 85 93,hermanasarce@gmail.com,"Marqués de Monasterio, 6",http://www.esmadrid.com/restaurantes/hermanas-arce
91106,Las Carboneras de Lu,40.421204895628,-3.689898848534,(+34) 91 057 70 03,,"Villalar, 7",http://www.esmadrid.com/restaurantes/carboneras-lu
91091,Chido Castizo &amp; Ching&oacute;n,40.454183400000,-3.693108900000,(+34) 910 580 847,contacto@carvigon.com,"de Brasil, 6",http://www.esmadrid.com/restaurantes/chido-castizo-chingon
91074,La Elegida,40.431791632324,-3.700810074806,(+34) 91 942 44 25,reservas@laelegida.es,"de Trafalgar, 15",http://www.esmadrid.com/restaurantes/elegida
91059,La Tasca del Retiro,40.420874600000,-3.679490800000,(+34) 91 200 24 58,,"de Menéndez Pelayo, 11",http://www.esmadrid.com/restaurantes/tasca-retiro
91058,Barra y Mantel,40.423509000000,-3.680844700000,(+34) 91 064 45 98,,"de Jorge Juan, 50",http://www.esmadrid.com/restaurantes/barra-mantel
91037,Marab&uacute;,40.439911300000,-3.699372200000,(+34) 91 831 77 73,info@marabulamaquina.es,"de Ponzano, 37",http://www.esmadrid.com/restaurantes/marabu
91006,La Cocina de Frente,40.417887400000,-3.673831700000,(+34) 91 060 72 20 ,,"de Ibiza, 40",http://www.esmadrid.com/restaurantes/cocina-frente
90997,A&uuml;akt,40.424328600000,-3.695378800000,(+34) 91 056 87 04,hola@auakt.com,"del Barquillo, 44",http://www.esmadrid.com/restaurantes/auakt
90939,El 5 de Tirso,40.412253183302,-3.704242832110,(+34) 91 088 85 02,el5@grupolafabrica.es,"de Tirso de Molina, 5",http://www.esmadrid.com/restaurantes/5-tirso
90887,Etxeko,40.428114200000,-3.683539200000,(+34) 91 086 13 78,etxeko.madrid@blesscollectionhotels.com,"de Velázquez, 62",http://www.esmadrid.com/restaurantes/etxeko
90863,Casa Juli&aacute;n de Tolosa Ibiza,40.418372800000,-3.675017300000,(+34) 91 060 72 10,contacto@juliandetolosa.com,"de Ibiza, 29",http://www.esmadrid.com/restaurantes/casa-julian-tolosa-ibiza
90843,El Jefe Traveling Food,40.445857571040,-3.697264865041,(+34) 660 92 07 42,contacto@eljefe.restaurant,"de Alonso Cano, 103",http://www.esmadrid.com/restaurantes/jefe-traveling-food
90816,La Carlota	,40.422643500000,-3.694356700000,(+34) 91 046 62 83,reservas@lacarlotarest.es,"del Almirante, 11",http://www.esmadrid.com/restaurantes/carlota
90794,Bule Bule ,40.419631600000,-3.697058200000,(+34) 91 438 05 53,,"Marqués de Valdeiglesias, 6",http://www.esmadrid.com/restaurantes/bule-bule
90467,La Verit&aacute;,40.391155600000,-3.692563000000,(+34) 910 592 737,hola@laveritamadrid.com,"de Embajadores, 181 B",http://www.esmadrid.com/restaurantes/verita
90459,Pieology,40.462945100000,-3.637029800000,(+34) 91 493 92 54,info@comessgroup.com,"de Silvano, 77",http://www.esmadrid.com/restaurantes/pieology
90167,Meste&ntilde;o Bar,40.420614300000,-3.686867900000,(+34) 679 44 35 41,reservas@mestenobar.es,"de Alcalá, 77",http://www.esmadrid.com/restaurantes/mesteno-bar
90162,Guillermina,40.427036900000,-3.691435600000,(+34) 91 310 75 00,info@guillerminamadrid.com,"Amador de los Ríos, 3",http://www.esmadrid.com/restaurantes/guillermina
90110,Casa Ciriaco,40.415286500000,-3.712315800000,(+34) 915 48 06 20,info@casaciriaco.es,"Mayor, 84",http://www.esmadrid.com/restaurantes/casa-ciriaco
90091,El Amor Hermoso Bar,40.426840300000,-3.708072300000,(+34) 606 21 64 82,,"de la Palma, 62",http://www.esmadrid.com/restaurantes/amor-hermoso-bar
90073,Casa Candi,40.425839500000,-3.708747600000,(+34) 91 531 89 61,,"del Noviciado, 16",http://www.esmadrid.com/restaurantes/casa-candi
90072,Raimunda,40.419935100000,-3.692259800000,(+34) 91 088 72 47,raimunda@grupolafabrica.es,"de Recoletos, 2",http://www.esmadrid.com/restaurantes/raimunda
90056,Monsieur Sushita,40.428617700000,-3.683650100000,(+34) 918 31 80 81,,"de Velázquez, 68",http://www.esmadrid.com/restaurantes/monsieur-sushita
90010,Sottosopra,40.423349600000,-3.686316300000,(+34) 91 748 61 97,ciao@sottosopra.es,"Puigcerdá, 8",http://www.esmadrid.com/restaurantes/sottosopra
89974,Pez Fuego,40.461786839407,-3.693745136261,(+34) 91 571 82 65,,"de Orense, 68",http://www.esmadrid.com/restaurantes/pez-fuego
89899,Ferreter&iacute;a by EGO,40.412815500000,-3.699726000000,(+34) 91 429 71 01,reservas@ferreteriabyego.com,"de Atocha, 57",http://www.esmadrid.com/restaurantes/ferreteria-ego
89837,Do&ntilde;a Truhana,40.411592696692,-3.711584508419,(+34) 680 79 98 40,reservas@donatruhana.com,"de los Carros, 3",http://www.esmadrid.com/restaurantes/dona-truhana
89836,Noname Bar,40.423650600000,-3.686913400000,(+34) 670 088 427,reservas@nonamebar.es,"de Claudio Coello, 27",http://www.esmadrid.com/restaurantes/noname-bar
89812,Taberna Bandido,40.421950500000,-3.690109000000,,,"de Recoletos, 11",http://www.esmadrid.com/restaurantes/taberna-bandido
89717,Do&ntilde;a Luz,40.417564300000,-3.702557900000,(+34) 917 316 757,entretejados@donaluzmadrid.com,"de la Montera, 10 - 12",http://www.esmadrid.com/restaurantes/dona-luz
89514,Sinsombrero,40.426824800000,-3.689457900000,(+34) 915 77 52 39 ,reservas@sinsombrero.es,"de la Castellana, 4",http://www.esmadrid.com/restaurantes/sinsombrero
89477,Pic&amp;Nic ,40.445937400000,-3.667926900000,(+34) 91 027 99 82,,"Clara del Rey, 52",http://www.esmadrid.com/restaurantes/picnic
89472,Hake Mate,40.436458800000,-3.686114900000,(+34) 910 58 34 69,info@hakemate.es,"de Serrano, 120",http://www.esmadrid.com/restaurantes/hake-mate
89470,Giulietta,40.459920700000,-3.632724600000,(+34) 91 759 48 91 ,info@giuliettamadrid.com,"Manuel Rodrigo, 7",http://www.esmadrid.com/restaurantes/giulietta
89408,Sukaldean Bai Bokado,40.419798500000,-3.691733800000,(+34) 91 137 59 52 ,sukaldean@bokadogrupo.com,"de Alcalá, 55",http://www.esmadrid.com/restaurantes/sukaldean-bai-bokado
89393,Lamucca (Plaza del Carmen),40.419015877391,-3.702998757362,(+34) 915 219 566,lamuccadelcarmen@gmail.com,"del Carmen, 5",http://www.esmadrid.com/restaurantes/lamucca-plaza-carmen
89316,La Bientirada,40.434018500000,-3.704684100000,(+34) 91 088 70 45,info@grupolalala.com,"de Quevedo, 6",http://www.esmadrid.com/restaurantes/bientirada
89314,Iztac,40.455121900000,-3.678059100000,(+34) 910 090 235 ,,"de la República de Ecuador, 4",http://www.esmadrid.com/restaurantes/iztac
89244,Taberna El Gallocanta,40.413456226880,-3.695683702827,(+34) 91 429 27 62,info@elgallocanta.es,"de Jesús, 2",http://www.esmadrid.com/restaurantes/taberna-gallocanta
88640,Green Tea Food &amp; Drinks,40.439071726515,-3.693004846573,(+34)  91 441 45 00,reservas@greenteazurbano.es,"de Zurbano, 79",http://www.esmadrid.com/restaurantes/green-tea-food-drinks
88523,Ikigai,40.422197281550,-3.709798157215,(+34) 916 22 63 74,info@restauranteikigai.com,"Flor Baja, 5",http://www.esmadrid.com/restaurantes/ikigai
88521,Enigmatium Room,40.413311000000,-3.697011000000,(+34) 91 564 12 31,madrid@enigmatiumroom.com,Primer enigma a resolver,http://www.esmadrid.com/restaurantes/enigmatium-room
88510,La Madre&ntilde;a (Paseo de la Castellana),40.439108472047,-3.690561354160,(+34) 914 268 850,,"de la Castellana, 78",http://www.esmadrid.com/restaurantes/madrena-paseo-castellana
88503,Picalagartos Sky - Bar,40.419813100000,-3.701277700000,(+34) 91 530 17 61, info@picalagartos.com,"Gran Vía, 21",http://www.esmadrid.com/restaurantes/picalagartos-sky-bar
88474,Teje Maneje,40.437771330051,-3.699214160442,(+34) 91 088 50 40,info@grupolalala.com,"de Ponzano, 16",http://www.esmadrid.com/restaurantes/teje-maneje
88469,Lambuzo (Retiro),40.415846575527,-3.677667975426,(+34) 911 99 84 88,info@barlambuzo.com,"de Menéndez Pelayo, 59",http://www.esmadrid.com/restaurantes/lambuzo-retiro
88392,Yakiniku Rikyu,40.428109900000,-3.690170000000,(+34) 91 000 77 67,info@yakinikurikyu.es,"de la Castellana, 15",http://www.esmadrid.com/restaurantes/yakiniku-rikyu
88361,Yan Ken Pon,40.411010000000,-3.706950000000,(+34) 91 057 34 65,info@yankenpon.com,"de Cascorro, 3",http://www.esmadrid.com/restaurantes/yan-ken-pon
88358,Shanghai mama (Cuzco),40.460297090666,-3.696312010288,(+34) 91 041 87 28 ,cuzco@shanghaimama.es,"de la Infanta Mercedes, 62",http://www.esmadrid.com/restaurantes/shanghai-mama-cuzco
88352,Quispe,40.426990900000,-3.695725600000,(+34) 91 137 57 85,info@quispe.es,"Orellana, 1",http://www.esmadrid.com/restaurantes/quispe
88351,Les Mauvais Gar&ccedil;ons,40.424361700000,-3.703483700000,(+34) 640 61 27 07,contact@lesmauvaisgarcons.es,"de la Madera, 36",http://www.esmadrid.com/restaurantes/mauvais-garcons
88346,Hot Now,40.421373900000,-3.697965100000,(+34) 91 069 74 42,hola@hotnow.es,"de Barbieri, 14",http://www.esmadrid.com/restaurantes/hot-now
88319,Dogma,40.458880000000,-3.680190900000,(+34) 91 069 72 52,reservation@dogmarestaurante.com,"de Alberto Alcocer, 43",http://www.esmadrid.com/restaurantes/dogma
88289,Charr&uacute;a,40.422399432443,-3.694099187851,(+34) 91 279 1601,info@charruamadrid.com,"Conde de Xiquena, 4",http://www.esmadrid.com/restaurantes/charrua
88280,Soma by Luke,40.423624300000,-3.693851600000,(+34) 662 675 576,,"Bárbara de Braganza, 2",http://www.esmadrid.com/restaurantes/soma-luke
88228,Tasty Poke Bar,40.432933800000,-3.704827600000,(+34) 91 163 37 95,info@tastypokebar.com,"de San Bernardo, 119",http://www.esmadrid.com/restaurantes/tasty-poke-bar
88218,Como en Chile,40.434126700000,-3.713723400000, (+34) 910 64 51 43,comoenchilerestaurant@gmail.com,"de Fernando el Católico, 53",http://www.esmadrid.com/restaurantes/chile
88211,San Wich (Esp&iacute;ritu Santo),40.424977313540,-3.702187389135,(+34) 91 531 45 14,purosandwich.mad@gmail.com,"del Espíritu Santo, 3",http://www.esmadrid.com/restaurantes/san-wich-espiritu-santo
88180,Restaurante Masterchef,40.443151100000,-3.682305500000,(+34) 91 086 47 92,reservas@restaurantemasterchef.com,"de Velázquez, 150",http://www.esmadrid.com/restaurantes/restaurante-masterchef
88170,Nudista,40.431509500000,-3.699213400000,(+34) 913 776 424,,"de Luchana, 27",http://www.esmadrid.com/restaurantes/nudista
88062,Arado. Grocery &amp; Restaurant,40.435254300000,-3.685471900000,(+34)91 562 20 40,arado@melia.com,"de Claudio Coello, 139",http://www.esmadrid.com/restaurantes/arado-grocery-restaurant
87967,Tres por Cuatro,40.425849900000,-3.676740000000,(+34) 687 268 432,reservas@tresporcuatromadrid.com,"de Hermosilla, 82",http://www.esmadrid.com/restaurantes/tres-cuatro
87953,Propaganda 12,40.420939440122,-3.697379529476,(+34) 910 567 003,info@propaganda12.com,"Libertad, 12",http://www.esmadrid.com/restaurantes/propaganda-12
87946,Pomerania,40.437624300000,-3.688829500000,(+ 34) 910 884 550,eventos@gruporantanplan.com,"de María de Molina, 4",http://www.esmadrid.com/restaurantes/pomerania
87921,Misska,40.433926500000,-3.701968600000,(+34) 914 26 85 18,comunicacion@misska.es,"Eloy Gonzalo, 20",http://www.esmadrid.com/restaurantes/misska
87920,Mawey Taco Bar,40.431691591888,-3.702400624752,(+34) 91 011 71 03,reservas@restaurantemawey.es,"de Olid, 6",http://www.esmadrid.com/restaurantes/mawey-taco-bar
87907,Lobo 8,40.415798585595,-3.699650019407,(+34) 91 360 00 02,info@lobo8.com,"Echegaray, 8",http://www.esmadrid.com/restaurantes/lobo-8
87898,La Cebicher&iacute;a de Trafalgar,40.431536426837,-3.700260892510,(+34) 919 191 749,lacebicheriadetrafalgar@gmail.com,"de Trafalgar, 8",http://www.esmadrid.com/restaurantes/cebicheria-trafalgar
87877,Falafeleria,40.424354200000,-3.701116400000,(+34) 91 172 76 10,,"Santa Bárbara ,4",http://www.esmadrid.com/restaurantes/falafeleria
87875,Cilindro,40.428775600000,-3.674782500000,(+34) 910 66 33 56,,"Don Ramón de la Cruz, 83",http://www.esmadrid.com/restaurantes/cilindro
87866,Cap&oacute;n,40.404427580706,-3.711922466755,(+34) 910 59 20 38,marketing@grupojhosefarias.com,"de San Isidoro de Sevilla, 4",http://www.esmadrid.com/restaurantes/capon
87862,Botania ,40.422864700000,-3.711467400000,(+34) 91 575 75 53,reservas@botania.com,"de España, 5",http://www.esmadrid.com/restaurantes/botania
87861,Alameda ,40.423805283214,-3.686521947384,(+34) 912 657 724,restaurantejj10@alameda.com.es,"de Jorge Juan, 10",http://www.esmadrid.com/restaurantes/alameda
87804,De la Riva,40.455799073474,-3.680779337883,(+34) 91 458 89 54,pepe@restaurantedelariva.com,"de Cochabamba, 13",http://www.esmadrid.com/restaurantes/riva
87752,Donzoko,40.416187609377,-3.699570894241,(+34) 91 429 57 20,donzoko28014@yahoo.co.jp,"Echegaray, 3",http://www.esmadrid.com/restaurantes/donzoko
87746,Callao24,40.450243600000,-3.654744400000,(+34) 910 85 22 10,callao24@grupojhosefarias.com,"de Agastia, 76",http://www.esmadrid.com/restaurantes/callao24
87741,Astrolabius,40.436078939686,-3.686200082302,(+34) 91 562 06 11,info@astrolabiusmadrid.com,"de Serrano, 118",http://www.esmadrid.com/restaurantes/astrolabius
87700,El Buda Feliz 1974,40.421211021512,-3.705544173718,(+34) 915 319 524,info@elbudafeliz1974.es,"Tudescos, 5",http://www.esmadrid.com/restaurantes/buda-feliz-1974
87592,Shinatora Ya,40.425790984604,-3.686656057835,(+34) 911 374 504,shinatoraya@gmail.com,"de Claudio Coello, 41",http://www.esmadrid.com/restaurantes/shinatora-ya
87528,La Sal del Mentidero,40.517126962229,-3.667065203190,(+34) 91 864 48 88,lasal@mentiderodelavilla.es,"de la Comunicación, 3",http://www.esmadrid.com/restaurantes/sal-mentidero
87512,Cascorro Bistrot,40.411127061365,-3.707408308983,(+34) 910 39 09 52,bistrot.cascorro@yahoo.com,"de Cascorro, 21",http://www.esmadrid.com/restaurantes/cascorro-bistrot
87504,Grosso Napoletano (Santa Engracia),40.433881218417,-3.698118478060,(+34) 911 704 653,info@grossonapoletano.com,"de Santa Engracia, 48",http://www.esmadrid.com/restaurantes/grosso-napoletano-santa-engracia
87472,Vagalume,40.439202377203,-3.699420690537,(+34) 914 428 707,,"de Ponzano, 27",http://www.esmadrid.com/restaurantes/vagalume
87467,Cortezo Yatai Market,40.413030900000,-3.703946300000,(+34) 91 138 41 13,info@yataimarkets.com,"del Doctor Cortezo, 10",http://www.esmadrid.com/restaurantes/cortezo-yatai-market
87462,El Greco,40.431695675174,-3.711659610272,(+34) 647 80 45 89,,"de Blasco de Garay, 20",http://www.esmadrid.com/restaurantes/greco
87460,El Oso,40.506049944370,-3.657277822495,(+34) 91 766 60 60,web@restauranteeloso.com,"de Burgos, 214",http://www.esmadrid.com/restaurantes/oso
87427,La Catapa,40.419409987611,-3.677362203598,(+34) 91 574 26 15,,"Menorca, 14",http://www.esmadrid.com/restaurantes/catapa
87425,La Bien Aparecida,40.423850204613,-3.687086552382,(+34) 911 593 939,,"de Jorge Juan, 8",http://www.esmadrid.com/restaurantes/bien-aparecida
87409,99 Sushi Bar (Padre Dami&aacute;n),40.458548124301,-3.685800433159,(+34) 913 593 801,,"Padre Damián, 23",http://www.esmadrid.com/restaurantes/99-sushi-bar-padre-damian
87407,Ruta 77 Palacio de Hielo,40.462924536230,-3.635872453451,(+34) 91 716 04 00,ruta77madrid@gmail.com,"Silvano, 77",http://www.esmadrid.com/restaurantes/ruta-77-palacio-hielo
87395,Volvoreta,40.476741677704,-3.687930107117,(+34) 91 334 27 55,restaurante@eurostarsmadridtower.com,"de la Castellana, 259 - B ",http://www.esmadrid.com/restaurantes/volvoreta
87387,Bump Green,40.422156300000,-3.684549700000,(+34) 91 008 87 24, hello@bumpgreen.com,"de Velázquez, 11",http://www.esmadrid.com/restaurantes/bump-green
87384,&Eacute;timo,40.427881400000,-3.684609100000,(+34) 913 759 883,,"de Ayala, 27",http://www.esmadrid.com/restaurantes/etimo
87380,Ninja Ramen,40.426463600000,-3.701088100000,(+34) 914 939 993 ,contacto@ninjaramen.es ,"Barceló, 1",http://www.esmadrid.com/restaurantes/ninja-ramen
87337,La Casta&ntilde;al,40.459953219311,-3.705175369978,(+34) 91 311 52 02,,"Berruguete, 78",http://www.esmadrid.com/restaurantes/castanal
87312,La Boiga Taberna,40.430454344814,-3.675063550472,(+34) 914 011 309,info@laboiga.com,"de Conde de Peñalver, 52",http://www.esmadrid.com/restaurantes/boiga-taberna
87308,Taberna Aver&iacute;as,40.437870300000,-3.699193900000,(+34) 91 603 34 50  , averias@grupotaberias.com,"de Ponzano, 16",http://www.esmadrid.com/restaurantes/taberna-averias
87305,Casa Baranda,40.423778200000,-3.701663800000,(+34) 915 21 49 79,,"de Colón, 11",http://www.esmadrid.com/restaurantes/casa-baranda
87260,Hortensio,40.430705471062,-3.691604733467,(+34) 910 023 554,info@hortensio.es,Hermosilla 2 - Gran Meliá Hotel,http://www.esmadrid.com/restaurantes/hortensio
87201,Kanbun Taberna Oriental,40.463547965509,-3.657779395580,(+34) 91 388 61 66,info@kanbun.es,"de López de Hoyos, 327",http://www.esmadrid.com/restaurantes/kanbun-taberna-oriental
87164,Carl&rsquo;s JR.,40.420948400000,-3.707380300000,(+34) 91 896 63 78,,"Gran Vía, 45",http://www.esmadrid.com/restaurantes/carls-jr
87148,Alzahra,40.438610364244,-3.657664060593,(+34) 91404 31 50 ,reservas@restaurantealzahra.es ,"Salvador de Madariaga, 7",http://www.esmadrid.com/restaurantes/alzahra
87119,Pizzi &amp; Dixie,40.425835900000,-3.702809300000,(+34) 912 659 887,contacto@pizzidixie.com,"de San Vicente Ferrer, 16",http://www.esmadrid.com/restaurantes/pizzi-dixie
87110,Montmartre 1889,40.419685659190,-3.709653317928,(+34) 91 541 67 00,gmpalacio@melia.com,"de Santo Domingo, 5",http://www.esmadrid.com/restaurantes/montmartre-1889
87103,Mandioca,40.431880700000,-3.704730800000,(+34) 911 278 654,mandioca@mandioca.es,"de San Bernardo, 120",http://www.esmadrid.com/restaurantes/mandioca
87102,Kuoco 360&ordm; food,40.421954400000,-3.698388600000,(+34) 911 99 53 77,hola@kuoco.es,"de  San Bartolomé, 14",http://www.esmadrid.com/restaurantes/kuoco-360o-food
87061,Restaulandia,40.488139724699,-3.688715994358,(+34) 606 34 18 02,reservas@restaulandia.com,"de Manuel Tovar, 25",http://www.esmadrid.com/restaurantes/restaulandia
86979,Corral de la Morer&iacute;a Restaurante Gastron&oacute;mico,40.412687335473,-3.714172840118,(+34) 91 365 84 46 ,info@corraldelamoreria.com,"de la Morería, 17",http://www.esmadrid.com/restaurantes/corral-moreria-restaurante-gastronomico
86922,Candeli,40.440604814686,-3.699431419373,(+34) 91 737 70 86,info@restaurantecandeli.com,"de Ponzano, 47",http://www.esmadrid.com/restaurantes/candeli
86920,El cielo de Urrechu,40.441419317348,-3.784189224243,(+34) 917 093 285,reservas@cielodeurrechu.com,"de Europa, 26, Local  217",http://www.esmadrid.com/restaurantes/cielo-urrechu
86909,Ottica Restaurante,40.444190200000,-3.665504400000,(+34) 91 416 25 85,info@otticarestaurante.com,"del Padre Claret, 1",http://www.esmadrid.com/restaurantes/ottica-restaurante
86907,El Cucurucho del Mar,40.419241010584,-3.706049099565,(+34) 915 220 895,,"Póstigo de San Martín, 6",http://www.esmadrid.com/restaurantes/cucurucho-mar
86885,Morgana,40.422285700000,-3.697895400000, (+34) 682820297,,"de Augusto Figueroa, 33",http://www.esmadrid.com/restaurantes/morgana
86871,La Chelinda,40.439887268449,-3.699112236500,(+34) 914 42 05 78,,"de Ponzano, 40",http://www.esmadrid.com/restaurantes/chelinda
86833,Gula Gula,40.419968300000,-3.707504700000,(+34) 910 133 747 ,reservas@gulagula.net," Preciados 46, esquina a la Plaza de Santo Domingo (Madrid)",http://www.esmadrid.com/restaurantes/gula-gula
86806,Clos Madrid,40.445996400000,-3.699544100000,(+34) 91 064 88 05,reservas@restauranteclosmadrid.es,"de Raimundo Fernández Villaverde, 28",http://www.esmadrid.com/restaurantes/clos-madrid
86793,Paperboy Perrito Bar,40.429888796905,-3.701126575470, (+34) 916 49 20 86,info@paperboyhotdogs.com,"de Luchana, 11",http://www.esmadrid.com/restaurantes/paperboy-perrito-bar
86785,Cr&ecirc;perie La Rue,40.423861434958,-3.701472580433,(+34) 91 189 70 87,creperielarue@gmail.com,"de Colón, 14",http://www.esmadrid.com/restaurantes/creperie-rue
86771,La Casa Tomada,40.423729900000,-3.679464200000,(+34) 915 13 84 48,info@lacasatomada.es,"de Jorge Juan, 55",http://www.esmadrid.com/restaurantes/casa-tomada
86767,Bangalore Modern Indian Cuisine,40.434676407792,-3.675715327263,(+34) 910 571 773,info@bangaloremadrid.com,"de Diego de León, 63",http://www.esmadrid.com/restaurantes/bangalore-modern-indian-cuisine
86752,Picoroco,40.426048253708,-3.693931549788,(+34) 918 61 62 26,picorocorestaurante@gmail.com,"Orellana, 19",http://www.esmadrid.com/restaurantes/picoroco
86741,Derzu Bar,40.462268449741,-3.591405451298,(+34) 91 233 71 48,info@derzubar.com,"Bahía de Palma, 4B",http://www.esmadrid.com/restaurantes/derzu-bar
86687,Haches,40.429902900000,-3.672497700000,(+34) 910 51 01 82,contacto@restaurantehaches.com,"de José Ortega y Gasset, 79",http://www.esmadrid.com/restaurantes/haches
86686,Taramara,40.454277400000,-3.621978100000,(+34) 910 581 121,taramara@taramara.es,"de los Arces, 11",http://www.esmadrid.com/restaurantes/taramara
86646,Casa Maravillas,40.423467350816,-3.680084645748,(+34) 91 577 74 77,jorgejuan54@casamaravillas.es,"de Jorge Juan, 54",http://www.esmadrid.com/restaurantes/casa-maravillas
86645,Gustos Madrid Plaza Mayor,40.414987346351,-3.708005100489,(+34) 91 366 40 30,reservas@gustosmadrid.es,"Mayor, 8",http://www.esmadrid.com/restaurantes/gustos-madrid-plaza-mayor
86595,Tapas Gratis El Biombo (Hogar Extreme&ntilde;o),40.422050100000,-3.709053700000,(+34) 91 559 79 53,,"Gran Vía, 59, 4",http://www.esmadrid.com/restaurantes/tapas-gratis-biombo-hogar-extremeno
86593,Restaurante de Casa de Castilla La Mancha en Madrid  ,40.415465100000,-3.704235300000,(+34) 91 522 05 11,info@casaclmmadrid.org,"de la Paz, 4, 1º dcha",http://www.esmadrid.com/restaurantes/restaurante-casa-castilla-mancha-madrid
86581,Restaurante Xiongzai,40.424842500000,-3.710710100000,(+34) 91 466 98 08,,"San Leonardo, 3",http://www.esmadrid.com/restaurantes/restaurante-xiongzai
86579,Cafeter&iacute;a Lily,40.423428554843,-3.709098100662,(+34) 691 59 37 01,,"de los Mostenses, 1",http://www.esmadrid.com/restaurantes/cafeteria-lily
86505,Japanese Club,40.433001300000,-3.683087700000,(+34) 91 024 05 19,info@japaneseclub.es,"de Juan Bravo, 11",http://www.esmadrid.com/restaurantes/japanese-club
86480,Gran Caf&eacute; de Madrid,40.415936428924,-3.708392679691,(+34) 91 542 90 99,info@grancafemadrid.com,"Mayor, 45",http://www.esmadrid.com/restaurantes/gran-cafe-madrid
86461,Zielou,40.472137163921,-3.682244738484,(+34 )91 299 90 78,reservas@zielou.com,"Agustín de Foxa, s/n",http://www.esmadrid.com/restaurantes/zielou
86459,Pink Monkey,40.427143100000,-3.692336800000,(+34) 913 10 52 72 ,info@restaurantepinkmonkey.com,"del Monte Esquinza, 15",http://www.esmadrid.com/restaurantes/pink-monkey
86397,Borax,40.422905827973,-3.698307573795,(+34) 915 22 28 72,boraxrestaurante@yahoo.es,"Pelayo, 28",http://www.esmadrid.com/restaurantes/borax
86374,Havana Blues,40.402185421294,-3.698524832726,(+34) 915 39 45 89,felitohernando@yahoo.es,"de Santa María de la Cabeza, 56",http://www.esmadrid.com/restaurantes/havana-blues
86373,Cuando sal&iacute; de Cuba,40.419440107338,-3.707073703408,(+34) 91 522 93 18,,"Ternera, 4",http://www.esmadrid.com/restaurantes/cuando-sali-cuba
86353,La Colonial de Huertas,40.413022258706,-3.695842623711,(+34) 914 29 89 36,,"de las Huertas, 66",http://www.esmadrid.com/restaurantes/colonial-huertas
86352,La Taberna de Elia,40.436446410455,-3.793716430664,(+34) 911 627 429,info@latabernadeelia.es,"de las Dos Castillas, 23",http://www.esmadrid.com/restaurantes/taberna-elia
86336,MAD13,40.449841390265,-3.688970804215,(+34) 916 49 29 92,direccion@mad13.com,"de la Habana, 13",http://www.esmadrid.com/restaurantes/mad13
86334,La Porciner&iacute;a,40.434187500000,-3.684587200000,(+34)910 33 38 74,info@laporcineria.com,"de Lagasca, 103",http://www.esmadrid.com/restaurantes/porcineria
86319,Restaurante Gourmand,40.439582079322,-3.697033524513,(+34) 91 545 84 48,taller@atelierbelge.es,"de Bretón de los Herreros, 29",http://www.esmadrid.com/restaurantes/restaurante-gourmand
86254,Foodtruck,40.423758319900,-3.696226179600,(+34) 91 189 36 96,foodtruck@outlook.es,"San Lucas, 11",http://www.esmadrid.com/restaurantes/foodtruck
86236,"Las chicas, los chicos y los maniqu&iacute;s",40.413175424264,-3.700574040413,(+34) 91 088 33 83 ,madrid@mitte-restaurant.com,"de Atocha, 49",http://www.esmadrid.com/restaurantes/chicas-chicos-maniquis
86233,Taberna La Elisa,40.412690200000,-3.696321400000,(+34) 91 421 64 09, info@eltriciclo.es,"de Santa María, 42",http://www.esmadrid.com/restaurantes/taberna-elisa
86221,Condumios Taberna,40.417144400000,-3.689871800000,(+34) 91 805 74 04,,"Juan de Mena, 12",http://www.esmadrid.com/restaurantes/condumios-taberna
86220,Graciela,40.462327630434,-3.686926960945,(+34) 91 502 87 83,,"Pedro Muguruza, 1",http://www.esmadrid.com/restaurantes/graciela
86121,Taberna Artesana Verdejo,40.424294312287,-3.679266571999,+34 91 011 22 48,cmoragregas@yahoo.es  ,"de Espartinas, 6",http://www.esmadrid.com/restaurantes/taberna-artesana-verdejo
86120,Vaca Nostra,40.474889082729,-3.687774538994,+ 34 91 378 88 06,reservas@vacanostra.com,"de la Castellana, 257",http://www.esmadrid.com/restaurantes/vaca-nostra
86107,La Gamella,40.418979600000,-3.689122300000,(+34) 91 532 45 09,restaurante@lagamella.com,"de Alfonso XII, 4",http://www.esmadrid.com/restaurantes/gamella
86105,Beker 6,40.436121811379,-3.687149584293,(+34) 91 173 43 97,info@beker6.com,"Hermanos Bécquer, 6",http://www.esmadrid.com/restaurantes/beker-6
86099,[A]Brasa,40.514525087853,-3.652396202087,+ 34 910 88 39 58,reservas@abrasamadrid.com,"de la Estafeta, 2",http://www.esmadrid.com/restaurantes/abrasa
86070,Glass Mar,40.416360000000,-3.698630000000,+34 917 877 770,glass@derbyhotels.com,"de San Jerónimo, 34",http://www.esmadrid.com/restaurantes/glass-mar
86048,Lux Madrid,40.423677000000,-3.684888500000,+ 34 91 833 42 55,luxmadrid@luxmadrid.es,"de Jorge Juan, 22",http://www.esmadrid.com/restaurantes/lux-madrid
86037,The One,40.431146300000,-3.684879700000,+34 91 575 41 30,lagasca.the.one@gmail.com,"de Lagasca, 81",http://www.esmadrid.com/restaurantes/one
86018,Membibre,40.434919000000,-3.713032500000,+34 91 543 31 48,restaurantemembibre@hotmail.com,"de Guzmán el Bueno, 40",http://www.esmadrid.com/restaurantes/membibre
85982,Fellina,40.430749500000,-3.694280900000,+ 34 91 410 92 50,info@fellinamadrid.com,"de Caracas, 21",http://www.esmadrid.com/restaurantes/fellina
85958,Santerra,40.428971500000,-3.678214300000,(+34) 914 01 35 80 ,santerrarestaurante@gmail.com,"del General Pardiñas, 56",http://www.esmadrid.com/restaurantes/santerra
85955,KIP,40.422514600000,-3.674866400000,+ 34 913 485 89,info@pollokip.com,"Duque de Sesto, 31",http://www.esmadrid.com/restaurantes/kip
85941,Superchulo,40.428534300000,-3.703241200000,(+34) 910 232 706,hola@superchulomadrid.com,"de Manuela Malasaña, 11",http://www.esmadrid.com/restaurantes/superchulo
85935,La Pav&iacute;a,40.441649989241,-3.697863668203,(+ 34) 91 750 47 94,reservas@lapavia.es,"de Ríos Rosas, 38",http://www.esmadrid.com/restaurantes/pavia
85930,Amargo Place to Be,40.422726500000,-3.703818900000,+34 910 847 990,info@amargoplacetobe.com,"del Pez, 2",http://www.esmadrid.com/restaurantes/amargo-place-be
85924,Rocacho,40.458028000000,-3.685373400000,(+ 34) 914 21 97 70,reservas@rocacho.com,"de Padre Damián, 38",http://www.esmadrid.com/restaurantes/rocacho
85914,Apartaco,40.429727500000,-3.701347700000,+34 686 974 916,reservas@apartaco.es,"de Luchana, 7",http://www.esmadrid.com/restaurantes/apartaco
85896,Tiendas de Se&ntilde;or&iacute;o,40.432167900000,-3.697291300000,+34 91 821 31 11,info@tiendadesenorio.com,"de Santa Engracia, 38",http://www.esmadrid.com/restaurantes/tiendas-senorio
85870,Rawcoco Green Bar Madrid,40.426271100000,-3.678655600000,(+ 34) 914 49 50 17,rawcoco@rawcoco.es,"del General Pardiñas, 21",http://www.esmadrid.com/restaurantes/rawcoco-green-bar-madrid
85855,Aduana,40.426414758391,-3.689319491386,+ 34 91 431 67 00,gran.melia.fenix@melia.com,"de Hermosilla, 2",http://www.esmadrid.com/restaurantes/aduana
85814,Shuwa Shuwa ,40.423364500000,-3.694036500000,+34 911 38 54 60,info@shuwashuwa.es,"del Conde de Xiquena, 12",http://www.esmadrid.com/restaurantes/shuwa-shuwa
85787,Doli,40.435109215515,-3.683992624283,(+ 34) 91 027 95 30,info@restaurantedoli.com,"de Diego de León, 13",http://www.esmadrid.com/restaurantes/doli
85784,Puerta de Atocha,40.406025284349,-3.692082166672,91 467 37 50 ,info@puertadeatocha.es,"de Tortosa, 10",http://www.esmadrid.com/restaurantes/puerta-atocha
85781,La Madre&ntilde;a,40.392360093690,-3.688659667969,(+ 34) 916 495 468,,"del Bronce, 4",http://www.esmadrid.com/restaurantes/madrena
85755,As Fontes,40.404317797823,-3.690802752972,(+ 34) 91 292 56 30,asfontes.reservas@gmail.com,"del General Lacy, 10",http://www.esmadrid.com/restaurantes/fontes
85749,Al Punto,40.461188903127,-3.635203242302,(+34) 91 300 14 47,alpunto85@yahoo.es,"de Machupichu, 85",http://www.esmadrid.com/restaurantes/punto
85732,El Vel&aacute;zquez 17,40.422938498521,-3.684496879578,(+ 34) 91 431 68 16,oficina@elvelazquez17.com,"de Velázquez, 17",http://www.esmadrid.com/restaurantes/velazquez-17
85677,NiM&Uacute; Barquillo,40.423940800000,-3.695477000000,(+34) 910 888 898,info@nimubarquillo.com,"del Barquillo, 40",http://www.esmadrid.com/restaurantes/nimu-barquillo
85600,Sargo. El arrecife de Madrid,40.430485480437,-3.676842525601,(+ 34) 91 010 66 57,reservas@sargomadrid.com,"del General Díaz Porlier, 57",http://www.esmadrid.com/restaurantes/sargo-arrecife-madrid
85516,The Mint Roof,40.419578500000,-3.698562600000,(+34) 91 203 06 50,themint@vinccihoteles.com,"Gran Vía, 10",http://www.esmadrid.com/restaurantes/mint-roof
85514,Taberna Recreo,40.424429075415,-3.679242432118,+ 34 91 033 43 79,info@recreoespartinas.com,"de Espartinas, 5",http://www.esmadrid.com/restaurantes/taberna-recreo
85508,Sushita Caf&eacute; - Miguel Angel,40.435478100000,-3.691534400000,(+ 34) 918 280 204,,"de Miguel Angel, 11",http://www.esmadrid.com/restaurantes/sushita-cafe-miguel-angel
85435,Marcano,40.420437100000,-3.675399600000,(+ 34) 914 093 642,sala@restaurantemarcano.com,"del Doctor Castelo, 31",http://www.esmadrid.com/restaurantes/marcano
85421,Lev&eacute;l Veggie Bistro,40.415662300000,-3.677615900000,(+ 34) 91 127 57 52,reservas@levelbistro.es,"de Menéndez Pelayo, 61",http://www.esmadrid.com/restaurantes/level-veggie-bistro
85416,Enigmatium,40.437241500000,-3.678256900000,(+ 34) 91 127 20 51,comercial@enigmatium.com,Primer enigma a resolver,http://www.esmadrid.com/restaurantes/enigmatium
85413,Latasia Casa de Comidas,40.456859900000,-3.690870900000,(+ 34) 91 555 93 33,,"de la Castellana, 115",http://www.esmadrid.com/restaurantes/latasia-casa-comidas
85406,Casa Jaguar,40.419104500000,-3.708648500000,(+34) 91 024 57 12 ,reservas@casajaguarmadrid.com,"de los Caños del Peral, 9",http://www.esmadrid.com/restaurantes/casa-jaguar
85405,Flores de Alcachofa,40.433318700000,-3.687520100000,(+ 34) 91 502 77 11,info@floresdealcachofa.com,"de la Castellana, 40",http://www.esmadrid.com/restaurantes/flores-alcachofa
85347,F&aacute;bula Buey &amp; Champagne,40.418299700000,-3.696188400000,(+ 34) 913 766 038,info@fabularestaurante.com,"del Marqués de Casa Riera, 1",http://www.esmadrid.com/restaurantes/fabula-buey-champagne
85339,Arima Basque Gastronomy,40.440776500000,-3.699244900000,(+34) 911 091 599,,"de Ponzano, 51",http://www.esmadrid.com/restaurantes/arima-basque-gastronomy
85300,&iexcl;Tu! Pasta,40.418881400000,-3.678776000000,(+ 34) 91 409 22 89,retiro@tu-pasta.com,"de Menéndez Pelayo, 27",http://www.esmadrid.com/restaurantes/tu-pasta
85265,Soy Kitchen,40.435977300000,-3.693172400000,(+ 34) 913 192 551,info@soykitchen.es,"de Zurbano, 59",http://www.esmadrid.com/restaurantes/soy-kitchen
85263,Kappo,40.439190000000,-3.693749200000,(+ 34) 91 042 00 66,info@kappo.es ,"de Bretón de los Herreros, 54",http://www.esmadrid.com/restaurantes/kappo
85236,Inti de Oro Inn,40.448718300000,-3.697349000000,(+ 34) 91 084 91 93 ,intideorocastellana@gmail.com,"Edgar Neville, 17",http://www.esmadrid.com/restaurantes/inti-oro-inn
85208,Ralph&rsquo;s,40.432623900000,-3.692915500000,(+ 34) 91 053 41 30,grupogamchulo@gmail.com,"de Eduardo Dato, 8",http://www.esmadrid.com/restaurantes/ralphs
85112,Steak Burger (Gran V&iacute;a),40.419794906504,-3.699460923672,(+ 34) 91 421 92 50,,"Gran Vía, 16",http://www.esmadrid.com/restaurantes/steak-burger-gran
85025,La Panera Rosa,40.429933700000,-3.673127000000,(+ 34) 91 129 54 69,panerarosamadrid@gmail.com,"de Ortega y Gasset, 73",http://www.esmadrid.com/restaurantes/panera-rosa
84926,Sugarcane,40.435177500000,-3.684916100000,(+ 34) 91 055 05 35,info@sugarcanemadrid.com,"de Diego de León, 7",http://www.esmadrid.com/restaurantes/sugarcane
84917,Sky Sushi &amp; Ramen Bar,40.421950500000,-3.690109000000,(+ 34) 91 017 51 16,info@skysushi.es,"de Recoletos, 11",http://www.esmadrid.com/restaurantes/sky-sushi-ramen-bar
84907,Ramen Shifu,40.427385628832,-3.676697015762,(+34) 914 017 730 ,info@ramenshifu.com,"de Ayala, 65",http://www.esmadrid.com/restaurantes/ramen-shifu
84906,Peyote San ,40.425267500000,-3.692049600000,(+ 34) 91 088 22 12,eventos@larrumba.com,"Marqués de la Ensenada, 16",http://www.esmadrid.com/restaurantes/peyote-san
84892,Numa Pompilio,40.423364000000,-3.683906400000,(+ 34) 91 685 97 19,,"de Velázquez, 18",http://www.esmadrid.com/restaurantes/numa-pompilio
84885,Narciso Brasserie,40.430404100000,-3.692387300000,(+ 34) 91 737 97 37,reservas@restaurantenarciso.com,"de Almagro, 32",http://www.esmadrid.com/restaurantes/narciso-brasserie
84881,Media Raci&oacute;n,40.426985500000,-3.697913000000,(+ 34) 91 447 51 11,restaurante@mediaracion.es,"de la Beneficiencia, 15",http://www.esmadrid.com/restaurantes/media-racion
84830,La Encarna Bistr&oacute; Andaluz,40.441015600000,-3.680730200000,(+ 34) 91 411 39 91,reservas@laencarna.es,"Recaredo, 2",http://www.esmadrid.com/restaurantes/encarna-bistro-andaluz
84809,Chow Chow,40.451951500000,-3.680666400000,(+ 34) 91 088 45 50,eventos@gruporantanplan.com,"de Concha Espina, 55",http://www.esmadrid.com/restaurantes/chow-chow
84808,Casa Suecia,40.417828300000,-3.696181900000,(+ 34) 91 051 35 92 ,sala@casasuecia.es,"del Marqués de Casa Riera, 4 ",http://www.esmadrid.com/restaurantes/casa-suecia
84802,Canalla Bistr&oacute;,40.425746600000,-3.688944300000,(+ 34) 91 577 00 25,info@plateamadrid.com,"de Goya, 5-7",http://www.esmadrid.com/restaurantes/canalla-bistro
84759,Art &amp; Sushi,40.428986800000,-3.703554300000,(+ 34) 910 398 833,,"de Carranza, 9",http://www.esmadrid.com/restaurantes/art-sushi
84757,Arallo Taberna,40.419930400000,-3.698540700000,(+34) 690 673 796,madrid@arallotaberna.com,"Reina, 31",http://www.esmadrid.com/restaurantes/arallo-taberna
84739,Al Socaire,40.413189800000,-3.675106300000,+ 34 91 493 88 04,reservas@alsocaire.com,"de Pio Baroja, 10",http://www.esmadrid.com/restaurantes/socaire
84700,La Encomienda,40.410575300000,-3.705963700000,(+34) 91 029 13 00,,"de la Encomienda, 19",http://www.esmadrid.com/restaurantes/encomienda
84694,Dos Cielos Madrid,40.419683617183,-3.709650635719,(+34) 91 541 67 00,doscielosmadrid@melia.com,"de Santo Domingo, 5",http://www.esmadrid.com/restaurantes/dos-cielos-madrid
84614,La Clave,40.424003800000,-3.684034500000,(+34) 91 053 20 31,reservas@restaurantelaclave.com,"de Velázquez, 22",http://www.esmadrid.com/restaurantes/clave
84609,Dans le noir?,40.416076600000,-3.711589900000,(+34) 91 296 27 61,reservas@danslenoir.com,"del Biombo, 5",http://www.esmadrid.com/restaurantes/dans-le-noir
84567,Madame Sushita,40.450022200000,-3.688219400000,(+ 34) 91 831 55 41,contacto@sushita.com,"de la Habana, 15",http://www.esmadrid.com/restaurantes/madame-sushita
84460,Honest Greens,40.449976700000,-3.691608700000,(+34) 91 421 50 11,hello@honestgreens.com,"de la Castellana, 89",http://www.esmadrid.com/restaurantes/honest-greens
84446,Esplore,40.420303400000,-3.699519300000,(+ 34) 91 000 94 88,,"del Clavel, 5",http://www.esmadrid.com/restaurantes/esplore
84444,Restaurante de la Residencia de Estudiantes,40.440657700000,-3.688052600000,(+ 34) 91 561 32 00,,"del Pinar, 21 - 23",http://www.esmadrid.com/restaurantes/restaurante-residencia-estudiantes
84431,Surya ,40.421090545692,-3.705525398254,(+ 34) 912 54 53 06,info@suryarestaurants.com,"de Tudescos, 4",http://www.esmadrid.com/restaurantes/surya
84163,Cruz Blanca de Vallecas,40.387682500000,-3.665024900000,(+34) 91 477 34 38,,"Carlos Martín Álvarez, 58 ",http://www.esmadrid.com/restaurantes/cruz-blanca-vallecas
83949,Radio Rooftop,40.414558700000,-3.701405600000,(+34) 91 701 60 00,memadrid@melia.com,"de Santa Ana, 14",http://www.esmadrid.com/restaurantes/radio-rooftop
83648,Alfredo&rsquo;s barbacoa (Conde de Aranda),40.421721509879,-3.687956929207,(+34 91 431 36 46   ,alfredosbbq@gmail.com,"Conde de Aranda, 4",http://www.esmadrid.com/restaurantes/alfredos-barbacoa-conde-aranda
83341,El Escondite de Villanueva,40.422379013188,-3.685993552208,(+34) 91 431 33 49,,"de Villanueva, 26",http://www.esmadrid.com/restaurantes/escondite-villanueva
83141,Reineta,40.414317007236,-3.699050545692,(+34) 91 420 18 32,evacosials@hotmail.com,"del Infante, 5",http://www.esmadrid.com/restaurantes/reineta
82937,La Primera,40.419135335914,-3.697879761457,(+34) 91 052 06 20,,"Gran Vía, 1",http://www.esmadrid.com/restaurantes/primera
82816,Somos,40.424369600000,-3.712326200000,(+34) 91 524 23 99  ,info@somosgarra.es,"de España, 18",http://www.esmadrid.com/restaurantes/somos
82768,Timesburg,40.437900000000,-3.678380200000,(+34) 91 126 16 81,hola@timesburg.com,"de Francisco Silvela, 91",http://www.esmadrid.com/restaurantes/timesburg
82715,A' kangas by Urrechu,40.514472070555,-3.653302788734, (+34) 91 555 56 00,reservas@akangas.com,"de la Estafeta, 4",http://www.esmadrid.com/restaurantes/kangas-urrechu
82652,El Flaco,40.448363623469,-3.670549392700,(+34) 91 199 65 02,info@elflaco.es,"Javier Ferrero, 8",http://www.esmadrid.com/restaurantes/flaco
82630,Kirei Las Cortes ,40.415170200000,-3.696794600000,(+34) 91 737 19 22,,"de San Agustín, 3",http://www.esmadrid.com/restaurantes/kirei-cortes
82603,Kirei Barajas,40.491103200000,-3.592673500000,(+34) 620 266 405,,"de la Hispanidad, s/n",http://www.esmadrid.com/restaurantes/kirei-barajas
82508,Lubora,40.452102800000,-3.696748000000,(+34) 91 126 16 50,hola@lubora.com,"Edgar Neville, 39",http://www.esmadrid.com/restaurantes/lubora
82352,El Imparcial,40.411961300000,-3.705850100000,(+34) 91 795 89 86,info@elimparcialmadrid.com,"del Duque de Alba, 4",http://www.esmadrid.com/restaurantes/imparcial
82351,Sidrer&iacute;a El Tigre ,40.420381800000,-3.698743400000,(+34) 91 532 00 72,,"de las Infantas, 30",http://www.esmadrid.com/restaurantes/tigre
82219,GastroV&iacute;a 61,40.422121730050,-3.709591627121,(+34) 91 547 26 00,gastrovia61@hotelmayorazgo.com,"de la Flor Baja, 3",http://www.esmadrid.com/restaurantes/gastrovia-61
82193,Ojal&aacute;,40.425524700000,-3.703961100000,(+34) 91 523 27 47,ojala@grupolamusa.com,"de San Andrés, 1",http://www.esmadrid.com/restaurantes/ojala
82089,La Taurina,40.416740700000,-3.701459500000,(+34) 91 531 39 69,info@lataurina.com,"de San Jerónimo, 5",http://www.esmadrid.com/restaurantes/taurina
82030,Los Arcos de Ponzano,40.437870800000,-3.699283200000,(+34)  91 442 58 84,los.arcos.de.ponzano@gmail.com,"de Ponzano, 16",http://www.esmadrid.com/restaurantes/arcos-ponzano
81852,Huerta de Caraba&ntilde;a,40.423669497892,-3.685461133719,(+34) 91 083 00 07,reservas@huertadecarabana.es,"de Lagasca, 32",http://www.esmadrid.com/restaurantes/huerta-carabana
81812,Robin Hood,40.412989583342,-3.710439205170,(+34) 910 558 811,reservasnuncio@restaurantesrobinhood.es,"del Nuncio, 19",http://www.esmadrid.com/restaurantes/robin-hood
81723,Taberna El Tempranillo,40.411997061599,-3.710165619850,(+34) 91 364 15 32,,"Cava Baja, 38",http://www.esmadrid.com/restaurantes/taberna-tempranillo
81487,Dingo,40.427289900000,-3.684296300000,(+34) 91 051 05 06,,"de Velázquez, 47",http://www.esmadrid.com/restaurantes/dingo
81464,El Invernadero,40.444549800000,-3.698943600000,(+34) 628 93 93 67,reservas@elinvernaderorestaurante.com,"de Ponzano, 85",http://www.esmadrid.com/restaurantes/invernadero
81461,Gayt&aacute;n,40.449672100000,-3.678055200000,(+34) 91 348 50 30,reservas@restaurantegaytan.com,"del Principe de Vergara, 205 ",http://www.esmadrid.com/restaurantes/gaytan
81456,A&acute;Barra ,40.438687938652,-3.687881827354,(+34) 91 021 00 61,reservas@restauranteabarra.com,"del Pinar, 15",http://www.esmadrid.com/restaurantes/abarra
81400,Makkila,40.435279683830,-3.686271160841,(+34) 91 563 34 31,,"Serrano, 110",http://www.esmadrid.com/restaurantes/makkila
81218,NuBel,40.407532574974,-3.695456385613,(+34) 91 530 17 61,info@nubel.es,"Argumosa, 43",http://www.esmadrid.com/restaurantes/nubel
81207,Pointer,40.425267500000,-3.692049600000,(+34) 91 088 45 50,eventos@pointermadrid.com,"del Marqués de la Ensenada, 16",http://www.esmadrid.com/restaurantes/pointer
81116,Five Guys,40.420463659555,-3.705552220345,(+34) 91 522 35 14,,"Gran Vía, 44",http://www.esmadrid.com/restaurantes/five-guys
81052,Angelita Madrid,40.420594100000,-3.700775000000,(+34) 91 521 66 78,info@madrid-angelita.es,"La Reina, 4",http://www.esmadrid.com/restaurantes/angelita-madrid
81032,Vila Brasil,40.442249500000,-3.671594200000,(+34) 91 510 10 20,puenteareas@vilabrasil.es,"Puenteáreas, 1",http://www.esmadrid.com/restaurantes/vila-brasil
81020,Sacha,40.460697081243,-3.686808943749,(+34)  91 345 59 52,,"de  Juan Hurtado de Mendoza, 11",http://www.esmadrid.com/restaurantes/sacha
80909,Alcuzcuz de Alhuzema,40.423891700000,-3.699667500000,(+34) 91 531 94 11,alcuzcuzalhuzema@hotmail.com,"Farmacia, 8",http://www.esmadrid.com/restaurantes/alcuzcuz-alhuzema
80818,Cannibal Raw Bar,40.422444900000,-3.694312100000,(+34) 91 026 87 94,info@cannibalrawbar.es,"del Almirante, 12",http://www.esmadrid.com/restaurantes/cannibal-raw-bar
80799,La Taberna Murciana,40.402638500000,-3.680855900000,(+34) 91 501 61 90,reservastellez@elcaldero.com,"de Téllez, 2",http://www.esmadrid.com/restaurantes/taberna-murciana
80779,Restaurante Mutis,40.436409300000,-3.688380000000,(+34) 91 342 24 90,emperatriz@barcelo.com,"de López de Hoyos, 4",http://www.esmadrid.com/restaurantes/restaurante-mutis
80768,Jimbo Smokehouse,40.440649800000,-3.700724600000,(+34) 91 000 55 40,info@jimbosmokehouse.com,"del Descubridor Diego de Ordás, 4",http://www.esmadrid.com/restaurantes/jimbo-smokehouse
80723,Garbel Madrid,40.420435200000,-3.698930900000,(+34) 91 601 52 66,info@garbelmadrid.com,"de las Infantas, 28",http://www.esmadrid.com/restaurantes/garbel-madrid
80718,Casa Macareno,40.425912300000,-3.704853300000,(+34) 91 166 09 21,,"de San Vicente Ferrer, 44",http://www.esmadrid.com/restaurantes/casa-macareno
80698,Taberna &amp; Media,40.420805100000,-3.677734300000,(+34) 91 867 58 42,info@tabernaymedia.com,"de Lope de Rueda, 30",http://www.esmadrid.com/restaurantes/taberna-media
80683,La Malaje,40.412792600000,-3.703387200000,(+34) 91 081 30 31,info@lamalaje.es,"de la Paja, 10",http://www.esmadrid.com/restaurantes/malaje
80618,Carlos Oyarbide,40.422452700000,-3.684918600000,(+34) 91 827 52 49,reservascarlosoyarbide@gmail.com,"de Villanueva, 21",http://www.esmadrid.com/restaurantes/carlos-oyarbide
80577,Amaz&oacute;nico,40.423747089538,-3.685129880905,(+34) 91 515 43 32,sala@restauranteamazanonico.com,"de Jorge Juan, 20",http://www.esmadrid.com/restaurantes/amazonico
80392,La Bekada,40.451420800000,-3.594446100000,(+34) 91 234 33 55,reservamesa@labekada.com,"Catamarán, 3",http://www.esmadrid.com/restaurantes/bekada
80259,El soportal,40.415411600000,-3.706751100000,(+34) 91 366 39 66,info@restauranteelsoportal.es,"Mayor, 33",http://www.esmadrid.com/restaurantes/soportal
80215,Bistronomika,40.412725800000,-3.696069700000,(+34) 91 138 62 98,bistronomika@bistronomika.es,"de Santa María, 39",http://www.esmadrid.com/restaurantes/bistronomika
80209,Bibo Madrid,40.435666553432,-3.688219785690,(+34) 91 805 25 56,,"de la Castellana, 52",http://www.esmadrid.com/restaurantes/bibo-madrid
80127,Puertalsol,40.417102470090,-3.704176247120,(+34) 91 487 36 85,info@puertalsol.com,"Puerta del Sol, 10",http://www.esmadrid.com/restaurantes/puertalsol
79662,Sal Negra,40.467590400000,-3.681163700000,(+34) 91 345 09 45,info@restaurantesalnegra.com,"Mateo Inurria, 33",http://www.esmadrid.com/restaurantes/sal-negra
79595,Jack Percoca,40.426454400000,-3.710995700000,(+34) 915 13 50 44,jack.percoca@gmail.com,"del Conde Duque, 14 ",http://www.esmadrid.com/restaurantes/jack-percoca
79579,Fismuler,40.428174400000,-3.697275800000,(+34) 91 827 75 81,info@fismuler.com,"de Sagasta, 29",http://www.esmadrid.com/restaurantes/fismuler
79575,Cebo ,40.416360000000,-3.698630000000,(+34) 91 787 77 80,cebo@derbyhotels.com,"de San Jerónimo, 34",http://www.esmadrid.com/restaurantes/cebo
79571,L&oacute;pez &amp; L&oacute;pez ,40.409546327931,-3.704087734222,(+34) 91 029 99 26,,"de Cabestreros, 4",http://www.esmadrid.com/restaurantes/lopez-lopez
79548,YOUnique,40.422220900000,-3.695704500000,(+34) 91 005 22 22,madrid@onlyyouhotels.com,"del Barquillo, 21",http://www.esmadrid.com/restaurantes/younique
79544,Lamian by Soy Kitchen,40.423600100000,-3.708917600000,(+34)  91 039 22 31,,"de Los Mostenses, 4",http://www.esmadrid.com/restaurantes/lamian-soy-kitchen
79539,Habanera,40.425360400000,-3.691774400000,(+34) 91 737 20 17,eventos@larrumba.com,"de Génova, 28",http://www.esmadrid.com/restaurantes/habanera
79535,Bar El Pescador ,40.406305800000,-3.710957100000,(+34) 91 365 52 18,,"de Toledo, 2 ",http://www.esmadrid.com/restaurantes/pescador-puerta-toledo
79534,Bar Alonso Cervecer&iacute;a Marisquer&iacute;a,40.443240174826,-3.680167794228,(+34) 91 561 10 32,,"de Gabriel Lobo, 18 ",http://www.esmadrid.com/restaurantes/bar-alonso-cerveceria-marisqueria
79521,Casa Emilio,40.443246298703,-3.675182908773,(+34) 91 561 10 38,,"de López de Hoyos, 98",http://www.esmadrid.com/restaurantes/casa-emilio
79452,Le Petit Comit&eacute;,40.420286006721,-3.699839115143,(+34) 91 070 93 03,contact@restaurante-petitcomite.com,"Reina, 15",http://www.esmadrid.com/restaurantes/petit-comite
78916,La Estaci&oacute;n de los Porches,40.388008710951,-3.672153353691,(+34) 91 478 60 31,restaurante@estaciondelosporches.com,"Timoteo Pérez Rubio, 2",http://www.esmadrid.com/restaurantes/estacion-porches
78903,La Carmencita,40.421184476011,-3.697248101234,(+34)  91 531 09 11,hola@tabernalacarmencita.es,"de la Libertad, 16",http://www.esmadrid.com/restaurantes/carmencita
78840,Florida Park,40.418087200000,-3.680092300000,(+34) 91 827 52 75,info@floridaretiro.com,"de Panamá, s/n. Parque de El Retiro",http://www.esmadrid.com/restaurantes/florida-park
78529,El Pel&iacute;cano,40.461440300000,-3.692147500000,(+34) 91 203 19 74,reservas@elpelicanomadrid.com,"del Poeta Joan Maragall, 43",http://www.esmadrid.com/restaurantes/pelicano
78474,La Matritense,40.432448000000,-3.701592000000,(+34) 91 522 53 07,info@vinomatritense.com,"de Olavide, 4",http://www.esmadrid.com/restaurantes/matritense
78429,Bodegas Rivas,40.426683300000,-3.707731700000,(+34) 91 421 79 54,bodegasrivas@bodegasrivasmadrid.es,"de La Palma, 61",http://www.esmadrid.com/restaurantes/bodegas-rivas
78264,Sif&oacute;n,40.420447200000,-3.695906000000,(+34) 91 532 61 59,sifon@sifonmadrid.com,"del Rey, 4",http://www.esmadrid.com/restaurantes/sifon
78206,KultO,40.418201800000,-3.678083800000,(+34) 91 173 30 53,kulto.espaciogastronomico@gmail.com,"de Ibiza, 4",http://www.esmadrid.com/restaurantes/kulto
78196,Taberna Pedraza,40.422131000000,-3.690846300000,(+34) 913 428 420,info@tabernapedraza.com,"de Recoletos, 4",http://www.esmadrid.com/restaurantes/taberna-pedraza
77821,La Exc&eacute;ntrica ,40.417288600000,-3.708581700000,(+34) 91 559 71 68,info@laexcentricamadrid.com,"de las Fuentes, 10",http://www.esmadrid.com/restaurantes/excentrica
77745,Oven Mozarella Bar,40.425247857709,-3.700563311577,(+34) 91 786 42 68,,"de Fuencarral, 72",http://www.esmadrid.com/restaurantes/oven-mozarella-bar
77718,Premiata Forner&iacute;a Ballar&oacute;,40.437838600000,-3.699795900000,(+34) 91 593 91 33,info@forneriaballaro.com,"de Santa Engracia, 90",http://www.esmadrid.com/restaurantes/premiata-forneria-ballaro
77682,Taberna Degusta,40.437112000000,-3.677133000000,(+34) 91 025 71 53,info@tabernadegusta.com,"Francisco Silvela, 83",http://www.esmadrid.com/restaurantes/taberna-degusta
77675,Ramen Kagura,40.416807000000,-3.708749000000,(+34) 91 548 36 06,info@hanatokura.es,"de las Fuentes, 1",http://www.esmadrid.com/restaurantes/ramen-kagura
77647,Antigua Taquer&iacute;a,40.409440300000,-3.704327900000,(+34) 91 530 82 70,antiguataqueria@gmail.com,"de Cabestreros, 4",http://www.esmadrid.com/restaurantes/antigua-taqueria
77642,El Rinc&oacute;n Guay,40.407483557924,-3.704165518284,(+34) 91 468 37 00,,"de Embajadores, 62",http://www.esmadrid.com/restaurantes/rincon-guay
77614,Mad Brewing,40.435156170902,-3.631281852722,(+34) 91 440 23 95,info@madbrewing.beer,"de Julián Camarillo, 19",http://www.esmadrid.com/restaurantes/mad-brewing
77550,Acoge un Plato Casa &Aacute;rabe,40.421668419270,-3.681669831276,,casa.arabe@acogeunplato.org," de Alcalá, 62",http://www.esmadrid.com/restaurantes/acoge-plato-casa-arabe
77541,Xareu,40.429244800000,-3.690047700000,(+34) 91 382 46 09,xareusidreria@gmail.com,"de la Castellana, 23",http://www.esmadrid.com/restaurantes/xareu
77520,Vinos 11 Casa Dani,40.409197900000,-3.711092300000,(+34) 91 365 26 21,casadani@outlook.com,"Calatrava, 11",http://www.esmadrid.com/restaurantes/vinos-11-casa-dani
77501,La Raquetista,40.420527900000,-3.677152600000,(+34) 91 831 18 42,info@laraquetista.com,"del Doctor Castelo, 19",http://www.esmadrid.com/restaurantes/raquetista
77496,Palo Cortado,40.440451500000,-3.697390400000,(+34) 91 547 25 00,tabernapalocortado@gmail.com,"de Espronceda, 18",http://www.esmadrid.com/restaurantes/palo-cortado
77290,Maestro Food &amp; More,40.414369082562,-3.703075200319,(+34) 673 30 96 15,info@maestromadrid.com,"de Jacinto Benavente, 2",http://www.esmadrid.com/restaurantes/maestro-food-more
77284,Restaurante Elkuru,40.419419600000,-3.698944600000,(+34) 91 127 20 49,comercial@elkuru.com,"Gran Vía, 7-9",http://www.esmadrid.com/restaurantes/restaurante-elkuru
77222,As Jamoner&iacute;a,40.414233278195,-3.703162372112,(+34) 91 129 92 44,,"de Jacinto Benavente, 2",http://www.esmadrid.com/restaurantes/jamoneria
77193,Mandar&iacute;n,40.424608200000,-3.691375200000,(+34) 91 060 98 89,reservas@royalmandarin.es,"de Recoletos, 37",http://www.esmadrid.com/restaurantes/mandarin
77192,Royal Canton&eacute;s,40.383014100000,-3.702540600000,(+34) 91 500 01 61,,"Olvido, 92",http://www.esmadrid.com/restaurantes/royal-cantones
77187,Kzen,40.421736900000,-3.676517600000,(+34) 91 431 44 37 ,info@restaurantekzen.es,de O´Donnell 31,http://www.esmadrid.com/restaurantes/kzen
77181,China T&eacute;,40.447049118514,-3.663843870163,(+34) 91 519 34 35,restaurante.chinate@chinate.es,"de Santa Hortensia, 60",http://www.esmadrid.com/restaurantes/china-te
77173,Casa Lafu,40.421969500000,-3.709483400000,(+34) 91 548 70 96,belen@casalafu.com,"de la Flor Baja, 1  ",http://www.esmadrid.com/restaurantes/casa-lafu
77168,Asia T&eacute;,40.470966500000,-3.685152700000,(+34) 91 314 78 18,,"de Agustín de Foxá, 27",http://www.esmadrid.com/restaurantes/asia-te
76872,Perrachica,40.433735245533,-3.702794909477,(+34) 91 737 77 75,eventos@larrumba.com,"Eloy Gonzalo, 10",http://www.esmadrid.com/restaurantes/perrachica
76861,La Vaquer&iacute;a Monta&ntilde;esa,40.428747800000,-3.692776700000,(+34) 91 138 71 06,vaqueriamontanesa@yahoo.es," Blanca de Navarra, 8",http://www.esmadrid.com/restaurantes/vaqueria-montanesa
76793,La Charca,40.423863476839,-3.714132606983,(+34) 91 547 28 94,reservas@lacharcataberna.com,"de Juan Álvarez de Mendizábal, 7",http://www.esmadrid.com/restaurantes/charca
76745,Floren Domez&aacute;in,40.422984500000,-3.681793100000,(+34) 91 576 76 23,reservasfloren@gmail.com,"de Castelló, 9",http://www.esmadrid.com/restaurantes/floren-domezain
76495,La Vanduca,40.421108200000,-3.688093400000,(+34) 91 578 23 21,info@lavanduca.es,Columela 2,http://www.esmadrid.com/restaurantes/vanduca
76447,Benares,40.427614000000,-3.693878900000,(+34) 91 319 87 16,reservas@benaresmadrid.com,"de Zurbano, 5",http://www.esmadrid.com/restaurantes/benares
76357,Da Giuseppina,40.431926380430,-3.700855672360,(+34) 91 445 85 39,info@dagiuseppina.com,"de Trafalgar, 17",http://www.esmadrid.com/restaurantes/da-giuseppina
76356,Marina Ventura ,40.415360900000,-3.698905900000,(+34) 91 429 38 10,arroceriamarina@gmail.com,"Ventura de la Vega, 13",http://www.esmadrid.com/restaurantes/marina-ventura
76323,L&uacute;a,40.432909400000,-3.695636700000,(+34) 91 395 28 53,luarestaurantemadrid@gmail.com," de Eduardo Dato, 5",http://www.esmadrid.com/restaurantes/lua
76304,Ronda 14,40.436296300000,-3.684494500000,(+34) 91 411 17 30,restaurante@ronda14.com,"del General Oraa, 25",http://www.esmadrid.com/restaurantes/ronda-14
76215,Swagat,40.424389100000,-3.682975900000,(+34) 91 577 95 66,swagat29@hotmail.com,"de Nuñez de Balboa, 29",http://www.esmadrid.com/restaurantes/swagat
76189,Cachivache,40.454682300000,-3.678157100000,(+34) 91 752 41 76,reservas@cachivaquetaberna.com,"Serrano, 221",http://www.esmadrid.com/restaurantes/cachivache
76164,Docamar,40.433750000000,-3.648170000000,(+34) 91 367 83 17,docamar@docamar.com,"de Alcalá, 337",http://www.esmadrid.com/restaurantes/docamar
76140,La Canica,40.456057700000,-3.619648700000,(+34) 91 320 15 03 ,reservas@lacanicamadrid.com,"de los Andes, 25, Locales 2 y 3",http://www.esmadrid.com/restaurantes/canica
76127,Sal Gorda,40.448033700000,-3.715251000000,(+34) 91 553 95 06,info@restaurantesalgorda.es,"Beatriz de Bobadilla, 9 posterior",http://www.esmadrid.com/restaurantes/sal-gorda
76109,Taberna Los Gallos,40.423477800000,-3.686283000000,(+34) 91 431 06 47,info@tabernalosgallos.com,"Puigcerdá, 4 y 6",http://www.esmadrid.com/restaurantes/taberna-gallos
76102,Filand&oacute;n,40.504765500000,-3.716732900000,(+34) 91 734 38 26 ,,"Fuencarral-El Pardo (M - 612) Km. 1,9",http://www.esmadrid.com/restaurantes/filandon
76097,Kil&oacute;metros de pizza ,40.454115300832,-3.693273067474,(+34) 91 ­755 72 32,info@kilometrosdepizza.com,"de Brasil, 6",http://www.esmadrid.com/restaurantes/kilometros-pizza
75870,Kirikata,40.421336300000,-3.678847600000,(+34) 91 435 88 29,reservaskirikata@arzabal.com,"Doctor Castelo, 2",http://www.esmadrid.com/restaurantes/kirikata
75845,Restaurante Navaja,40.423289000000,-3.701505600000,(+34) 636 85 23 04,navajarestaurante@gmail.com,"de Valverde, 40 - 42",http://www.esmadrid.com/restaurantes/restaurante-navaja
75811,Naia Bistro,40.412901768223,-3.711364567280,(+34) 91 366 27 83,,"de la Paja, 3",http://www.esmadrid.com/restaurantes/naia-bistro
75809,Lambuzo (Conchas),40.418821884465,-3.708156645298,(+34) 91 143 48 62,info@barlambuzo.com,"de las Conchas, 9",http://www.esmadrid.com/restaurantes/lambuzo-conchas
75797,La Plater&iacute;a,40.412710200000,-3.694356500000,(+34) 91 429 17 22,,"de Moratín, 49",http://www.esmadrid.com/restaurantes/plateria
75784,La Palma 60,40.426764926738,-3.707781136036,(+34) 91 521 31 06,info@lapalma60.com,"de La Palma, 60",http://www.esmadrid.com/restaurantes/palma-60
75730,Toque de Sal,40.440345700000,-3.699076000000,(+34) 91 426 64 65,info@toquedesal.com,"de Ponzano, 46",http://www.esmadrid.com/restaurantes/toque-sal
75721,Arzabal (Reina Sof&iacute;a),40.408563600000,-3.694034900000,(+34) 91 528 68 28,,"de  Santa Isabel, 52",http://www.esmadrid.com/restaurantes/arzabal-reina-sofia
75424,Restaurante Et&iacute;ope Hanan,40.425883700000,-3.713369900000,(+34) 91 548 99 29,info@restauranteetiope.com,"Ventura Rodríguez, 3",http://www.esmadrid.com/restaurantes/restaurante-etiope-hanan
75410,ElMandela,40.417357730346,-3.710262179375,(+34) 91 142 98 00,elmandela.madrid@gmail.com,"Independencia, 1",http://www.esmadrid.com/restaurantes/elmandela
75282,La berenjena,40.410041800000,-3.696110100000,(+34) 91 467 52 97,,"del Marqués de Toca, 7",http://www.esmadrid.com/restaurantes/berenjena
75232,La Bobia,40.411341700000,-3.707607300000,(+34) 91 737 60 30,,"de San Millán, 3",http://www.esmadrid.com/restaurantes/bobia
75211,La Pescader&iacute;a,40.422910000000,-3.703100000000,(+34) 91 523 90 51,barlapescaderia@gmail.com,"de la Ballesta, 32",http://www.esmadrid.com/restaurantes/pescaderia
75184,El puchero de mi abuela,40.403273200000,-3.695378700000,(+34) 91 528 52 47,reservas@elpucherodemiabuela.es,"de Palos de la Frontera, 21",http://www.esmadrid.com/restaurantes/puchero-mi-abuela
75180,Los Chanquetes,40.412232800000,-3.698360700000,(+34) 91 429 02 45,loschanquetes@yahoo.es,"de Moratín, 2",http://www.esmadrid.com/restaurantes/chanquetes
75178,O Pazo de Lugo,40.407462600000,-3.696459600000,(+34) 91 539 60 57,info@opazodelugo.es,Argumosa 28,http://www.esmadrid.com/restaurantes/o-pazo-lugo
75164,La Giralda IV,40.433675600000,-3.685311500000,(+34) 91 576 40 69,lagiralda4@hotmail.com,"de Claudio Coello, 24",http://www.esmadrid.com/restaurantes/giralda-iv
75163,La Giralda II,40.430410400000,-3.701756800000,(+34) 91 445 77 79,reservas@restauranteslagiralda.com,"de Hartzenbusch, 12",http://www.esmadrid.com/restaurantes/giralda-ii
75104,Bocadillo de Jam&oacute;n y Champ&aacute;n (Fernando VI),40.424989100000,-3.695547300000,,hola@bdej.es,"de Fernando VI, 21",http://www.esmadrid.com/restaurantes/bocadillo-jamon-champan-fernando-vi
75082,El Perro y La Galleta,40.420512300000,-3.687363000000,(+34) 606 82 24 21,,"de Claudio Coello, 1",http://www.esmadrid.com/restaurantes/perro-galleta
69306,La Chalana (Plaza Espa&ntilde;a),40.424650400000,-3.711378800000,(+34) 91 541 76 83,lachalanaplazaespana@lachalana.com,"San Leonardo, 12",http://www.esmadrid.com/restaurantes/la-chalana-plaza-espana
69305,Askuabarra,40.417071800000,-3.698826700000,(+34) 91 593 75 07,,"de Arlabán, 7",http://www.esmadrid.com/restaurantes/askuabarra
69304,Goch&uuml;,40.443437700000,-3.702612700000,(+34) 91 598 83 22,info@restaurantekuiru.com,"de Santa Engracia, 141",http://www.esmadrid.com/restaurantes/gochu
69303,Izariya,40.436260633817,-3.693203330040,(+34) 91 308 38 12,izariyamadrid@gmail.com,"de Zurbano, 63",http://www.esmadrid.com/restaurantes/izariya
69300,Punto B&aacute;sico,40.429663500000,-3.718798000000,(+34) 91 758 25 96,puntobasico.restaurante@gmail.com,"del Marqués de Urquijo, 23",http://www.esmadrid.com/restaurantes/punto-basico
69299,Gioia,40.422150317114,-3.698390722275,(+34) 91 521 55 47,info@gioiamadrid.es,"de San Bartolomé , 23",http://www.esmadrid.com/restaurantes/gioia
69298,La peseta de Do&ntilde;a Casilda,40.427680600000,-3.693688900000,(+34) 91 308 45 69,,"de Zurbano, 10",http://www.esmadrid.com/restaurantes/la-peseta-de-dona-casilda
69296,Hattori Hanzo,40.420878181010,-3.703873157501,(+34) 91 786 57 80,hola@hattori-hanzo.com.es,"de Mesoneros Romanos , 17",http://www.esmadrid.com/restaurantes/hattori-hanzo
69294,Tatel,40.432469453394,-3.687812089920,(+34) 91 172 18 41,reservations.madrid@tatelrestaurants.com,"de la Castellana , 36 ",http://www.esmadrid.com/restaurantes/tatel
69293,&Aacute;tico,40.419357600000,-3.697188900000,(+34) 91 532 94 96,info@restauranteatico.es,"Marqués de Valdeiglesias, 1",http://www.esmadrid.com/restaurantes/atico
69292,La Tasquer&iacute;a,40.422283300000,-3.673793600000,(+34) 91 451 10 00,info@latasqueria.com,"del Duque de Sesto, 48",http://www.esmadrid.com/restaurantes/tasqueria
69290,Bar Galleta,40.422706500000,-3.703653200000,(+34) 619 83 05 03,info@bargalleta.es,"Baja de San Pablo, 31",http://www.esmadrid.com/restaurantes/bar-galleta
69289,El Columpio,40.430629400000,-3.694249300000,(+34) 663 52 45 75,info@elcolumpiomadrid.com,"deCaracas, 10",http://www.esmadrid.com/restaurantes/el-columpio
69288,Marieta,40.433846600000,-3.687640600000,(+34) 91 575 75 53 ,reservas@marietamadrid.com ,"de la Castellana, 44",http://www.esmadrid.com/restaurantes/marieta
69286,La Ver&oacute;nica,40.412562759942,-3.695257902145,(+34) 91 429 78 27,info@restaurantelaveronica.com,"de Moratín, 38",http://www.esmadrid.com/restaurantes/la-veronica
69283,La Lonja del Mar,40.418610600000,-3.711166000000,(+34) 91 541 33 33,reservas@lalonjadelmar.com,"de Oriente, 6",http://www.esmadrid.com/restaurantes/lonja-mar-0
69281,La Gloria de Montera,40.419473100000,-3.700779700000,(+34) 91 523 44 07,gloria@andilana.com,"del Caballero de Gracia, 10",http://www.esmadrid.com/restaurantes/gloria-montera
69279,Atelier Belge,40.439567900000,-3.697072600000,(+34) 91 545 84 48,info@atelierbelge.es,"de Bretón de los Herreros, 39",http://www.esmadrid.com/restaurantes/atelier-belge
69278,Sal&oacute;n de Tapas Plaza Mayor,40.415073627138,-3.706269711256,(+34) 91 128 80 20,info@salondetapas.com,"de Gerona, 4",http://www.esmadrid.com/restaurantes/salon-de-tapas-plaza-mayor
69277,Taberna Corrientes,40.414766300000,-3.707696000000,(+34) 91 364 09 01,,"de Toledo, 4",http://www.esmadrid.com/restaurantes/taberna-corrientes
69275,Taste Gallery,40.415375700000,-3.709472600000,(+34) 91 758 93 39,info@tastegallery.es,"de San Miguel , 8",http://www.esmadrid.com/restaurantes/taste-gallery
69274,Metro Bistro (Plaza Mayor),40.414534200000,-3.706725700000,(+34) 91 366 33 19,plazamayor@metro-bistro.com,"Imperial, 3",http://www.esmadrid.com/restaurantes/metro-bistro-plaza-mayor
69273,Sal&oacute;n Cascabel,40.427641900000,-3.687230100000,(+34) 91 432 54 90,,"Serrano, 52",http://www.esmadrid.com/restaurantes/salon-cascabel
69272,Picsa,40.444226900000,-3.698757600000,(+34) 91 534 10 09 ,hola@casapicsa.com,"de Ponzano, 76",http://www.esmadrid.com/restaurantes/picsa
69271,Mama Campo,40.432160900000,-3.700554300000,(+34) 91 447 41 38,hola@mamacampo.es,"de Trafalgar, 22",http://www.esmadrid.com/restaurantes/mama-campo
69269,Desencaja,40.456085900000,-3.681123600000,(+34) 91 457 56 68,,"de la Habana, 84",http://www.esmadrid.com/restaurantes/desencaja
69265,Bacira,40.433753900000,-3.699036300000,(+34) 91 866 40 30,info@bacira.es,"del Castillo, 16",http://www.esmadrid.com/restaurantes/bacira
69263,Celso y Manolo,40.420201400000,-3.697476900000, (+34) 91 531 80 79 ,celsoymanolo@yahoo.es,"Libertad, 1",http://www.esmadrid.com/restaurantes/celso-y-manolo
69262,T&aacute;ndem,40.412696500000,-3.695963600000,(+34) 91 016 80 67,info@tandemrestaurante.com,"de Santa María, 39",http://www.esmadrid.com/restaurantes/tandem
69261,Alabaster,40.418186808977,-3.689847886562,(+34) 91 512 11 31,info@restaurantealabaster.com,"de Montalbán, 9",http://www.esmadrid.com/restaurantes/alabaster
69260,Ana La Santa,40.414517139643,-3.701459169388,(+34) 91 701 60 13,reservas.ana@encompaniadelobos.com,"de Santa Ana, 14",http://www.esmadrid.com/restaurantes/ana-la-santa
69259,Montia,40.593341700000,-4.147647500000,(+34) 91 133 69 88 ,,"Calvario, 4 ",http://www.esmadrid.com/restaurantes/montia
69258,La Cabra,40.428715500000,-3.699347600000,(+34) 91 445 77 50,reservas@restaurantelacabra.com,"Francisco de Rojas, 2",http://www.esmadrid.com/restaurantes/la-cabra
69257,Bosco de Lobos,40.424039078350,-3.698602616787,(+34) 91 524 94 64,reservas.bosco@encompaniadelobos.com,"de Hortaleza, 63",http://www.esmadrid.com/restaurantes/bosco-de-lobos
69256,Vietnam Mekong,40.421330400000,-3.709242800000,(+34) 91 548 94 50,vietnammekongrestaurante@gmail.com,"de Isabel La Católica, 11",http://www.esmadrid.com/restaurantes/vietnam-mekong
69255,StreetXO,40.427641900000,-3.687230100000,(+34)  91 531  98 84,,"Serrrano , 52",http://www.esmadrid.com/restaurantes/streetxo
69254,Caf&eacute; Col&oacute;n Madrid,40.425194900000,-3.688768100000,(+34) 91 431 86 15,info@cafecolonmadrid.com,"de Goya, 2",http://www.esmadrid.com/restaurantes/cafe-colon-madrid
69252,DSTAgE Concept,40.424629177744,-3.696373701096,(+34) 91 702 15 86,reservas@dstageconcept.com,"de Regueros, 8",http://www.esmadrid.com/restaurantes/dstage-concept
69251, Yakitoro ,40.419687701198,-3.697232007980,(+34) 91 737 14 41,info@yakitoro.com,"Reina, 41",http://www.esmadrid.com/restaurantes/yakitoro
69249,Platea Madrid,40.425746600000,-3.688944300000,(+34) 91 577 00 25,info@plateamadrid.com,"de Goya, 5 - 7",http://www.esmadrid.com/restaurantes/platea-madrid
69248,La Buga del Lobo,40.408288249983,-3.699125647545, (+34) 91 528 88 38,cm@labocadellobo.com	,"Argumosa , 11",http://www.esmadrid.com/restaurantes/la-buga-del-lobo
69247,Miyama ,40.422197200000,-3.709814200000,(+34) 91 540 13 86,miyamaflorbaja@gmail.com,"de la Flor Baja, 5",http://www.esmadrid.com/restaurantes/miyama
69246,Nakeima Dumpling Bar,40.433139101236,-3.715369105339,(+34) 620 70 93 99,nakeima54@gmail.com,"de Meléndez Valdés, 54",http://www.esmadrid.com/restaurantes/nakeima-dumpling-bar
69245,80&ordm;,40.428711800000,-3.703639100000,(+34) 91 445 83 51,grupo@ochentagrados.com,"de Manuela Malasaña, 10",http://www.esmadrid.com/restaurantes/ochenta-grados
69240,Matute 12,40.413527600000,-3.699924700000,(+34) 91 012 31 28 ,hola@grupolafabrica.es,"de Matute, 12",http://www.esmadrid.com/restaurantes/matute-12
69239,Arz&aacute;bal Retiro,40.420347100000,-3.679313800000,(+34) 91 409 56 61,comunicacion@arzabal.com,"de Menéndez Pelayo, 13",http://www.esmadrid.com/restaurantes/arzabal-retiro
69233,Sala de Despiece,40.437886300000,-3.699494400000,(+34) 91 752 61 06,info@saladedespiece.com,"de Ponzano, 11",http://www.esmadrid.com/restaurantes/sala-de-despiece
69228,Triciclo,40.412832700000,-3.697239100000,(+34) 91 024 47 98,info@eltriciclo.es,"de Santa María, 28",http://www.esmadrid.com/restaurantes/triciclo
69221,Taj,40.417251100000,-3.695678500000,(+34) 91 521 63 27  ,,"del Marqués de Cubas, 6",http://www.esmadrid.com/restaurantes/taj
69219,La Rebonita,40.411601300000,-3.700560200000,(+34) 606 77 62 32,,"del Olmo, 23",http://www.esmadrid.com/restaurantes/rebonita
69218,Mar&iacute;a Bonita Taco Bar (Duque de Liria),40.426118000000,-3.712446300000,(+34) 608 83 39 20,mariabonitatacobar1@gmail.com,"Duque de Liria, 9",http://www.esmadrid.com/restaurantes/maria-bonita-taco-bar-duque-liria
69216,Bodega de Los Secretos,40.410684300000,-3.694688200000,(+34) 91 429 03 96 ,info@bodegadelossecretos.com,"de San Blas, 4",http://www.esmadrid.com/restaurantes/bodega-secretos
69215,Arahy,40.419668300000,-3.689611200000,(+34) 91 531 60 85,reservas@arahyrestaurante.com,"de Alcalá, 58",http://www.esmadrid.com/restaurantes/arahy
69214,Los Chuchis,40.407354887997,-3.701148033142,(+34) 91 127 66 06,,"del Amparo, 82",http://www.esmadrid.com/restaurantes/los-chuchis
69211,Zombie Bar,40.423244600000,-3.704790400000,(+34) 910 11 19 52,info@zombiebar.es,"del Pez, 7",http://www.esmadrid.com/restaurantes/zombie-bar
69206,Aroy Thai,40.447545200000,-3.698688500000,(+34) 91 554 23 88 ,aroythai@hotmail.com,"del Aviador Zorita, 3",http://www.esmadrid.com/restaurantes/aroy-thai
69205,Saporem,40.415651600000,-3.698893000000,(+34) 91 420 44 74,reservassaporem@room007.com,"de Ventura de la Vega, 5",http://www.esmadrid.com/restaurantes/saporem
69201,Juanyta Me Mata,40.434466300000,-3.676745100000,(+34) 912 19 21 65 ,,"de Diego de León, 60",http://www.esmadrid.com/restaurantes/juanyta-me-mata
69198,El Mandil,40.423771200000,-3.701212800000,(+34) 91 531 62 55,reservas@elmandilmadrid.com,"de Colón, 5",http://www.esmadrid.com/restaurantes/el-mandil
68872,La huerta de Tudela,40.414973800000,-3.698539000000,(+34) 91 420 44 18,info@lahuertadetudela.com,"del Prado, 15",http://www.esmadrid.com/restaurantes/huerta-tudela
68969,Fuente de la Fama,40.411623330482,-3.697865009308,(+34) 91 530 12 47 ,reservas@restaurantefuentedelafama.com,"Atocha, 68",http://www.esmadrid.com/restaurantes/fuente-de-la-fama
68927,Tacos Chapultepec,40.430143100000,-3.701755700000,(+34) 91 292 29 00,chapultepec@tacoschapultepec.com,"del Cardenal Cisneros, 13",http://www.esmadrid.com/restaurantes/tacos-chapultepec
69012,Du Liban,40.514419053214,-3.652782440186,(+34) 91 625 00 72,reservas@dulibanrestaurants.com,"Estafeta, 2 (La Moraleja)",http://www.esmadrid.com/restaurantes/du-liban
68968,Taberna Casa Curro,40.412370300000,-3.709149200000,(+34) 91 364 22 59,,"Cava Baja, 23",http://www.esmadrid.com/restaurantes/taberna-casa-curro
69067,Donde M&oacute;nica,40.431764300000,-3.686058200000,(+34) 91 577 76 57,info@dondemonica.es,"de Padilla, 3",http://www.esmadrid.com/restaurantes/donde-monica
69013,M29,40.437610400000,-3.691762200000,(+34) 91 452 05 21,m29.miguelangel@grupobluebay.com,"de Miguel Ángel, 29",http://www.esmadrid.com/restaurantes/m29
68807,Materia Prima ,40.455560286467,-3.688466548920,(+34) 91 344 01 77,reservas@materia-prima.es,"del Doctor Fleming, 7",http://www.esmadrid.com/restaurantes/materia-prima
68808,Terramundi,40.413558900000,-3.696181400000,(+34) 91 429 63 80,reservasterramundi@gmail.com,"de Lope de Vega, 32",http://www.esmadrid.com/restaurantes/terramundi
69011,Chir&oacute;n,40.191619800000,-3.676409600000,(+34) 91 895 69 74,chiron@restaurantechiron.com,"Alarcón, 27 (Valdemoro)",http://www.esmadrid.com/restaurantes/chiron
68747,Mentidero de la Villa Restaurante,40.429118500000,-3.693823200000,(+34) 91 308 12 85,reservas@mentiderodelavilla.es,"de Almagro, 20",http://www.esmadrid.com/restaurantes/mentidero-de-la-villa-restaurante
68967,Costello R&iacute;o,40.393937145152,-3.697800636292,(+34) 91 621 61 97,rio@costellorio.com,"del General Maroto, 4",http://www.esmadrid.com/restaurantes/costello-rio
68871,Thai Orchid,40.420508000000,-3.696878200000,(+34) 91 531 85 37,restaurantethaiorchid@gmail.com,"Colmenares, 5",http://www.esmadrid.com/restaurantes/thai-orchid
69066,Restaurante Maru,40.419752600000,-3.697785400000,(+34) 91 523 95 31 ,reservas@restaurantemaru.es,"de la Reina, 37",http://www.esmadrid.com/restaurantes/restaurante-maru
69150,Mu&ntilde;agorri,40.431181400000,-3.677346300000,(+34) 91 401 47 41,reservas@restaurantemunagorri.es,"de Padilla, 56",http://www.esmadrid.com/restaurantes/munagorri
68966,Taberna del Chato,40.414820000000,-3.702661300000,(+34) 91 523 16 29,info@tabernadelchato.com,"de la Cruz, 35",http://www.esmadrid.com/restaurantes/taberna-del-chato
69149,Asgaya,40.462411700000,-3.687574700000,(+34) 91 353 05 87 ,reservas@restauranteasgaya.com,"del Doctor Fleming, 52",http://www.esmadrid.com/restaurantes/asgaya
69063,El Patio de la Central (La Central de Callao),40.419299500000,-3.705970600000,(+34) 647 24 09 14,eventosen@elpatiodelacentral.com,"del Postigo de San Martín, 8",http://www.esmadrid.com/restaurantes/patio-central-central-callao
68884,Casa Mono,40.429210700000,-3.716554700000,(+34) 91 452 95 52,info@casamonomadrid.com,"Tutor, 37",http://www.esmadrid.com/restaurantes/casa-mono
68870,La Revoltosa,40.420021000000,-3.695743400000,(+34) 91 531 90 96,,"del Rey, 4",http://www.esmadrid.com/restaurantes/la-revoltosa
68746,T&aacute;mara Restaurante Lorenzo,40.417638100000,-3.673358900000,(+34) 91 415 51 76  ,tamararestaurantelorenzo@hotmail.com,"de Máiquez, 48",http://www.esmadrid.com/restaurantes/tamara-restaurante-lorenzo
68549,El Tendido,40.432355122608,-3.714424967766,(+34) 91 544 88 88 ,reservas@eltendido.com,"de Andrés Mellado, 20",http://www.esmadrid.com/restaurantes/el-tendido
69009,Camino Food &amp; Drinks,40.450465961490,-3.688021302223,(+34) 91 411 24 01 ,info@caminomadrid.com,"Gutiérrez Solana, 6",http://www.esmadrid.com/restaurantes/camino-food-drinks
68932,El Bund,40.456711354481,-3.658468723297,(+34) 91 115 18 13,reservas@elbund.com,"de Arturo Baldasano, 22",http://www.esmadrid.com/restaurantes/el-bund
68970,Chifa,40.443955644003,-3.695716559887,(+34) 91 534 75 66,,"de Modesto Lafuente, 64",http://www.esmadrid.com/restaurantes/chifa
68744,La Ca&ntilde;a,40.431093200000,-3.701822200000,(+34) 91 125 00 20,lacana@andilana.com,"de Alburquerque, 8",http://www.esmadrid.com/restaurantes/la-cana
69147,Gobu Burger,40.424123000000,-3.678550600000,(+34) 91 575 76 41,goburestaurante@gmail.com,"del General Pardiñas, 8",http://www.esmadrid.com/restaurantes/gobu-burger
68816,Murillo Caf&eacute;,40.413059400000,-3.691327100000,(+34) 91 369 36 89,oficina@murillocafe.com,"Ruiz de Alarcón, 27",http://www.esmadrid.com/restaurantes/murillo-cafe
69138,Punto MX,40.427614000000,-3.678343000000,(+34) 91 402 22 26,puntomx@puntomx.es,"del General Pardiñas, 40",http://www.esmadrid.com/restaurantes/punto-mx
69139,Tommy Mel's ,40.417130038244,-3.701728731394,(+34) 91 532 59 70,,"de Alcalá, 4",http://www.esmadrid.com/restaurantes/tommy-mels
69196,La Castafiore,40.423030900000,-3.693459300000,(+34) 91 319 42 21,lacastafiore@lacastafiore.es,"Marqués de Monasterio, 5",http://www.esmadrid.com/restaurantes/la-castafiore
68498,La Rue,40.423861434958,-3.701472580433,(+34) 91 189 70 87,creperielarue@gmail.com,"de Colón, 14",http://www.esmadrid.com/restaurantes/la-rue
68458,Restaurante Vegetariano,40.416362000000,-3.710527500000,(+34) 91 758 35 88,,"de Santiago, 9",http://www.esmadrid.com/restaurantes/restaurante-vegetariano
68450,Hare Krishna,40.425444900000,-3.704338600000,(+34) 91 521 30 96 ,harekrisnamadrid@gmail.com,"del Espíritu Santo, 19",http://www.esmadrid.com/restaurantes/hare-krishna
68742,El Econ&oacute;mico. Soidemersol.,40.408352584085,-3.699545413256,(+34) 91 539 41 95 ,infoeconomico@yahoo.es,"Argumosa, 9",http://www.esmadrid.com/restaurantes/el-economico-soidemersol
68741,La Chula de Chamber&iacute;,40.428245600000,-3.693140500000,(+34) 91 308 55 49,lachuladechamberi@gmail.com,"de Fernando El Santo, 11",http://www.esmadrid.com/restaurantes/la-chula-de-chamberi
68806,Taberna Dehesa Santa Mar&iacute;a,40.415115491149,-3.713445961475,(+34) 91 752 47 40,,"Mayor, 88",http://www.esmadrid.com/restaurantes/taberna-santa-maria
69097,Sagardi (Euskal Etxea),40.417292383813,-3.696470260620,(+34) 91 531 25 64,info@gruposagardi.com,"de Jovellanos, 3",http://www.esmadrid.com/restaurantes/sagardi-euskal-etxea
68803,Le Petit Prince,40.424347400000,-3.674138800000,(+34) 91 431 44 14,principito.restaurante@gmail.com,"Fernán González, 7",http://www.esmadrid.com/restaurantes/le-petit-prince
69062,Gourmet Bar,40.462530000000,-3.614435000000,(+34) 91 721 18 18,h1636-fb@accor.com,"Amsterdam, 3",http://www.esmadrid.com/restaurantes/gourmet-bar
69061,Trattoria Pinocchio (S&aacute;nchez Bustillo),40.409023493198,-3.693621754646,(+34) 91 468 73 73 ,atencioncliente@pinocchio.es,"Sánchez Bustillo, 5",http://www.esmadrid.com/restaurantes/trattoria-pinocchio-sanchez-bustillo
68804,El rey de tallarines,40.424618968456,-3.709548711777,(+34) 91 542 68 97,,"de San Bernardino, 2",http://www.esmadrid.com/restaurantes/el-rey-de-tallarines
68805,La Plaza,40.452427000000,-3.585118000000,(+34) 91 153 40 00,info.madridairport@hilton.com,"de la Hispanidad, 2-4",http://www.esmadrid.com/restaurantes/la-plaza
69191,Naif,40.424375986943,-3.701893687248,(+34) 91 007 20 71,,"de San Joaquín , 16",http://www.esmadrid.com/restaurantes/naif
69055,Lakasa,40.440931433480,-3.700740337372,(+34) 91 533 87 15 ,lakasa@lakasa.es,"del Descubridor Diego de Ordás, 1",http://www.esmadrid.com/restaurantes/lakasa
69058,Couzap&iacute;n,40.419464100000,-3.675179900000,(+34) 91 400 93 55 ,info@restaurantecouzapin.com,"Menorca, 33",http://www.esmadrid.com/restaurantes/couzapin
69056,Pulper&iacute;a Vilal&uacute;a ,40.427178800000,-3.673489500000,(+34) 91 277 28 06 ,pulperia@vilalua.net,"de Ayala, 87",http://www.esmadrid.com/restaurantes/pulperia-vilalua
69034,Ca&ntilde;ad&iacute;o,40.433249100000,-3.674787200000,(+34) 91 281 91 92,,"del Conde de Peñalver, 86",http://www.esmadrid.com/restaurantes/canadio
69027,Sagar,40.435819400000,-3.672410600000,(+34) 91 713 11 55,sagar@restaurantesagar.com,"Alonso Heredia, 22",http://www.esmadrid.com/restaurantes/sagar
69005,Han Gang,40.410699100000,-3.696058100000,(+34) 91 528 12 01,,"Atocha, 94",http://www.esmadrid.com/restaurantes/han-gang
69104,Dimibang,40.431763049357,-3.715980648994,(+34) 91 544 62 13,contacto@dimibang.es,"de Rodríguez San Pedro, 67",http://www.esmadrid.com/restaurantes/dimibang
69102,Korea,40.442952200000,-3.695698800000,(+34) 91 554 20 34,,"Cristóbal Bordiú, 59",http://www.esmadrid.com/restaurantes/korea
69106,Seoul,40.411041286085,-3.717960119247,(+34) 91 365 00 87,restauranteseoul@gmail.com,"de Segovia, 25",http://www.esmadrid.com/restaurantes/seoul
68601,Dionisos ,40.422801500000,-3.699799600000,(+34) 91 522 51 83,reservas@diosiosrestaurants.com,"de Augusto Figueroa, 8",http://www.esmadrid.com/restaurantes/dionisos
68394,Garc&iacute;a de la Navarra,40.418299121798,-3.691191673279,(+34) 91 523 36 47 ,info@garciadelanavarra.com,"de Montalbán, 3",http://www.esmadrid.com/restaurantes/garcia-de-la-navarra
68470,M&eacute;rim&eacute;e,40.424356200000,-3.700777300000,(+34) 91 116 67 02,info@merimeegastrobar.com,"de Fuencarral, 61",http://www.esmadrid.com/restaurantes/merimee
68597,Surtop&iacute;a,40.435359500000,-3.681850300000,(+34) 91 563 03 64,info@surtopia.es,"de Núñez de Balboa, 106",http://www.esmadrid.com/restaurantes/surtopia
69074,La Botiller&iacute;a,40.418024600000,-3.711389500000,(+34) 91 548 46 20,reservas@grupolezama.es,"de Oriente, 4",http://www.esmadrid.com/restaurantes/la-botilleria-del-cafe-de-oriente
68722,Cafeter&iacute;a-restaurante Colecci&oacute;n Cibeles,40.419527403421,-3.693240880966,(+34) 91 523 15 70,palaciodecibeles1@adolfo-toledo.com,"de Cibeles, 1, 2º planta",http://www.esmadrid.com/restaurantes/cafeteria-restaurante-coleccion-cibeles
68481,Restaurante Palacio de Cibeles,40.418934196227,-3.692151904106,(+34) 91 523 14 54,recepcioncibeles@adolfo-toledo.com,"de Cibeles, 1",http://www.esmadrid.com/restaurantes/restaurante-palacio-de-cibeles
68740,La Sure&ntilde;a,40.422931100000,-3.710436600000,,,"de Postas, 12",http://www.esmadrid.com/restaurantes/la-surena
69072,La Casa del Pulpo,40.387160700000,-3.700416700000,(+34) 91 476 00 48,barlosgallegos@gmail.com,"Almendrales, 17",http://www.esmadrid.com/restaurantes/la-casa-del-pulpo
68749,Minotauro ,40.462540700000,-3.637903900000,(+34) 91 388 94 45,info@restauranteminotauro.es,"de Silvano, 92",http://www.esmadrid.com/restaurantes/minotauro
68690,La Pulperia de Mila,40.422085400000,-3.685863000000,(+34) 91 576 00 85,lapulperiademila@grupo-oter.com,"de Lagasca, 11",http://www.esmadrid.com/restaurantes/la-pulperia-de-mila
68974,Los Remos,40.468014700000,-3.812944300000,(+34) 91 307 72 30,info@losremos.es,"Sopelana, 13 ",http://www.esmadrid.com/restaurantes/remos
68979,El Buey ,40.420644400000,-3.711294000000,(+34) 91 541 30 41,info@restauranteelbuey.com,"de la Marina Española, 1",http://www.esmadrid.com/restaurantes/el-buey-pza-marina-espanola
69002,Trattoria SantArcangelo,40.413291829854,-3.690215349197,(+34) 91 369 10 93,info@trattoriasantarcangelo.es,"Moreto, 15",http://www.esmadrid.com/restaurantes/trattoria-santarcangelo
69054,Bar Amor,40.428865898533,-3.704720735550,(+34) 91 594 48 29,info@baramor.es,"de Manuela Malasaña, 22",http://www.esmadrid.com/restaurantes/bar-amor
69165,El Puerto de Cabreira,40.426791100000,-3.703218500000,(+34) 91 445 18 95,elpuertodecabreira@cabreira.es,"Velarde, 13",http://www.esmadrid.com/restaurantes/el-puerto-de-cabreira
68535,100 Montaditos,40.422579100000,-3.709857200000,(+34) 91 548 36 43,,"Gran Vía , 63",http://www.esmadrid.com/restaurantes/100-montaditos
68408,Yu&egrave; L&aacute;i (Joya Oriental),40.425989041065,-3.674513697624,(+34) 91 575 71 54,,"de Hermosilla, 101",http://www.esmadrid.com/restaurantes/yue-lai-joya-oriental
69053,Gumbo,40.423648000000,-3.705303400000,(+34) 91 532 63 61,gumborest@yahoo.es,"del Pez, 15",http://www.esmadrid.com/restaurantes/gumbo
69020,Luzi Bomb&oacute;n,40.433870400000,-3.689240300000,(+34) 91 702 27 36,reservas.luzi@grupotragaluz.com,"de la Castellana, 35",http://www.esmadrid.com/restaurantes/luzi-bombon
69052,Soma ,40.424923204575,-3.678145408630,(+34) 91 436 45 48 ,,"de Goya, 79",http://www.esmadrid.com/restaurantes/soma
69096,Bol&iacute;var,40.428902400000,-3.705375500000,(+34) 91 445 12 74,alosadalopez@gmail.com,"de Manuela Malasaña, 28",http://www.esmadrid.com/restaurantes/bolivar
68926,Rustika Tapas &amp; Gin,40.426235800000,-3.710646100000,(+34) 91 542 15 67,rustikacafe2006@gmail.com,"del Limón, 11",http://www.esmadrid.com/restaurantes/rustika-tapas-gin
68867,Vi Cool,40.413971400000,-3.700611500000,(+34) 91 429 49 13  ,info@vi-cool.com,"de las Huertas, 12",http://www.esmadrid.com/restaurantes/vi-cool
68685,Magasand ,40.421104839445,-3.687983751297,(+34) 91 576 88 43,retiro@magasand.com,"Columela, 4",http://www.esmadrid.com/restaurantes/magasand
68793,Al Fanus,40.444354100000,-3.677262400000,(+34) 91 562 77 18,sp.6666@hotmail.com,"Pechuán, 6",http://www.esmadrid.com/restaurantes/al-fanus
69145,Mr. Kabab,40.447530834494,-3.701207041740,(+34) 91 553 85 58,,"de los Artistas, 31",http://www.esmadrid.com/restaurantes/mr-kabab
69094,Esfahan,40.424784358732,-3.709765970707,(+34) 91 559 68 12,,"de San Bernardino, 1",http://www.esmadrid.com/restaurantes/esfahan
68861,La Escudilla,40.436295339382,-3.700641095638,(+34) 91 445 73 80,,"de la Santísima Trinidad, 16",http://www.esmadrid.com/restaurantes/la-escudilla
68860,Nuria,40.428689800000,-3.703179700000,(+34) 91 591 63 27 ,info@nuriarestauranteetiope.es,"de Manuela Malasaña, 6",http://www.esmadrid.com/restaurantes/nuria
68738,Yerbabuena,40.416431600000,-3.707793800000,(+34) 91 599 48 05,yerbabuena@yerbabuena.ws,"de Bordadores, 3",http://www.esmadrid.com/restaurantes/yerbabuena
69193,St. James ,40.432525000000,-3.681571000000,(+34) 91 575 60 10,juanbravo@restaurantestjames.com,"de Juan Bravo, 26",http://www.esmadrid.com/restaurantes/st-james
69050,La Anto&ntilde;ita,40.413101904840,-3.708580434322,(+34) 91 119 14 24,info@posadadeldragon.com,"de la Cava Baja, 16",http://www.esmadrid.com/restaurantes/la-antonita
68962,New York Burger ,40.422131000000,-3.690846300000,(+34) 91 431 84 17,info@newyorkburger.es,"de Recoletos, 4",http://www.esmadrid.com/restaurantes/new-york-burger
68925,Aynaelda,40.395979903019,-3.754127025604,(+34) 91 710 10 51,info@aynaelda.com,"los Yébenes, 38",http://www.esmadrid.com/restaurantes/aynaelda
68939,El Boquer&oacute;n,40.407481700000,-3.700426400000,(+34) 91 527 63 80,,"de Valencia, 14",http://www.esmadrid.com/restaurantes/el-boqueron
69093,El Jard&iacute;n del Intercontinental,40.436333000000,-3.690009000000,(+34) 91 700 73 70,icmadrid@ihg.com,"de la Castellana, 49",http://www.esmadrid.com/restaurantes/el-jardin
69049,Cheese Bar de Poncelet,40.438238822414,-3.692286014557,(+34) 91 399 25 50 ,info@ponceletcheesebar.es,"de José Abascal, 61",http://www.esmadrid.com/restaurantes/cheese-bar-de-poncelet
69142,El Estrag&oacute;n Vegetariano,40.413042680801,-3.711740076542,(+34) 91 365 89 82,info@elestragonvegetariano.com,"de la Paja, 10",http://www.esmadrid.com/restaurantes/el-estragon-vegetariano
68684,Crucina,40.427975400000,-3.705490600000,(+34) 91 445 33 64,,"del Divino Pastor, 30",http://www.esmadrid.com/restaurantes/crucina
69048,La Esquina de Chamber&iacute;,40.434669900000,-3.702050000000,(+34) 91 445 55 53,info@laesquinadechamberi.com ,"General Álvarez de Castro, 7",http://www.esmadrid.com/restaurantes/esquina-chamberi
68682,Asador Gerardo,40.428567700000,-3.672960700000,(+34) 91 401 89 46,restaurantegerardo@grupo-oter.com,"Don Ramón de la Cruz, 86",http://www.esmadrid.com/restaurantes/asador-gerardo
68921,Zen Market,40.452002500000,-3.688768600000,(+34) 91 457 18 73,reservas@zenmarket.es,"de Concha Espina, 1",http://www.esmadrid.com/restaurantes/zen-market
68999,TxaTei,40.428982276977,-3.679153919220,(+34) 91 112 31 83,txatei@gmail.com,"Don Ramón de la Cruz, 49",http://www.esmadrid.com/restaurantes/txatei
68997,Kulixka,40.433120726842,-3.698135912418,(+34) 91 445 01 45 ,kulixka@lacasadelasangulas.com,"de Santa Engracia, 49",http://www.esmadrid.com/restaurantes/kulixka
68453,Fuku,40.431162200000,-3.687486000000,(+34) 91 781 63 16,wfukuw@gmail.com,"Marqués de Villamejor, 8",http://www.esmadrid.com/restaurantes/fuku
68920,11 Nudos Terraza Nord&eacute;s,40.422047300000,-3.697553800000,(+34) 91 330 02 94,info@11nudosterrazanordes.com,"de Augusto Figueroa, 24, 3ª planta",http://www.esmadrid.com/restaurantes/la-cocina-de-san-anton
68887,Ten con Ten,40.427777648255,-3.688750863075,(+34) 91 575 92 54,restaurantetenconten@gmail.com,"de Ayala, 6",http://www.esmadrid.com/restaurantes/ten-con-ten
69044,La Jaur&iacute;a,40.423856400000,-3.701231700000,(+34) 91 130 48 36,lajauria@lajauria.es,"de Colón, 10",http://www.esmadrid.com/restaurantes/la-jauria
68452,El Q&uuml;enco de Pepa,40.460068700000,-3.684642300000,(+34) 91 345 10 84 ,quenco@quenco.com,"Henri Dunant, 23",http://www.esmadrid.com/restaurantes/el-quenco-de-pepa
68985,Pittu,40.424077873971,-3.686634600163,(+34) 91 431 88 85,cerveceriapittu@gmail.com,"de Claudio Coello, 30",http://www.esmadrid.com/restaurantes/pittu
69040,Orio,40.423739300000,-3.700676100000,(+34) 91 521 83 18,,"de Fuencarral, 49",http://www.esmadrid.com/restaurantes/orio
69043,El Almirez,40.434078230268,-3.685022592545,(+34) 600 89 63 65,almirezrestaurante@gmail.com,"de Maldonado, 5",http://www.esmadrid.com/restaurantes/el-almirez
69042,Enotaberna del Le&oacute;n de Oro,40.413220300000,-3.708648500000,(+34) 91 119 14 94,info@posadadelleondeoro.com,"de la Cava Baja, 12",http://www.esmadrid.com/restaurantes/enotaberna-del-leon-de-oro
68638,Majaderitos Caf&eacute;,40.415901100000,-3.702523600000,(+34) 91 531 08 63,,"de Cádiz, 9",http://www.esmadrid.com/restaurantes/el-majaderitos
68449,Nuevo Gerardo,40.458175300000,-3.679360200000,(+34) 91 457 94 59 ,gerardoalcocer@grupo-oter.com,"Alberto Alcocer, 46 bis",http://www.esmadrid.com/restaurantes/nuevo-gerardo
69039,La Tita Rivera,40.422375300000,-3.700495400000,(+34) 91 522 18 90,perezgaldos@latitarivera.com,"Pérez Galdós, 4",http://www.esmadrid.com/restaurantes/la-tita-rivera
68918,Pintxos Elcano ,40.421643915897,-3.685902357101,(+34) 91 127 25 24,elcanorestaurante@gmail.com,"de Lagasca, 7",http://www.esmadrid.com/restaurantes/pintxos-el-cano-lagasca
69189,Taberna Moncloa,40.435249100000,-3.714414900000,(+34) 91 549 11 43,,"Andrés Mellado, 45",http://www.esmadrid.com/restaurantes/taberna-moncloa
68957,Gobolem (Juli&aacute;n Romea),40.442628800000,-3.714134400000,(+34) 91 553 98 51,julianromea@gobolem.es,"Julián Romea, 5",http://www.esmadrid.com/restaurantes/gobolem-julian-romea
68958,Gran Sol,40.441952000000,-3.702857600000,(+34) 91 441 44 34,,"Ríos Rosas, 10",http://www.esmadrid.com/restaurantes/gran-sol
68856,Jos&eacute; Luis (San Francisco),40.440628800000,-3.715509600000,(+34) 91 441 20 43,joseluis@joseluis.es,"San Francisco de Sales, 14",http://www.esmadrid.com/restaurantes/jose-luis-san-francisco
68855,Jos&eacute; Luis (General Or&aacute;a),40.436097400000,-3.687689400000,(+34) 91 561 64 13,joseluis@joseluis.es,"General Oráa, 5",http://www.esmadrid.com/restaurantes/jose-luis-general-oraa
69037,Gobolem (San Francisco),40.440378700000,-3.716439400000,(+34) 91 544 12 31,sfsales@gobolem.es,"San Francisco de Sales, 11",http://www.esmadrid.com/restaurantes/gobolem-san-francisco
68959,La Taper&iacute;a del Prado,40.412584200000,-3.693652100000,(+34) 91 429 40 94,taperiaprado@gmail.com,"Platería de Martínez, 1",http://www.esmadrid.com/restaurantes/la-taperia-del-prado
69038,La Montader&iacute;a,40.424871700000,-3.685408600000,(+34) 91 575 57 41,montaderia@restauranterincondegoya.es,"Lagasca, 42",http://www.esmadrid.com/restaurantes/la-montaderia
69187,El Rinc&oacute;n de Ja&eacute;n (Doctor G&oacute;mez Ulla),40.430063800000,-3.667702000000,(+34) 91 355 40 11,,"Doctor Gómez Ulla, 6",http://www.esmadrid.com/restaurantes/rincon-jaen-doctor-gomez-ulla
68446,El Rinc&oacute;n de Ja&eacute;n (Ram&oacute;n de la Cruz),40.428633400000,-3.672492500000,(+34) 91 401 35 70,,"Ramón de la Cruz, 101",http://www.esmadrid.com/restaurantes/rincon-jaen-ramon-cruz
69188,La Taberna del Capit&aacute;n Alatriste,40.412903700000,-3.708278600000,(+34) 91 366 18 83,reservas@tabernadelcapitanalatriste.com,"Grafal, 7",http://www.esmadrid.com/restaurantes/la-taberna-del-capitan-alatriste
69186,El Rinc&oacute;n de Ja&eacute;n (Camilo Jos&eacute; Cela),40.436445500000,-3.667505300000,(+34) 91 355 69 27,,"Camilo José Cela, 11",http://www.esmadrid.com/restaurantes/rincon-jaen-camilo-jose-cela
68734,Casa Victor  ,40.412440000000,-3.709200500000,(+34) 91 366 13 36,rodrilobo3@hotmail.com,"Cava Baja, 26",http://www.esmadrid.com/restaurantes/casa-victor
68735,Cazorla (Castell&oacute;),40.433977000000,-3.680853400000,(+34) 91 562 71 94 ,castello@cazorlarestaurantes.es,"Castelló, 99",http://www.esmadrid.com/restaurantes/cazorla-castello
68736,Cazorla (Montesa),40.430087400000,-3.672072400000,(+34) 91 402 66 24 ,montesa@cazorlarestaurantes.es,"Montesa, 30",http://www.esmadrid.com/restaurantes/cazorla-montesa
68737,Cazorla (Cipriano Sancho),40.431930400000,-3.654917700000,(+34) 91 405 26 15 ,ciprianosancho@cazorlarestaurantes.es,"Cipriano Sancho, 5",http://www.esmadrid.com/restaurantes/cazorla-cipriano-sancho
68733,Casa Jorge (Cartagena),40.439438800000,-3.673449900000,(+34) 91 416 92 44  ,info@casajorge.com,"Cartagena, 104",http://www.esmadrid.com/restaurantes/casa-jorge-cartagena
68915,El Decano,40.440473300000,-3.699276800000,(+34) 91 395 00 43,cano@restauranteeldecano.com,"Ponzano, 45",http://www.esmadrid.com/restaurantes/el-decano
69089,El Jam&oacute;n del Abuelo,40.456823000000,-3.679918800000,(+34) 91 344 00 60,eljamondelabuelo@gmail.com,"Víctor Andrés Belaunde, 36",http://www.esmadrid.com/restaurantes/el-jamon-del-abuelo
69090,Fortuny,40.434635000000,-3.690180000000,(+34) 91 319 05 88,restaurante@fortunyrestaurantclub.com,"Fortuny, 34",http://www.esmadrid.com/restaurantes/fortuny
68789,El Buti Taberna,40.416520473085,-3.710900545120,(+34) 91 548 07 07,,"de Santiago, 1",http://www.esmadrid.com/restaurantes/buti-taberna
68956,El Circo de las Tapas,40.422340200000,-3.704111200000,(+34) 91 188 60 14,circodelastapas@gmail.com,"Corredera Baja de San Pablo, 21",http://www.esmadrid.com/restaurantes/circo-tapas
68445,Casa Fidel,40.423751400000,-3.702827700000,(+34) 91 531 77 36,casafidelmadrid@gmail.com,"Escorial, 6",http://www.esmadrid.com/restaurantes/casa-fidel
68731,The Cask,40.412590500000,-3.694098500000,+34 91 524 26 26,info.madrid@radissonblu.com,"Moratín, 52",http://www.esmadrid.com/restaurantes/the-cask
68729,Mashita,40.420540400000,-3.709554800000,(+34) 91 542 60 47,,"La bola, 12",http://www.esmadrid.com/restaurantes/mashita
68635,Oishii Sushi &amp; Ramen,40.420936700000,-3.705589400000,(+34) 91 522 75 74,,"Miguel Moya, 6",http://www.esmadrid.com/restaurantes/oishii-sushi-ramen
68637,Yamate,40.441253300000,-3.677507000000,(+34) 91 563 09 78 ,,"Padre Jesús Ordóñez, 12",http://www.esmadrid.com/restaurantes/yamate
68443,Ikura,40.458307900000,-3.673476000000,(+34) 91 359 98 63,ikurasushibar@hotmail.com,"Costa Rica, 22",http://www.esmadrid.com/restaurantes/ikura
68634,Hanakura,40.433275400000,-3.700560500000,(+34) 91 445 46 91,info@hanatokura.com,"Murillo, 4",http://www.esmadrid.com/restaurantes/hanakura
68955,Naomi,40.452619100000,-3.700492000000,(+34) 91 572 23 04,,"Ávila, 14",http://www.esmadrid.com/restaurantes/naomi
68815,Lamucca de Pez (Carlos Cambronero),40.423344800000,-3.703938100000,(+34) 91 521 00 00,lamuccadepez@gmail.com,"Carlos Cambronero, 4",http://www.esmadrid.com/restaurantes/lamucca-pez-carlos-cambronero
69182,Maldonado 14,40.433914400000,-3.684082700000,(+34) 91 435 50 45  ,info@maldonado14.com,"Maldonado , 14",http://www.esmadrid.com/restaurantes/maldonado-14
68952,Asturianos,40.439095700000,-3.708061300000,(+34) 91 533 59 47 ,,"Vallehermoso, 94",http://www.esmadrid.com/restaurantes/asturianos
68788,La Pesquera,40.414395400000,-3.732584300000,(+34) 91 464 16 12,info@lapesquera.com,"Principal de Provincias, 8",http://www.esmadrid.com/restaurantes/pesquera
68681,Verdil,40.486687000000,-3.704270000000,(+34) 91 727 79 11 ,restaurante@eurostarssuitesmirasierra.com,"Alfredo Marquerie, 43",http://www.esmadrid.com/restaurantes/verdil
68994,Gala (Espronceda),40.440644200000,-3.698072300000,(+34) 91 442 22 44,,"Espronceda, 14",http://www.esmadrid.com/restaurantes/gala-espronceda
68679,Colonial Norte,40.421068700000,-3.720369500000,(+34) 91 540 18 48 ,reservas@colonialnorte.net,"de la Florida, s/n",http://www.esmadrid.com/restaurantes/colonial-norte
68678,Lamucca (Prado),40.414801900000,-3.698681300000,(+34) 91 521 00 00,lamuccadeprado@gmail.com,"Prado, 16",http://www.esmadrid.com/restaurantes/lamucca-prado
68680,Ferreiro (Paseo de la Florida),40.421872800000,-3.721876500000,(+34) 91 559 84 35 ,pflorida@ferreirorestaurante.com,"de la Florida, 15",http://www.esmadrid.com/restaurantes/ferreiro-paseo-de-la-florida
69180,Furusato,40.450912800000,-3.696893900000,(+34) 91 536 35 50,restaurantefurusato@hotmail.com ,"Reina Mercedes, 22",http://www.esmadrid.com/restaurantes/furusato
68754,Cafeter&iacute;a HD,40.435983300000,-3.713228500000,(+34) 91 544 23 82,cafeteriahd@grupolamusa.com,"Guzmán El Bueno, 67",http://www.esmadrid.com/restaurantes/cafeteria-hd
69179,Buenas y Santas (Bol&iacute;var),40.392183643439,-3.691384792328,(+34) 91 506 06 47,info@buenasysantas.es ,"Bolivar, 9",http://www.esmadrid.com/restaurantes/buenas-y-santas-bolivar
69178,Treze,40.426748000000,-3.678368200000,(+34) 91 541 07 17,trezerestaurante@yahoo.es,"General Pardiñas, 34",http://www.esmadrid.com/restaurantes/treze
68441,La Barra de Garcilaso,40.431334000000,-3.699569200000,+34 636 85 75 64,rafarmarin@gmail.com,"Garcilaso, 1",http://www.esmadrid.com/restaurantes/la-barra
68786,Goizeko Kabi,40.450509600000,-3.698500200000,(+34) 91 533 01 85 ,goizeko@goizeko-gaztelupe.com,"Aviador Zorita, 37",http://www.esmadrid.com/restaurantes/goizeko-kabi
69177,Los Rotos,40.412934000000,-3.695093900000,(+34) 91 429 33 52,losrotosmadrid@yahoo.es,"Huertas, 74",http://www.esmadrid.com/restaurantes/los-rotos
68851,Samm,40.464002900000,-3.669896100000,(+34) 91 345 30 74 ,,"Carlos Caamaño, 3b",http://www.esmadrid.com/restaurantes/samm
69175,Los Arroces de Segis,40.463822200000,-3.693227600000,(+34) 91 571 56 22,,"Infanta Mercedes, 109",http://www.esmadrid.com/restaurantes/los-arroces-de-segis
69137,Bahiana,40.413921300000,-3.710980800000,(+34) 91 541 65 63, sugerencias@bahianaclub.es,"Conde, 4",http://www.esmadrid.com/restaurantes/bahiana
68912,Restaurante Jota,40.429971200000,-3.703666900000,(+34) 91 448 00 57,info@restaurantejota.com,"Sandoval, 6",http://www.esmadrid.com/restaurantes/restaurante-jota
68913,Jota Batela,40.421726600000,-3.705822600000,(+34) 91 521 32 08,info@jotabatela.com,"Silva, 23",http://www.esmadrid.com/restaurantes/jota-batela
68727,El Cocinillas,40.424772200000,-3.701101100000,(+34) 91 523 29 60,el_cocinillas@yahoo.es,"San Joaquín, 3",http://www.esmadrid.com/restaurantes/el-cocinillas
68911,Taberna La Daniela ,40.414467300000,-3.707942900000,(+34) 91 366 20 18,,"de Cuchilleros, 9",http://www.esmadrid.com/restaurantes/taberna-la-daniela-cuchilleros
68784,Casa Toribio,40.431240900000,-3.665481600000,(+34) 91 355 90 20,,"Cardenal Belluga, 14",http://www.esmadrid.com/restaurantes/casa-toribio
68440,Las Reses,40.427548700000,-3.693189000000,(+34) 91 308 03 82 ,restaurante@lasreses.com,"Orfila, 3",http://www.esmadrid.com/restaurantes/las-reses
68909,Toma Jam&oacute;n (Vergara),40.417321500000,-3.711562500000,(+34) 91 365 09 57,tomajamon@grupovinotium.com,"Vergara, 14",http://www.esmadrid.com/restaurantes/toma-jamon-vergara
68848,Salterius,40.451675400000,-3.866411700000,(+34) 917 55 47 34,reservas@restaurantesalterius.com ,"Goya, 1",http://www.esmadrid.com/restaurantes/salterius
68847,Mes&oacute;n Gallego II,40.463840800000,-3.697104600000,(+34) 91 579 00 61,mesongallego@mesongallego.com,"de la Remonta, 9",http://www.esmadrid.com/restaurantes/meson-gallego-ii
68993,Mes&oacute;n Gallego I,40.464625900000,-3.698814500000,(+34) 91 579 36 23,mesongallego@mesongallego.com,"Müller, 35",http://www.esmadrid.com/restaurantes/meson-gallego-i
68907,Taberna La Lirio,40.425456700000,-3.703998300000,(+34) 91 521 39 58,reservastabernalalirio64@gmail.com,"Espíritu Santo, 30",http://www.esmadrid.com/restaurantes/taberna-la-lirio
68951,Grazie Mille Kitchen Bar ,40.416185900000,-3.707422800000,(+34) 91 364 57 85,graziemillemadrid@gmail.com,"Mayor, 31",http://www.esmadrid.com/restaurantes/grazie-mille-kitchen-bar
69134,Azotea del C&iacute;rculo,40.418335500000,-3.696396200000,(+34) 91 530 17 61,info@azoteadelcirculo.com,"del Marqués de Casa Riera, 2",http://www.esmadrid.com/restaurantes/azotea-circulo
69174,Pontepez,40.423823900000,-3.705358400000,(+34) 673 58 86 86  ,direccion@pontepez.com ,"Pez, 18",http://www.esmadrid.com/restaurantes/pontepez
68991,M&aacute;s Jam&oacute;n,40.457127100000,-3.690649300000,(+34) 91 555 62 31,masjamon@masjamon.net,"de la Castellana, 117",http://www.esmadrid.com/restaurantes/mas-jamon
69032,Casa Pedro,40.497657000000,-3.686922900000,(+34) 91 734 02 01 ,restaurante@casapedro.com,"de Nuestra Señora de Valverde, 119",http://www.esmadrid.com/restaurantes/casa-pedro
69031,Entre Suspiro y Suspiro,40.418684600000,-3.709035000000,(+34) 91 542 06 44,info@entresuspiroysuspiro.com,"Caños del Peral, 3",http://www.esmadrid.com/restaurantes/entre-suspiro-y-suspiro
68950,Ogrelo,40.419567400000,-3.674287900000,(+34) 91 409 72 04 ,info@restauranteogrelo.com,"de Menorca, 39",http://www.esmadrid.com/restaurantes/o-grelo
68905,Taberna Agrado,40.421154800000,-3.703652200000,(+34) 91 521 63 46,taberna@grupoagrado.com ,"Ballesta, 1",http://www.esmadrid.com/restaurantes/taberna-agrado
68633,Dibocca,40.422234800000,-3.709128600000,(+34) 91 547 61 04,granvia@dibocca.com,"Gran Vía, 59",http://www.esmadrid.com/restaurantes/dibocca
68904,BLoved,40.419470500000,-3.699085900000,(+34) 91 532 55 68,reservas@restaurantebloved.com,"Gran Vía, 9",http://www.esmadrid.com/restaurantes/bloved
68949,La Guisandera de Pi&ntilde;era,40.462216600000,-3.693160000000,(+34) 91 425 14 25 ,reservas@laguisanderadepinera.com,"Rosario Pino, 12",http://www.esmadrid.com/restaurantes/guisandera-pinera
69029,T.G.I Fridays,40.423215000000,-3.710016300000,(+34) 91 275 94 91,redessociales@grupovips.com,"Gran Vía, 76",http://www.esmadrid.com/restaurantes/t-g-i-fridays
68438,Casa Jos&eacute;,40.031871600000,-3.605340000000,(+34) 91 891 14 88 ,info@casajose.es,"de Abastos, 32 ",http://www.esmadrid.com/restaurantes/casa-jose
68655,Coque,40.430682200000,-3.690451000000,(+34) 91 604 02 02,reservas@restaurantecoque.com,"del Marqués de Riscal, 11",http://www.esmadrid.com/restaurantes/coque
69172,El Cenador de Salvador,40.677994000000,-3.963448000000,(+34) 91 857 77 22,cenador@infonegocio.com,"España, 30 (Moralzarzal)",http://www.esmadrid.com/restaurantes/el-cenador-de-salvador
69171,La Dichosa,40.426506200000,-3.709816400000,(+34) 91 541 88 16,,"Bernardo López García, 11",http://www.esmadrid.com/restaurantes/la-dichosa
68724,El Respiro,40.420308000000,-3.698339000000,(+34) 91 522 88 25‎,,"Infantas, 34",http://www.esmadrid.com/restaurantes/el-respiro
69132,El Rinc&oacute;n de Goya,40.425962600000,-3.685289800000,(+34) 91 576 38 89,restauranterincondegoya4848@yahoo.es,"Lagasca, 48",http://www.esmadrid.com/restaurantes/el-rincon-de-goya
69131,Los Cedros,40.459565700000,-3.662937900000,(+34) 91 515 22 15,restaurante@quintadeloscedros.com,"Allendesalazar, 4",http://www.esmadrid.com/restaurantes/los-cedros
69086,Bar Tomate,40.427991900000,-3.690566700000,(+34) 91 702 38 70,,"de Fernando El Santo, 26",http://www.esmadrid.com/restaurantes/bar-tomate
68437,Lateral ,40.414391500000,-3.701106500000,(+34) 91 420 15 82,lateral@lateral.com,"de Santa Ana, 12",http://www.esmadrid.com/restaurantes/lateral
68436,Cervecer&iacute;a Sol Mayor,40.416062600000,-3.705469300000,(+34) 91 521 72 18 ,info@cerveceriasolmayor.com,"Postas, 5",http://www.esmadrid.com/restaurantes/cerveceria-sol-mayor
68435,Casa Mar&iacute;a ,40.412423400000,-3.708396200000,(+34) 91 559 10 07,holacasamaria@gmail.com,"Cava Alta, 7",http://www.esmadrid.com/restaurantes/casa-maria
68845,La ideal,40.414902100000,-3.706764000000,(+34) 91 365 72 78,,"Botoneras, 4",http://www.esmadrid.com/restaurantes/la-ideal
68843,Casa Rua,40.415635800000,-3.708218000000,(+34) 91 542 70 74‎,,"Ciudad Rodrigo, 3",http://www.esmadrid.com/restaurantes/casa-rua
68842,Bar Postas,40.415866100000,-3.705941900000,(+34) 91 522 13 24,,"Postas, 13",http://www.esmadrid.com/restaurantes/bar-postas
68841,Magerit,40.415564100000,-3.708163100000,(+34) 91 547 31 62,oficina@cafemagerit.com,"Mayor, 22",http://www.esmadrid.com/restaurantes/magerit
68900,Liana 1962,40.415211400000,-3.706660600000,(+34) 91 366 46 21‎,,"Gerona, 14",http://www.esmadrid.com/restaurantes/liana-1962
68901,El Brillante,40.408480000000,-3.692930000000,(+34) 915 28 69 66,info@barelbrillante.es,"Emperador Carlos V, 8",http://www.esmadrid.com/restaurantes/el-brillante
68434,La Campana,40.414859900000,-3.706819200000,(+34) 91 364 29 84,,"Botoneras, 6",http://www.esmadrid.com/restaurantes/la-campana
68844,Valle Del Tietar,40.415689200000,-3.708444900000,(+34) 91 548 05 11‎,,"Ciudad Rodrigo, 5",http://www.esmadrid.com/restaurantes/valle-del-tietar
68670,Home Burger Bar (Silva),40.421891100000,-3.705691400000,(+34) 91 115 12 79,info@homeburgerbar.com,"Silva, 25",http://www.esmadrid.com/restaurantes/home-burguer-bar-silva
68840,Alma Caf&eacute;,40.410165000000,-3.697414800000,(+34) 91 527 49 30,baralmacafe@gmail.com,"Santa Isabel, 42",http://www.esmadrid.com/restaurantes/alma-cafe
69085,Mes&oacute;n del Cid,40.439677600000,-3.694454000000,(+34) 91 442 07 55 ,madrid@mesondelcid.es,"Fernandez de la Hoz, 57",http://www.esmadrid.com/restaurantes/meson-del-cid
69130,La Gran Tasca,40.444764800000,-3.703185700000,(+34) 91 534 46 34,info@lagrantasca.com,"Santa Engrancia, 161",http://www.esmadrid.com/restaurantes/la-gran-tasca
69128,Asador el Molin&oacute;n,40.421667800000,-3.721984400000,(+34) 91 547 79 36,restaurante@asadorelmolinon.com,"La Florida, 17",http://www.esmadrid.com/restaurantes/asador-el-molinon
69129,Asador de Sacramenia,40.452753500000,-3.701455800000,(+34) 91 571 56 26,,"Ávila, 17",http://www.esmadrid.com/restaurantes/asador-de-sacramenia
69168,Carlos Tartiere,40.419482600000,-3.675047100000,(+34) 91 574 57 61 ,carlos.tartiere.restaurante@gmail.com,"Menorca , 35",http://www.esmadrid.com/restaurantes/carlos-tartiere
68432,Los Montes de Galicia,40.434694700000,-3.668485000000,(+34) 91 355 27 86 ,info@losmontesdegalicia.es,"Azcona, 46",http://www.esmadrid.com/restaurantes/los-montes-de-galicia
69084,L'Abbraccio,40.463413000000,-3.692554900000,(+34) 91 579 08 49,restaurante@labbraccio.com,"Poeta Joan Maragall, 51",http://www.esmadrid.com/restaurantes/l-abbraccio
68947,Los Arrieros,40.415856900000,-3.712068500000,(+34) 91 548 14 27,losarrieros@losarrieros.net,"San Nicolás, 9",http://www.esmadrid.com/restaurantes/los-arrieros
68723,Kupela,40.416994300000,-3.695514200000,(+34) 91 522 88 11,info@restaurantekupela.com,"Marqués de Cubas, 8",http://www.esmadrid.com/restaurantes/kupela
68896,Asador Pelotari,40.422187000000,-3.690719600000,(+34) 91 578 24 97  ,pelotari@pelotari-asador.com,"Recoletos, 3",http://www.esmadrid.com/restaurantes/pelotari
68431,La Favorita,40.430628400000,-3.698202900000,(+34) 91 448 38 10,reservas@lafavoritarestaurante.com,"Covarrubias, 25",http://www.esmadrid.com/restaurantes/la-favorita
69126,Jai Alai,40.446440000000,-3.689641000000,(+34) 91 561 27 42,info@restaurantejaialai.com,"Balbina Valverde, 2",http://www.esmadrid.com/restaurantes/jai-alai
68430,Horno de Juan,40.423632500000,-3.677446900000,(+34) 91 575 69 16,ldr@hornodejuan.net,"Lope de Rueda, 4",http://www.esmadrid.com/restaurantes/horno-de-juan
68946,El Espig&oacute;n,40.462844600000,-3.691450900000,(+34) 91 579 32 32,madrid@elespigon.com,"Poeta Joan Maragall, 58",http://www.esmadrid.com/restaurantes/el-espigon
69125,Taberna Las Botas,40.427148000000,-3.671470100000,(+34) 91 309 03 06,informacion@tabernalasbotas.es ,"Ayala, 99",http://www.esmadrid.com/restaurantes/taberna-las-botas
68895,Teitu,40.457002300000,-3.691900700000,(+34) 91 556 21 14 ,teitusidreria@grupo-oter.com,"Poeta Joan Maragall,20",http://www.esmadrid.com/restaurantes/teitu
68894,Ferreiro (Aviador Zorita),40.450044900000,-3.698157300000,(+34) 91 553 93 42,czorita@restauranteferreiro.es,"del Aviador Zorita, 32",http://www.esmadrid.com/restaurantes/ferreiro-aviador-zorita
68667,La Perejila,40.412306000000,-3.709250500000,(+34) 91 364 28 55,,"Cava Baja, 25",http://www.esmadrid.com/restaurantes/la-perejila
68837,Delic,40.412628100000,-3.711836600000,(+34) 91 364 54 50,info@delic.es,"San Andrés, 14",http://www.esmadrid.com/restaurantes/delic
68989,Vegaviana,40.423416000000,-3.698075000000,(+34) 91 308 03 81,,"de Pelayo, 35",http://www.esmadrid.com/restaurantes/vegaviana
68892,Artemisa,40.419196000000,-3.702865500000,(+34) 91 521 87 21 ,restauranteartemisasol@gmail.com,"de las Tres Cruces, 4",http://www.esmadrid.com/restaurantes/artemisa
68720,La Biotika,40.413234648186,-3.698189556599,(+34) 91 429 07 80,actividades@labiotika.es,"del Amor de Dios, 3",http://www.esmadrid.com/restaurantes/biotika
68429,Casa Paulino,40.440254400000,-3.697529200000,(+34) 91 441 87 37,restaurantespaulino@hotmail.com,"de Alonso Cano, 34",http://www.esmadrid.com/restaurantes/casa-paulino
68944,Los Timbales,40.429880800000,-3.665210600000,(+34) 91 725 07 68 ,lostimbalesmadrid@gmail.com,"Alcalá, 227",http://www.esmadrid.com/restaurantes/los-timbales
68836,Tandoori Station,40.429835700000,-3.671051500000,(+34) 91 401 22 28,info@tandooristation.com,"José Ortega y Gasset, 89",http://www.esmadrid.com/restaurantes/tandoori-station
68428,Rasput&iacute;n,40.412103000000,-3.713452000000,(+34) 91 366 39 62,restauranterasputin@hotmail.com,"Yeseros, 2",http://www.esmadrid.com/restaurantes/rasputin
68986,Mercato Ballar&oacute;,40.431034900000,-3.697022800000,(+34) 91 310 16 18 ,info@mercatoballaro.com,"Santa Engracia, 24",http://www.esmadrid.com/restaurantes/mercato-ballaro
68984,Come Prima,40.414158600000,-3.699515600000,(+34) 91 420 30 42,,"Echagaray, 27",http://www.esmadrid.com/restaurantes/come-prima
68983,The James Joyce,40.419955000000,-3.691370300000,(+34) 91 575 49 01,info@jamesjoycemadrid.com,"Alcalá, 59",http://www.esmadrid.com/restaurantes/the-james-joyce
68834,El &Ntilde;eru,40.416693300000,-3.707506300000,(+34) 91 548 19 77,info@restauranteelneru.com,"Bordadores, 5",http://www.esmadrid.com/restaurantes/el-neru
68831,Algarab&iacute;a,40.417394800000,-3.710460400000,(+34) 91 140 76 52 ,algarabia.muro@gmail.com,"Unión, 8",http://www.esmadrid.com/restaurantes/algarabia
68830,El Caldero,40.413897600000,-3.699947200000,(+34) 91 429 50 44,reservashuertas@elcaldero.com,"de las Huertas, 15",http://www.esmadrid.com/restaurantes/el-caldero
68832,Centro Riojano,40.426662300000,-3.687633300000,(+34) 91 575 03 37 ,restaurantecrm@gmail.com,"Serrano, 25 - 1º",http://www.esmadrid.com/restaurantes/centro-riojano
68891,&quot;Tres Peces&quot; El Ventorrillo Murciano,40.410681000000,-3.699582400000,(+34) 91 528 83 09,ivetzay@arrakis.es,"Tres Peces, 20",http://www.esmadrid.com/restaurantes/el-ventorrillo-murciano
69081,Casa Ricardo,40.433959200000,-3.709934200000,(+34) 91 447 61 19,casaricardomadrid@gmail.com,"de Fernando el Católico, 31",http://www.esmadrid.com/restaurantes/casa-ricardo
68717,Restaurante Esteban,40.412119300000,-3.709958400000,(+34) 91 365 90 91 ,info@rte-esteban.com,"Cava Baja, 36",http://www.esmadrid.com/restaurantes/restaurante-esteban
68780,La Vera,40.412716200000,-3.699791500000,(+34) 91 429 97 98 ,,"Atocha, 57",http://www.esmadrid.com/restaurantes/la-vera
68943,Compostela,40.430039900000,-3.714155200000,(+34) 91 542 73 32 /,info@restaurantecompostela.es,"Serrano Jover, 6",http://www.esmadrid.com/restaurantes/compostela
68942,Villa de Foz,40.432106500000,-3.702706400000,(+34) 91 446 89 93 ,amvilladefoz@gmail.com,"Gonzalo de Córdoba, 10",http://www.esmadrid.com/restaurantes/villa-de-foz
68716,Ponteareas,40.432409600000,-3.685535500000,(+34) 91 575 58 73,ponteareas@grupoportonovo.es,"Claudio Coello, 96",http://www.esmadrid.com/restaurantes/ponteareas
69024,Casa Adriano,40.454413900000,-3.705635500000,(+34) 91 450 08 85,info@restaurantecasaadriano.com,"Pamplona, 19",http://www.esmadrid.com/restaurantes/casa-adriano
68889,Carta Marina,40.458397500000,-3.685336200000,(+34) 91 458 68 26 ,info@restaurantecartamarina.com,"Padre Damián, 40",http://www.esmadrid.com/restaurantes/carta-marina
68941,R&iacute;as Bajas,40.442603800000,-3.671138500000,(+34) 91 413 49 65 ,info@restauranteriasbajas.com,"Alustante, 11",http://www.esmadrid.com/restaurantes/rias-bajas
69079,Casa de Valencia,40.429937700000,-3.722401200000,(+34) 91 544 17 47,restaurante@lacasavalencia.es,"Pintor Rosales, 58",http://www.esmadrid.com/restaurantes/casa-de-valencia
68427,Casa Nemesio,40.472369100000,-3.687211400000,(+34) 91 323 84 10,nemesio@grupolamaquina.es,"Castellana, 260",http://www.esmadrid.com/restaurantes/casa-nemesio
68888,Can Punyetes (Se&ntilde;ores de Luz&oacute;n),40.415868100000,-3.710571500000,(+34) 91 542 09 21,,"Señores de Luzón, 5",http://www.esmadrid.com/restaurantes/can-punyetes-senores-de-luzon
68714,El Senador,40.420712600000,-3.711430200000,(+34) 91 541 22 21,restaurantesenador@gmail.com,"Marina Española, 2",http://www.esmadrid.com/restaurantes/el-senador
68713,Los Galayos,40.414896981148,-3.706684112549,(+34) 91 366 30 28,losgalayos@losgalayos.net,"de Botoneras, 5",http://www.esmadrid.com/restaurantes/galayos
68829,Asador Real,40.417714500000,-3.709223300000,(+34) 91 547 11 11 ,atencionalcliente@asadorreal.com,"Isabel II, 1",http://www.esmadrid.com/restaurantes/asador-real
68828,Venta la Hidalgu&iacute;a,40.419686500000,-3.677278700000,(+34) 91 573 68 22,,"Menorca, 15",http://www.esmadrid.com/restaurantes/venta-la-hidalguia
68557,El Tormo,40.411939700000,-3.714776600000,(+34) 91 365 53 35,,"de las Vistillas, 13",http://www.esmadrid.com/restaurantes/el-tormo
68937,Mallorca en Madrid,40.412384700000,-3.668282100000,(+34) 915 733 100,,"Cruz del Sur, 1",http://www.esmadrid.com/restaurantes/mallorca-en-madrid
68938,El Escald&oacute;n,40.413062700000,-3.710005600000,(+34) 91 365 55 06,elescaldonmadrid@hotmail.com,"Nuncio, 17",http://www.esmadrid.com/restaurantes/el-escaldon
68936,Restaurante Uval,40.445450000000,-3.685450400000,(+34) 91 176 92 26,info@uval.es,"República Argentina, 6",http://www.esmadrid.com/restaurantes/restaurante-uval
68935,La Gabinoteca,40.438772100000,-3.694514800000,(+34) 91 399 15 00,info@lagabinoteca.es,"Fernández de la Hoz, 53",http://www.esmadrid.com/restaurantes/la-gabinoteca
68712,La Tavernetta,40.426057600000,-3.694001100000,(+34) 91 319 23 90,info@trattorialatavernetta.es,"Orellana, 17",http://www.esmadrid.com/restaurantes/la-tavernetta
68426,Ram&oacute;n Freixa Madrid,40.428525900000,-3.686108700000,(+34) 91 781 82 62,info@ramonfreixamadrid.com,"de Claudio Coello, 67",http://www.esmadrid.com/restaurantes/ramon-freixa-madrid
68711,99 Sushi Bar (Hermosilla),40.426444100000,-3.688764400000,(+34) 91 431 27 15,info@99sushibar.com,"Hermosilla, 4",http://www.esmadrid.com/restaurantes/99-sushi-bar-hermosilla
68826,Taquer&iacute;a del Alamillo,40.413734100000,-3.711996400000,(+34) 91 364 20 88,,"del Alamillo, 8",http://www.esmadrid.com/restaurantes/taqueria-del-alamillo
68825,Casa Marco,40.431495800000,-3.715762400000,(+34) 91 543 20 69,info@casamarco.net,"Gaztambide, 8",http://www.esmadrid.com/restaurantes/casa-marco
68710,Ginger,40.414350800000,-3.702232400000,(+34) 91 369 10 59,ginger@grupandilana.com,"del Ángel, 12",http://www.esmadrid.com/restaurantes/ginger
68824,Krachai,40.425355500000,-3.696200000000,(+34) 91 833 65 56,info@krachai.es,"Fernando VI, 11",http://www.esmadrid.com/restaurantes/krachai
69123,Vesuvio,40.420638300000,-3.700776100000,(+34) 91 521 51 71,vesuviomad@gmail.com,"Hortaleza, 4",http://www.esmadrid.com/restaurantes/vesuvio
69162,Olivia te cuida,40.425719500000,-3.695814100000,(+34) 91 702 00 66,oliviatecuida@gmail.com,"Santa Teresa, 8",http://www.esmadrid.com/restaurantes/olivia-te-cuida
68708,Fass,40.451313100000,-3.678585400000,(+34) 91 563 74 47,info@fassgrill.com,"Rodríguez Marín, 84",http://www.esmadrid.com/restaurantes/fass
69078,Carip&eacute;n,40.420508600000,-3.711978800000,(+34) 91 541 11 77,,"de la Marina Española, 4",http://www.esmadrid.com/restaurantes/caripen
68705,De Maria (Correo),40.416385700000,-3.704322200000,(+34) 91 523 34 94,demariacorreo@demariarestaurante.es,"Correo, 2",http://www.esmadrid.com/restaurantes/de-maria-correo
68704,De Mar&iacute;a (Gran V&iacute;a),40.422905800000,-3.709732200000,(+34) 91 758 01 15,demariagranvia@demariarestaurante.es,"Gran Vía, 72",http://www.esmadrid.com/restaurantes/de-maria-gran-via
68822,De Mar&iacute;a (Hortaleza),40.425858000000,-3.697301400000,(+34) 91 310 14 39,demariahortaleza@demariarestaurante.es,"Hortaleza, 81",http://www.esmadrid.com/restaurantes/de-maria-hortaleza
68665,De Mar&iacute;a (Preciados),40.419776800000,-3.706429400000,(+34) 91 521 16 03,demariapreciados@demariarestaurante.es,"Preciados, 32",http://www.esmadrid.com/restaurantes/de-maria-preciados
68886,De Mar&iacute;a (F&eacute;lix Boix),40.463477700000,-3.688215000000,(+34) 91 359 65 07 ,demariafelixboix@demariarestaurante.es,"Félix Boix, 5",http://www.esmadrid.com/restaurantes/de-maria-felix-boix
69023,Beef Place,40.459044600000,-3.658537600000,(+34) 91 721 89 32,beefplace@beefplace.com,"Matías Turrión, 4",http://www.esmadrid.com/restaurantes/beef-place
69022,Txirimiri ,40.411112600000,-3.710530700000,(+34) 91 364 11 96,info@txirimiri.es,"Humilladero, 6",http://www.esmadrid.com/restaurantes/txirimiri
68777,Entrevinos,40.426253600000,-3.716915300000,(+34) 91 548 31 14,entrevinos@entrevinos.net,"Ferraz, 36",http://www.esmadrid.com/restaurantes/entrevinos
68980,La Cocina de Mar&iacute;a Luisa,40.423568500000,-3.681830300000,(+34) 91 781 01 80,reservas@lacocinademarialuisa.es,"Jorge Juan , 42",http://www.esmadrid.com/restaurantes/la-cocina-de-maria-luisa
68978,Don Giovanni,40.407516800000,-3.680218900000,(+34) 91 434 83 38,info@dongiovanni.es,"Reina Cristina, 23",http://www.esmadrid.com/restaurantes/don-giovanni
69021,Puerto de Lagasca,40.431146300000,-3.684879700000,(+34) 91 576 41 11,info@puertolagasca.com,"Lagasca, 81",http://www.esmadrid.com/restaurantes/puerto-de-lagasca
69121,Naveira do mar,40.452410000000,-3.707517500000,(+34) 91 459 45 32,,"Santa Juliana, 57",http://www.esmadrid.com/restaurantes/naveira-do-mar
69120,La Monter&iacute;a,40.420282800000,-3.677533300000,(+34) 91 574 18 12,miguel@lamonteria.es,"Lope de Rueda, 35",http://www.esmadrid.com/restaurantes/la-monteria
68776,Mestizo,40.421776400000,-3.689908100000,(+34) 91 575 64 53,madrid@mestizomx.com,"de Recoletos, 13",http://www.esmadrid.com/restaurantes/mestizo
68821,Restaurante Villa Magna ,40.429646600000,-3.688898600000,(+34) 91 587 12 34,villamagna@villamagna.es,"Castellana, 22",http://www.esmadrid.com/restaurantes/restaurante-villa-magna
68882,El Mirador del Thyssen,40.416039700000,-3.694942500000,(+34) 91 429 39 84,info@elmiradordelthyssen.com,"del Prado, 8",http://www.esmadrid.com/restaurantes/mirador-thyssen
68422,Las Cuevas de Luis Candelas,40.414573700000,-3.708023800000,(+34) 91 366 54 28 ,reservas@lascuevasdeluiscandelas.com,"Cuchilleros, 1",http://www.esmadrid.com/restaurantes/las-cuevas-de-luis-candelas
68420,La Buganvilla,40.428749200000,-3.694325400000,(+34) 91 319 75 50 ,almagro@labuganvilla.es,"Almagro, 12",http://www.esmadrid.com/restaurantes/la-buganvilla
68975,Nipon Taro,40.454221900000,-3.679239900000,(+34) 91 458 54 70 ,info@nipontaro.com,"Serrano, 213",http://www.esmadrid.com/restaurantes/nipon-taro
68977,Summa To Go,40.456150900000,-3.688077500000,(+34) 91 457 32 27 /,informacion@summatogo.com,"Profesor Waksman, 9",http://www.esmadrid.com/restaurantes/summa-go
69019,Ayala Jap&oacute;n,40.427525600000,-3.676516400000,(+34) 91 309 56 25,grupoayala@126.com,"Ayala, 67",http://www.esmadrid.com/restaurantes/ayala-japon
68418,Inari,40.429284400000,-3.678396900000,(+34) 91 576 33 12,madrid@restauranteinari.com,"General Pardiñas, 43",http://www.esmadrid.com/restaurantes/inari
68775,Ichiban,40.458110000000,-3.684679000000,(+34) 91 547 07 83 ,ichibanalcocer@gmail.com,"Alberto Alcocer, 22 bis",http://www.esmadrid.com/restaurantes/ichiban
68774,19 Sushi Bar,40.419657400000,-3.703142300000,(+34) 91 524 05 71,restaurante@19sushibar.com,"Salud, 19",http://www.esmadrid.com/restaurantes/19-sushi-bar
69119,Ginza,40.415890000000,-3.695840000000,(+34) 91 429 76 19,info@restauranteginza.com,"de las Cortes, 3",http://www.esmadrid.com/restaurantes/ginza
68632,Mikado,40.457678600000,-3.691845800000,(+34) 91 556 30 43 ,,"Pintor Juan Gris, 4",http://www.esmadrid.com/restaurantes/mikado
68773,Kokoro,40.428701900000,-3.675062900000,(+34) 91 281 15 88,restaurantekokoro@hotmail.es,"Don Ramón de la Cruz, 72",http://www.esmadrid.com/restaurantes/kokoro
68820,La Tasca Suprema,40.425100700000,-3.695143900000,(+34) 91 308 03 47 ,reservas@latascasuprema.com,"de Argensola, 7",http://www.esmadrid.com/restaurantes/la-tasca-suprema
68819,Taberna Alipio Ramos,40.439186400000,-3.699171100000,(+34) 91 441 49 61,,"Ponzano, 30",http://www.esmadrid.com/restaurantes/taberna-alipio-ramos
68772,La Copla,40.423859600000,-3.705196900000,(+34) 91 522 44 22,tabernadelacopla@yahoo.es,"Jesús del Valle, 1",http://www.esmadrid.com/restaurantes/la-copla
68770,99 Sushi Bar (Ponzano),40.445859500000,-3.698836300000,(+34) 91 536 05 67,info@99sushibar.com,"Ponzano, 99",http://www.esmadrid.com/restaurantes/99-sushi-bar-ponzano
68930,Soy,40.435596500000,-3.696598100000,(+34) 91 445 74 47,info@soypedroespina.com,"Viriato, 58",http://www.esmadrid.com/restaurantes/soy
68818,La Ancha (Pr&iacute;ncipe de Vergara),40.449430700000,-3.677571900000,(+34) 91 563 89 77 ,inmaalmandor@terra.es,"Príncipe de Vergara, 204",http://www.esmadrid.com/restaurantes/la-ancha-principe-de-vergara
69017,Viav&eacute;lez,40.452347600000,-3.695316700000,(+34) 91 579 95 39,info@restauranteviavelez.com,"General Perón, 10",http://www.esmadrid.com/restaurantes/viavelez
69018,La Buena Vida,40.422911900000,-3.694054000000,(+34) 91 531 31 49,info@restaurantelabuenavida.com	 ,"Conde de Xiquena, 8",http://www.esmadrid.com/restaurantes/la-buena-vida
69075,Nicomedes,40.456854400000,-3.648126000000,(+34) 91 388 78 28,gestion@nicomedesrestaurante.es,"Moscatelar, 18",http://www.esmadrid.com/restaurantes/nicomedes
68769,La Parra ,40.429993500000,-3.691784200000,(+34) 91 319 54 98 ,contacto@laparrarestaurante.com,"Monte Esquinza, 34",http://www.esmadrid.com/restaurantes/la-parra
68629,El Caf&eacute; de la &Oacute;pera,40.418771600000,-3.710178200000,(+34) 91 542 63 82,reservas@elcafedelaopera.com,"Arrieta, 6",http://www.esmadrid.com/restaurantes/el-cafe-de-la-opera
68580,Casa Narcisa,40.471883500000,-3.687167100000,(+34) 91 323 80 72,narcisa@grupolamaquina.es,"Castellana, 254",http://www.esmadrid.com/restaurantes/casa-narcisa
68513,Bodegas Alfaro,40.411632200000,-3.700330000000,,sucalfaro@gmail.com,"Ave María, 10",http://www.esmadrid.com/restaurantes/bodegas-alfaro
68664,Bodegas Rosell,40.403800200000,-3.690889700000,(+34) 91 467 84 58,informacion@bodegasrosell.es,"General Lacy, 14",http://www.esmadrid.com/restaurantes/bodegas-rosell
69118,La casa de las torrijas,40.415485200000,-3.704212400000,(+34) 91 532 14 73,,"de la Paz, 4",http://www.esmadrid.com/restaurantes/la-casa-de-las-torrijas
69117,Stop Madrid,40.420906800000,-3.700695300000,(+34) 91 521 88 87,stopmadrid@stopmadrid.es,"Hortaleza, 11",http://www.esmadrid.com/restaurantes/stop-madrid
69161,Tienda de vinos (El comunista),40.422132600000,-3.697662200000,(+34) 91 521 70 12,,"Augusto Figueroa, 35",http://www.esmadrid.com/restaurantes/tienda-de-vinos-el-comunista
68879,Tse Yang Villa Magna,40.429659200000,-3.688076500000,(+34) 91 431 18 88 ,,"de la Castellana, 22",http://www.esmadrid.com/restaurantes/tse-yang-villa-magna
68878,La Penela,40.433656500000,-3.682370200000,(+34) 91 576 52 22,,"Velázquez, 96",http://www.esmadrid.com/restaurantes/la-penela
68768,Viva Burger ,40.412495700000,-3.711847200000,(+34) 91 366 33 49,reservas@vivaburger.es,"de San Andrés, 16",http://www.esmadrid.com/restaurantes/viva-burger
69114,El Cisne Azul,40.422752100000,-3.696657600000,(+34) 91 521 37 99,,"Gravina, 19",http://www.esmadrid.com/restaurantes/el-cisne-azul
69113,Janatomo,40.419968000000,-3.698965300000,(+34) 91 521 55 66,,"Reina, 27",http://www.esmadrid.com/restaurantes/janatomo
69016,Albah&iacute;a,40.412032200000,-3.703047400000,(+34) 91 467 20 05 ,,"Lavapiés, 3",http://www.esmadrid.com/restaurantes/albahia
69015,Conache,40.424212600000,-3.701558700000,(+34) 91 522 95 00,,"Santa Bárbara, 11",http://www.esmadrid.com/restaurantes/conache
68767,Gaudium,40.433266000000,-3.699064500000,(+34) 91 594 30 37,info@gaudiumchamberi.com,"Santa Feliciana , 14",http://www.esmadrid.com/restaurantes/gaudium
68971,El Sur,40.411087000000,-3.699491300000,(+34) 91 527 83 40 ,tabernasur@gmail.com,"Torrecilla del Leal, 12",http://www.esmadrid.com/restaurantes/el-sur
68415,Malacat&iacute;n,40.410339400000,-3.707613200000,(+34) 91 365 52 41,reservas@malacatin.com,"de la Ruda , 5",http://www.esmadrid.com/restaurantes/malacatin
68414,Casa Paco,40.413909200000,-3.708523400000,(+34) 91 366 31 67,casapaco1933@hotmail.es,"de Puerta Cerrada, 11",http://www.esmadrid.com/restaurantes/casa-paco
69070,Moncalvillo,40.423761800000,-3.695832600000,(+34) 91 319 40 41,,"San Lucas, 15",http://www.esmadrid.com/restaurantes/moncalvillo
68485,Public,40.421030000000,-3.704093000000,(+34) 91 522 06 70,public@andilana.com,"del Desengaño, 11",http://www.esmadrid.com/restaurantes/public
68412,Clarita,40.422237000000,-3.704209000000,(+34) 91 522 80 70,reservas@claritamadrid.com,"Corredera baja de San Pablo, 19",http://www.esmadrid.com/restaurantes/clarita
68413,Casa Perico,40.421788400000,-3.703406600000,(+34) 91 532 81 76 ,casaperico@hotmail.es,"Ballesta, 18",http://www.esmadrid.com/restaurantes/casa-perico
68661,La Panza es Primero,40.422253000000,-3.697180000000,(+34) 91 521 76 40,madrid@lapanzaesprimero.com,"Libertad , 33",http://www.esmadrid.com/restaurantes/la-panza-es-primero
68662,S&iacute; Se&ntilde;or,40.449978000000,-3.690359000000,(+34) 91 564 06 04,info@sisenormadrid.com,"Ríos Rosas, 7",http://www.esmadrid.com/restaurantes/si-senor
68660,La Mordida de Segovia,40.413855475128,-3.710959553719,(+34) 91 547 20 03  ,,"del Conde, 4",http://www.esmadrid.com/restaurantes/la-mordida-de-segovia
69155,Tepic,40.427833500000,-3.687871000000,(+34) 91 522 08 50,tepic@tepic.es,"Ayala, 14",http://www.esmadrid.com/restaurantes/tepic
68813,Estado Puro,40.414740000000,-3.694630000000,(+34) 91 779 30 36,,"Cánovas del Castillo, 4",http://www.esmadrid.com/restaurantes/estado-puro
68929,Cervecer&iacute;a Plaza Mayor 2,40.415040000000,-3.707007000000,(+34) 91 365 06 46,info@plazamayor2.com,"Mayor, 2",http://www.esmadrid.com/restaurantes/cerveceria-plaza-mayor-2
68693,La Esquina,40.452431800000,-3.686808400000,(+34) 91 443 06 75,laesquina@grupolamaquina.es,"Concha Espina, 1",http://www.esmadrid.com/restaurantes/la-esquina
68657,Taberna Almer&iacute;a,40.410973000000,-3.712441000000,(+34) 91 364 15 71,,"Aguas, 9",http://www.esmadrid.com/restaurantes/taberna-almeria
68687,Viejo Madrid,40.412244000000,-3.709649500000,(+34) 91 366 38 38 ,,"Cava Baja, 32",http://www.esmadrid.com/restaurantes/viejo-madrid
68399,Restaurante UNO by Meli&aacute; Madrid Princesa,40.427275500000,-3.714176100000,(+34) 91 541 82 00,,"Princesa , 27",http://www.esmadrid.com/restaurantes/restaurante-uno-by-melia-madrid-princesa
69152,Ramses,40.420659689724,-3.689163923264,(+34) 91 435 16 66,info@ramseslife.com,"de la Independencia, 4",http://www.esmadrid.com/restaurantes/ramses
68812,Mercado de la Reina,40.419643700000,-3.698868200000,(+34) 91 521 31 98,info@mercadodelareina.es,"Gran Vía , 12",http://www.esmadrid.com/restaurantes/mercado-de-la-reina
69068,Con Dos Fogones,40.425232000000,-3.710680700000,(+34) 91 559 63 26,c2f@condosfogones.com,"San Bernardino , 9",http://www.esmadrid.com/restaurantes/con-dos-fogones
68656,El Fog&oacute;n de Trif&oacute;n,40.427058100000,-3.671859700000,(+34) 91 402 37 94,info@elfogondetrifon.com,"Ayala, 144",http://www.esmadrid.com/restaurantes/el-fogon-de-trifon
68411,El Cant&aacute;brico,40.431260000000,-3.677155000000,(+34) 91 402 50 42 ,,"Padilla, 39",http://www.esmadrid.com/restaurantes/el-cantabrico
69108,Taberneros,40.416362000000,-3.710527500000,(+34) 91 542 21 60,informa@restaurantetaberneros.es,"Santiago, 9",http://www.esmadrid.com/restaurantes/taberneros
68410,La Colonial de Goya,40.423730000000,-3.683071000000,(+34) 91 575 63 06, info@lacolonialdegoya.es,"Jorge Juan, 34",http://www.esmadrid.com/restaurantes/la-colonial-de-goya
68409,El Anciano Rey de los Vinos,40.415440000000,-3.713427000000,(+34) 91 559 53 32,info@elancianoreydelosvinos.com,"de Bailén, 19",http://www.esmadrid.com/restaurantes/el-anciano-rey-de-los-vinos
69014,Cervecer&iacute;a Alemana ,40.414455600000,-3.700335900000,(+34) 91 429 70 33 ,info@cerveceriaalemana.com,"de Santa Ana, 6",http://www.esmadrid.com/restaurantes/cerveceria-alemana
68405,La Musa Latina,40.412811100000,-3.711923100000,(+34) 91 354 02 55,comunicacion@grupolamusa.com,"de San Andrés, 12",http://www.esmadrid.com/restaurantes/la-musa-latina
68809,Maceiras (Huertas),40.413030800000,-3.695899700000,(+34) 91 429 58 18,,"Huertas, 66",http://www.esmadrid.com/restaurantes/maceiras-huertas
68404,La musa de Espronceda,40.410572800000,-3.697852900000,(+34) 91 539 12 84,,"Santa Isabel, 17",http://www.esmadrid.com/restaurantes/la-musa-de-espronceda
68403,Casa Manolo,40.416971400000,-3.696561700000,(+34) 91 521 45 16,,"Jovellanos, 7",http://www.esmadrid.com/restaurantes/casa-manolo
68402,Los Caracoles,40.407727700000,-3.711293600000,(+34) 91 366 42 46,,"de Toledo, 106",http://www.esmadrid.com/restaurantes/los-caracoles
69105,La cruzada,40.417166500000,-3.710724800000,(+34) 658 32 05 77,reservas@tabernalacruzada.es,"Amnistia, 8",http://www.esmadrid.com/restaurantes/la-cruzada
68401,Cangrejero,40.427170300000,-3.709604900000,(+34) 91 548 39 35,,"Amaniel, 25",http://www.esmadrid.com/restaurantes/cangrejero
69101,Matritum,40.412123600000,-3.709187400000,(+34) 91 365 82 37,matritumwinebar@gmail.com,"Cava Alta , 17",http://www.esmadrid.com/restaurantes/matritum
68873,Vinoteca Barbechera ,40.414691200000,-3.700132200000,(+34) 91 420 04 78,vsantaana@vinoteca-barbechera.com,"Príncipe, 27",http://www.esmadrid.com/restaurantes/vinoteca-barbechera
68874,Las Bravas (Pje Matheu),40.416178700000,-3.701905800000,(+34) 91 521 51 41,,"Pje. Matheu, 5",http://www.esmadrid.com/restaurantes/bravas-pje-matheu
68653,Cervecer&iacute;a Cervantes,40.414276000000,-3.695740000000,(+34) 91 429 60 93,,"Jesús, 7",http://www.esmadrid.com/restaurantes/cerveceria-cervantes
68654,Taberna &Aacute;ngel Sierra,40.423002100000,-3.697423300000,(+34) 91 531 01 26 ,,"Gravina, 11",http://www.esmadrid.com/restaurantes/taberna-angel-sierra
68396,Baco y Beto,40.422704300000,-3.698471700000,(+34) 91 522 84 41,info@baco-beto.com,"de Pelayo, 24",http://www.esmadrid.com/restaurantes/baco-y-beto
68876,Huevos de Lucio,40.412369300000,-3.709430100000,(+34) 91 366 29 84,info@casalucio.es,"Cava Baja, 30",http://www.esmadrid.com/restaurantes/huevos-de-lucio
69103,Maceiras (Jes&uacute;s),40.412696500000,-3.695559900000,(+34) 91 429 15 84 ,,"Jesús , 7",http://www.esmadrid.com/restaurantes/maceiras-jesus
68398,Las Bravas (&Aacute;lvarez Gato),40.415151200000,-3.701899500000,(+34) 91 522 85 81,,"Álvarez Gato, 3",http://www.esmadrid.com/restaurantes/bravas-alvarez-gato
68397,Melo&acute;s,40.409740800000,-3.701151100000,(+34) 91 527 50 54 ,,"Ave María, 44",http://www.esmadrid.com/restaurantes/melo-s
68395,Taberna Los Gatos,40.413610000000,-3.695682000000,(+34) 91 429 30 67 ,,"Jesús, 2",http://www.esmadrid.com/restaurantes/taberna-los-gatos
68652,Juana la Loca,40.411358400000,-3.711063700000,(+34) 91 364 05 25,,"Puerta de Moros, 4 ",http://www.esmadrid.com/restaurantes/juana-la-loca
68701,La Musa (Manuela Malasa&ntilde;a),40.428753000000,-3.704441000000,(+34) 91 448 75 58,,"Manuela Malasaña, 18",http://www.esmadrid.com/restaurantes/la-musa-manuela-malasana
68391,La Chata,40.412530000000,-3.709056000000,(+34) 91 366 14 58,lachatacavabaja@gmail.com,"Cava Baja, 24",http://www.esmadrid.com/restaurantes/la-chata
68647,Lamiak,40.411894000000,-3.710365100000,(+34) 91 365 52 12,lamiak@lamiak.net,"Cava Baja, 42",http://www.esmadrid.com/restaurantes/lamiak
68630,La Tape,40.428847600000,-3.705879500000,(+34) 91 593 04 22 ,info@latape.com,"San Bernardo, 88",http://www.esmadrid.com/restaurantes/la-tape
68385, Jos&eacute; Luis (Rafael Salgado),40.454412400000,-3.688104300000,(+34) 91 458 80 28,joseluis@joseluis.es,"Rafael Salgado, 11",http://www.esmadrid.com/restaurantes/jose-luis-rafael-salgado
68386,Mes&oacute;n Cinco Jotas (Serrano),40.436146500000,-3.686112000000,(+34) 91 563 27 10 ,ayuda@cincojotas.es,"Serrano, 118",http://www.esmadrid.com/restaurantes/meson-cinco-jotas-serrano
68389,Jurucha,40.427830000000,-3.685825000000,(+34) 91 575 00 98,,"Ayala, 19",http://www.esmadrid.com/restaurantes/jarucha
68628,Jos&eacute; Luis (Serrano),40.436947000000,-3.686401000000,(+34) 91 563 09 58,joseluis@joseluis.es,"Serrano, 89",http://www.esmadrid.com/restaurantes/jose-luis-serrano
68387,Jos&eacute; Luis (P&ordm; de la Habana),40.447475000000,-3.690454000000,(+34) 91 562 31 18,joseluis@joseluis.es,"La Habana, 4",http://www.esmadrid.com/restaurantes/jose-luis-p-de-la-habana
68698,La Castela,40.420387000000,-3.676580000000,(+34) 91 573 55 90,info@lacastela.com,"del Doctor Castelo, 22",http://www.esmadrid.com/restaurantes/la-castela
68390,Mes&oacute;n Cinco Jotas  (Puigcerd&aacute;),40.423880000000,-3.686348000000,(+34) 91 575 41 25 ,ayuda@cincojotas.es,"Puigcerdá, s/n",http://www.esmadrid.com/restaurantes/meson-cinco-jotas-puigcerda
68696,La Casa del Abuelo (calle Victoria),40.415714000000,-3.701707000000,(+34) 91 000 01 33,hola@lacasadelabuelo.es,"de la Victoria, 12",http://www.esmadrid.com/restaurantes/casa-abuelo-calle-victoria
68388,Mes&oacute;n Cinco Jotas (Padre Dami&aacute;n),40.459122100000,-3.685323600000,(+34) 91 350 31 73,ayuda@cincojotas.es,"Padre Damián, 42",http://www.esmadrid.com/restaurantes/meson-cinco-jotas-padre-damian
68691,La Camocha,40.427143000000,-3.701673000000,(+34) 91 448 89 31,,"Fuencarral, 95",http://www.esmadrid.com/restaurantes/la-camocha
68623,Vinos y tapas Pardi&ntilde;as 25,40.426476000000,-3.678533000000,(+34) 91 575 43 88,,"General Pardiñas, 25",http://www.esmadrid.com/restaurantes/vinos-tapas-25-pardinas
68619,Fide,40.437320000000,-3.699482000000,(+34) 91 442 20 89,,"de Ponzano, 8",http://www.esmadrid.com/restaurantes/fide
68626,O&acute;Caldi&ntilde;o,40.428490000000,-3.685062000000,(+34) 91 575 70 14  ,ocaldino@gmail.com,"Lagasca, 74",http://www.esmadrid.com/restaurantes/o-caldino
68618,Estay,40.426266000000,-3.682080000000,(+34) 91 578 04 70,info@estayrestaurante.com,"Hermosilla, 46",http://www.esmadrid.com/restaurantes/estay
68761,Taberna Cuenllas,40.425764440911,-3.717096447945,(+34) 91 559 17 05,cuenllasgourmet@gmail.com,"Ferraz, 3 y 5",http://www.esmadrid.com/restaurantes/taberna-cuenllas
68624,Le Petit H&aacute;ndicap,40.435986000000,-3.679746000000,(+34) 91 562 21 59 ,,"General Oráa, 56",http://www.esmadrid.com/restaurantes/le-petit-handicap
68617,Sagaretxe,40.434360000000,-3.701106000000,(+34) 91 446 25 88 ,info@sagaretxe.com,"Eloy Gonzalo, 26",http://www.esmadrid.com/restaurantes/sagaretxe
68763,El Quinto Vino,40.448056800000,-3.699002400000,(+34) 91 553 66 00,elquintovino@elquintovino.com,"Hernani, 48",http://www.esmadrid.com/restaurantes/el-quinto-vino
68555,Sylkar,40.440647000000,-3.697452000000,(+34) 91 554 57 03,,"Espronceda, 17",http://www.esmadrid.com/restaurantes/sylkar
68760,Taberna de la Dolores,40.413770000000,-3.695721000000,(+34) 91 429 22 43,,"Jesús, 4",http://www.esmadrid.com/restaurantes/taberna-de-la-dolores
68625,Hevia,40.436207000000,-3.686452000000,(+34) 91 562 30 75,hevia@heviamadrid.com,"Serrano, 118",http://www.esmadrid.com/restaurantes/hevia
68750,Restaurante Rafa,40.417919299500,-3.676471710205,(+34) 91 573 10 87,contacto@restauranterafa.es,"de Narvaez, 68",http://www.esmadrid.com/restaurantes/casa-rafa
68751,Cervecer&iacute;a Santa B&aacute;rbara,40.426920000000,-3.696230000000,(+34) 91 319 04 49,info@cerveceriasantabarbara.com,"de Santa Bárbara, 8",http://www.esmadrid.com/restaurantes/cerveceria-santa-barbara
68753,Taberna Rayuela,40.413094000000,-3.713341000000,(+34) 91 365 82 76,rayuela@tabernarayuela.com,"Morería, 8",http://www.esmadrid.com/restaurantes/taberna-rayuela
68756,Taberna El Almendro,40.412636000000,-3.710099000000,(+34) 91 365 42 52,,"Almendro, 13",http://www.esmadrid.com/restaurantes/taberna-el-almendro
68759,Taberna del Puerto,40.434443500000,-3.677192200000,(+34) 91 309 28 86 ,tabernapuertodeleon@grupo-oter.com,"Diego de León, 58 ",http://www.esmadrid.com/restaurantes/taberna-del-puerto
68752,De Partida,40.435024000000,-3.684970000000,(+34) 91 562 19 08 ,,"Diego de León, 10",http://www.esmadrid.com/restaurantes/de-partida
68757,El Espejo,40.423730700000,-3.691636100000,(+34) 91 308 23 47,clientes@elespejonouveau.com,"Recoletos, 31",http://www.esmadrid.com/restaurantes/el-espejo
68651,El Doble ,40.441490700000,-3.698986300000,(+34) 91 441 47 18,eldoblecerveceria@gmail.com,"de Ponzano, 58",http://www.esmadrid.com/restaurantes/el-doble
68649,Casa Revuelta,40.413990000000,-3.707938000000,(+34) 91 366 33 32,,"Latoneros, 3",http://www.esmadrid.com/restaurantes/casa-revuelta
68648,Casa Lucas,40.412369300000,-3.709430100000,(+34) 91 365 08 04,,"Cava Baja, 30",http://www.esmadrid.com/restaurantes/casa-lucas
68641,La M&aacute;quina de Chamber&iacute;,40.440014000000,-3.699250000000,(+34) 91 399 21 50,lmchamberi@grupolamaquina.es,"Ponzano, 39-41",http://www.esmadrid.com/restaurantes/la-maquina-de-chamberi
68558,Rubaiyat  Madrid,40.461129200000,-3.686881100000,(+34) 91 359 10 00 ,gerencia@rubaiyat.es,"de Juan Ramón Jiménez, 37",http://www.esmadrid.com/restaurantes/rubaiyat-madrid
68569,Casa Juli&aacute;n de Tolosa Cava Baja,40.412813400000,-3.708788500000,(+34) 91 365 82 10,reservas.cavabaja@juliandetolosa.com,"Cava Baja, 18",http://www.esmadrid.com/restaurantes/julian-de-tolosa
68570,Kabuki,40.453247000000,-3.697245000000,(+34) 91 417 64 15,info@restaurantekabuki.com,"Presidente Carmona, 2",http://www.esmadrid.com/restaurantes/kabuki
68573,El Land&oacute;,40.411957000000,-3.715150000000,(+34) 91 366 76 81 ,ellandomadrid@hotmail.com,"Gabriel Miro, 8",http://www.esmadrid.com/restaurantes/el-lando
68574,Casa Carola ,40.431280000000,-3.677557000000,(+34) 91 401 94 08,casacarola@casacarola.com,"de Padilla, 54",http://www.esmadrid.com/restaurantes/casa-carola
68577,Casa Hortensia,40.423958000000,-3.700570000000,(+34) 91 539 00 90 ,restaurante@casahortensia.com,"Farmacia, 2, 2º",http://www.esmadrid.com/restaurantes/casa-hortensia
68578,Casa Lucio,40.411870000000,-3.710383000000,(+34) 91 365 82 17,info@casalucio.es,"de la Cava Baja, 35",http://www.esmadrid.com/restaurantes/casa-lucio
68579,Casa Mingo,40.424778000000,-3.725418000000,(+34) 91 547 79 18,sidrasmingo@yahoo.es,"de la Florida, 34",http://www.esmadrid.com/restaurantes/casa-mingo
68551,La Rotonda (The Westin Palace),40.415357800000,-3.695409800000,(+34) 91 360 76 67,rotonda.00079@westin.com,"Cortes, 7",http://www.esmadrid.com/restaurantes/la-rotonda-the-westin-palace
68565,Mes&oacute;n Txistu,40.462220000000,-3.694297000000,(+34) 91 570 10 06,txistu@mesontxistu.com,"Ángel Carbajo, 6",http://www.esmadrid.com/restaurantes/meson-txistu
68520,Las Tortillas de Gabino,40.433796200000,-3.693860800000,(+34) 91 319 75 05,,"Rafael Calvo, 20",http://www.esmadrid.com/restaurantes/las-tortillas-de-gabino
68552,Restaurante Las Cortes,40.414684000000,-3.699517000000,(+34) 91 389 60 51,lascortes@hoteles-catalonia.es,"Prado, 6",http://www.esmadrid.com/restaurantes/catalonia-las-cortes
68553,Mercado de Espronceda,40.440567000000,-3.695709000000,(+34) 91 535 39 02,elmercadodeespronceda@grupo-oter.com ,"Espronceda, 27",http://www.esmadrid.com/restaurantes/mercado-de-espronceda
68556,El Pescador,40.429790000000,-3.672848000000,(+34) 91 402 12 90 ,,"José Ortega y Gasset, 75",http://www.esmadrid.com/restaurantes/el-pescador
68568,El Jard&iacute;n de Orfila,40.427376000000,-3.693035000000,(+34) 91 702 77 70,inforeservas@hotelorfila.com,"Orfila, 6",http://www.esmadrid.com/restaurantes/el-jardin-de-orfila
68559,Bazaar,40.421303000000,-3.697375000000,(+34) 91 523 39 05,bazaar@grupandilana.com,"Libertad, 21",http://www.esmadrid.com/restaurantes/bazaar
68561,Taberna del Alabardero,40.418476000000,-3.710961000000,(+34) 91 547 25 77 /,alabarderomadrid@grupolezama.es,"Felipe V, 6",http://www.esmadrid.com/restaurantes/taberna-del-alabardero
68562,El Chafl&aacute;n,40.466874300000,-3.674267500000,(+34) 91 350 61 93,restaurante@elchaflan.com,"Pío XII, 34",http://www.esmadrid.com/restaurantes/el-chaflan
68586,Artys Madrid,40.421100000000,-3.689918000000,(+34) 91 138 61 00,info@artysmadrid.com,"Villalar, 7",http://www.esmadrid.com/restaurantes/artys-madrid
68589,Pi&ugrave; di Prima,40.427181400000,-3.719591900000,(+34) 917 65 01 83,comercial@restaurantepiudiprima.com ,"Pintor Rosales, 30",http://www.esmadrid.com/restaurantes/piu-di-prima
68527,La Esquina del Real,40.417230300000,-3.710335900000,(+34) 91 559 43 09,,"Amnistía, 4",http://www.esmadrid.com/restaurantes/la-esquina-del-real
68606,Las Infantas,40.419918000000,-3.700701000000,(+34) 91 523 91 01,,"Gran Vía, 22",http://www.esmadrid.com/restaurantes/las-infantas
68607,Hyragana (Vincci Soho),40.414978000000,-3.698424000000,(+34) 91 141 41 00,soho@vinccihoteles.com,"Prado, 18",http://www.esmadrid.com/restaurantes/hyragana-vincci-soho
68608,Casa Benigna,40.448010000000,-3.674644000000,(+34) 91 413 33 56,,"Benigno Soto, 9",http://www.esmadrid.com/restaurantes/casa-benigna
68609,East 47,40.415527000000,-3.696989000000,(+34) 91 420 37 67,villareal@derbyhotels.com," Cortes, 10",http://www.esmadrid.com/restaurantes/east-47
68610,Ecocentro,40.442838900000,-3.704763300000,(+34) 91 553 55 02,eco@ecocentro.es,"Esquilache, 2 -12",http://www.esmadrid.com/restaurantes/ecocentro
68612,La Finca de Susana,40.416022700000,-3.700393300000,(+34) 91 369 35 57,finca@grupandilana.com,"Príncipe, 10",http://www.esmadrid.com/restaurantes/la-finca-de-susana
68614,Goizeko Wellington,40.422314000000,-3.684168000000,(+34) 91 577 01 38 ,wellington@goizekogaztelupe.com,"Villanueva, 34",http://www.esmadrid.com/restaurantes/goizeko-wellington
68576,Casa d'a Troya,40.449936000000,-3.660503000000,(+34) 91 416 44 55,info@casadatroya.es,"Emiliano Barral, 14",http://www.esmadrid.com/restaurantes/casa-da-troya
68604,La Tasquita de Enfrente,40.421272000000,-3.703633000000,(+34) 91 532 54 49,latasquitadeenfrente@gmail.com,"Ballesta, 6",http://www.esmadrid.com/restaurantes/la-tasquita-de-enfrente
68602,Paco Roncero Restaurante,40.417813112238,-3.700257539749,(+34) 91 532 12 75,reservas@pacoroncerorestaurante.com,"de Alcalá, 15",http://www.esmadrid.com/restaurantes/paco-roncero-restaurante
68591,La Ancha (Zorrilla),40.416693900000,-3.697652800000,(+34) 91 429 81 86,,"Zorrilla, 7",http://www.esmadrid.com/restaurantes/la-ancha-zorrilla
68592,Al-Mounia,40.422151700000,-3.690545000000,(+34) 91 435 08 28,info@almounia.es,"de Recoletos, 5     ",http://www.esmadrid.com/restaurantes/al-mounia
68594,Restaurante Caf&eacute; de Oriente Museo del Traje,40.439123700000,-3.729867100000,(+34) 91 550 20 55,museodeltraje@grupolezama.es,"Juan de Herrera, 2",http://www.esmadrid.com/restaurantes/restaurante-cafe-de-oriente-museo-del-traje
68595,La Bola,40.419918000000,-3.710508000000,(+34) 91 547 69 30 ,labola@labola.es,"de la Bola, 5",http://www.esmadrid.com/restaurantes/bola
68596,Bot&iacute;n,40.414016400000,-3.707998300000,(+34) 91 366 42 17 ,aegonzalez@botin.es,"de Cuchilleros, 17",http://www.esmadrid.com/restaurantes/botin
68598,Viuda de Vacas,40.410092300000,-3.712049500000,(+34) 91 366 58 47,,"del Aguila, 2",http://www.esmadrid.com/restaurantes/viuda-vacas
68599,Caf&eacute; Saig&oacute;n,40.434449795090,-3.683169186115,(+34) 91 563 15 66,,"de Velázquez, 102",http://www.esmadrid.com/restaurantes/cafe-saigon
68600,Viridiana,40.417245300000,-3.689588200000,(+34) 91 531 10 39,viridiana@restauranteviridiana.com,"Juan de Mena, 14",http://www.esmadrid.com/restaurantes/viridiana
68476,La Biblioteca Restaurant (Hotel Santo Mauro),40.430897000000,-3.693530000000,(+34) 91 319 69 00,,"Zurbano, 36",http://www.esmadrid.com/restaurantes/santo-mauro-hotel-santo-mauro
68550,Prada a Tope,40.415950000000,-3.700374000000,(+34) 91 429 59 21,madridprincipe@pradaatope.es,"Príncipe, 11",http://www.esmadrid.com/restaurantes/prada-a-tope
68526,Laredo,40.420210500000,-3.675164500000,(+34) 91 573 30 61,laredo@tabernalaredo.com,"del Doctor Castelo, 30",http://www.esmadrid.com/restaurantes/laredo
68508,Kabuki Wellington,40.421978794548,-3.684228658676,(+34) 91 577 78 77 ,,"de Velázquez, 6",http://www.esmadrid.com/restaurantes/kabuki-wellington
68507,DiverXO,40.458152202607,-3.685977458954,(+34) 91 570 07 66,info@diverxo.com,"de Padre Damián, 23",http://www.esmadrid.com/restaurantes/diverxo
68506,Edelweiss,40.416885000000,-3.696724000000,(+34) 91 532 33 83 /,edelweiss@arturocantoblanco.com,"Jovellanos, 7",http://www.esmadrid.com/restaurantes/edelweiss
68504,Casa Labra,40.417202000000,-3.704592000000,(+34) 91 531 00 81,,"de Tetuán, 12",http://www.esmadrid.com/restaurantes/casa-labra
68502,Casa Alberto,40.413876000000,-3.700066000000,(+34) 91 429 93 56 ,info@casaalberto.es,"de las Huertas, 18",http://www.esmadrid.com/restaurantes/casa-alberto
68532,El Rinc&oacute;n de Esteban,40.415853722960,-3.697587400675,(+34) 91 429 92 89 ,info@elrincondeesteban.com,"de Santa Catalina, 3",http://www.esmadrid.com/restaurantes/el-rincon-de-esteban
68493,Caf&eacute; de Oriente,40.417896000000,-3.711502000000,(+34) 91 541 39 74,cafeoriente@grupolezama.es,"de Oriente, 2",http://www.esmadrid.com/restaurantes/cafe-de-oriente
68492,Parad&iacute;s Madrid,40.416435000000,-3.695759000000,(+34) 91 429 73 03,paradis_madrid@paradis.es,"Marqués de Cubas, 14",http://www.esmadrid.com/restaurantes/paradis-madrid
68489,Horcher,40.418655000000,-3.688911000000,(+34) 91 522 07 31,horcher@restaurantehorcher.com,"Alfonso XII, 6",http://www.esmadrid.com/restaurantes/horcher
68510,&Aacute;lbora,40.423836600000,-3.683288400000,(+34) 91 781 61 97,reservas@restaurantealbora.com,"de Jorge Juan, 33",http://www.esmadrid.com/restaurantes/albora
68512,O'Pazo,40.450950000000,-3.697273000000,(+34) 91 553 23 33 ,opazo@opazo.es,"Reina Mercedes, 20",http://www.esmadrid.com/restaurantes/opazo
68525,Dantxari,40.425551400000,-3.714020700000,(+34) 91 542 35 24,restaurante@dantxari.com,"Ventura Rodríguez, 8",http://www.esmadrid.com/restaurantes/dantxari
68523,La Hoja,40.420031400000,-3.673542100000,(+34) 91 409 25 22,info@lahoja.es,"Doctor Castelo, 48",http://www.esmadrid.com/restaurantes/la-hoja
68521,Arce,40.422005000000,-3.696769000000,(+34) 91 522 04 40 ,,"Augusto Figueroa, 32",http://www.esmadrid.com/restaurantes/arce
68528,La Trainera,40.427183200000,-3.685069800000,(+34) 91 576 80 35 ,resta@latrainera.es,"Lagasca, 60",http://www.esmadrid.com/restaurantes/la-trainera
68517,Gaztelupe,40.450044900000,-3.698157300000,(+34) 91 534 91 16  ,taberna@goizekogaztelupe.com,"Aviador Zorita, 32",http://www.esmadrid.com/restaurantes/gaztelupe
68516,Taberna Antonio S&aacute;nchez,40.411101000000,-3.704843500000,(+34) 91 539 78 26,taberna.antonio.sanchez@gmail.com,"del Mesón de Paredes, 13",http://www.esmadrid.com/restaurantes/taberna-antonio-sanchez
68515,La &Oacute;pera de Madrid,40.417206000000,-3.710664000000,(+34) 91 559 50 92,cparrando@telefonica.net,"Amnistía, 5",http://www.esmadrid.com/restaurantes/la-opera-de-madrid
68514,Posada de la Villa,40.413087609387,-3.708454370499,(+34) 91 366 18 60 ,reservas@posadadelavilla.com,"de la Cava Baja, 9",http://www.esmadrid.com/restaurantes/posada-villa
68529,El Club Allard,40.423171275719,-3.714231848717,(+34) 91 559 09 39,reservas@elcluballard.com,"de Ferraz, 2",http://www.esmadrid.com/restaurantes/el-club-allard
68488,El Paraguas,40.423076100000,-3.686124500000,(+34) 91 431 58 40  ,restauranteelparaguas@gmail.com,"Jorge Juan, 16",http://www.esmadrid.com/restaurantes/el-paraguas
68533,Oliveros,40.411484000000,-3.707598000000,(+34) 91 354 62 52,restauranteoliveros@hotmail.com,"San Millán, 4",http://www.esmadrid.com/restaurantes/oliveros
68467,Asia Gallery (The Westin Palace),40.415357800000,-3.695409800000,(+34) 91 360 00 49,,"de las Cortes, 7",http://www.esmadrid.com/restaurantes/asia-gallery-the-westin-palace
68466,Asador Donostiarra,40.461636000000,-3.695454000000,(+34) 91 579 08 71 ,reservas@asadordonostiarra.com,"Infanta Mercedes, 79",http://www.esmadrid.com/restaurantes/asador-donostiarra
68464,Alfredo's Barbacoa (Juan Hurtado de Mendoza),40.460563400000,-3.687193100000,(+34) 91 345 16 39 ,alfredosbbq@gmail.com,"Juan Hurtado de Mendoza, 11",http://www.esmadrid.com/restaurantes/alfredos-barbacoa-juan-hurtado-de-mendoza
68463,Lhardy,40.416575300000,-3.701389700000,(+34) 91 521 33 85,lhardy@lhardy.com,"de San Jerónimo, 8",http://www.esmadrid.com/restaurantes/lhardy
68540,Manolo,40.432607900000,-3.718015600000,(+34) 91 544 12 22 ,1934@manolorestaurante.com,"Princesa, 83",http://www.esmadrid.com/restaurantes/manolo
68543,La Manduca de Azagra,40.428432000000,-3.699598000000,(+34) 91 591 01 12,manduca@lamanducadeazagra.com,"Sagasta, 14",http://www.esmadrid.com/restaurantes/la-manduca-de-azagra
68544,La Paloma,40.423695000000,-3.682158000000,(+34) 91 576 86 92,info@lapalomarestaurante.es,"Jorge Juan, 39",http://www.esmadrid.com/restaurantes/la-paloma
68545,Sanxenxo,40.430080000000,-3.678759000000,(+34) 91 577 82 72,reservas@sanxenxo.com.es,"José Ortega y Gasset, 40",http://www.esmadrid.com/restaurantes/sanxenxo
68546,El Gran Barril,40.424618000000,-3.672908000000,(+34) 91 431 22 10,,"Goya, 107",http://www.esmadrid.com/restaurantes/el-gran-barril
68468,Zara,40.420889400000,-3.698169000000,(+34) 91 532 20 74,zara@restaurantezara.com,"Barbieri, 8",http://www.esmadrid.com/restaurantes/zara
68538,Real Caf&eacute; Bernab&eacute;u,40.452003000000,-3.688786000000,(+34) 91 458 36 67,serviciosalcliente@realcafebernabeu.es,"Concha Espina, 1",http://www.esmadrid.com/restaurantes/real-cafe-bernabeu
68482,La Mas&iacute;a de Jos&eacute; Luis,40.415269000000,-3.731146400000,(+34) 91 479 86 15,masia@joseluis.es,"Paseo Puerta del Ángel, s/n,",http://www.esmadrid.com/restaurantes/la-masia-de-jose-luis
68534,Caf&eacute; Varela Restaurante (Hotel Preciados),40.419682300000,-3.707450800000,(+34) 91 454 44 06,reservas@cafevarela.com,"de Preciados, 37",http://www.esmadrid.com/restaurantes/cafe-varela-restaurante-hotel-preciados
68480,Puerta 57,40.452362000000,-3.686245000000,(+34) 91 457 33 61,puerta57@grupolamaquina.es,"del Padre Damián (Estadio Santiago Bernabéu, Puerta 57), s/n",http://www.esmadrid.com/restaurantes/puerta-57
68478,Samarkanda,40.408052500000,-3.692482500000,(+34) 91 530 97 46 /,samarkanda@restaurantesamarkanda.com,"Carlos V (Estación Madrid Puerta de Atocha), s/n",http://www.esmadrid.com/restaurantes/samarkanda
68536,Antigua Embajada (Hotel Palacio San Mart&iacute;n),40.418503000000,-3.706948000000,(+34) 91 701 50 00,,"San Martín, 5",http://www.esmadrid.com/restaurantes/antigua-embajada-hotel-palacio-san-martin
68475,La Barraca,40.419900000000,-3.698734000000,(+34) 91 532 71 54,reservas@labarraca.es,"Reina, 29",http://www.esmadrid.com/restaurantes/la-barraca
68474,Asador de Aranda,40.419917100000,-3.707478900000,(+34) 91 547 21 56 ,madrid@asadordearanda.com,"de Preciados, 44",http://www.esmadrid.com/restaurantes/asador-de-aranda
68472,Zerain,40.414150000000,-3.697643400000,(+34) 91 429 79 09,,"Quevedo, 3",http://www.esmadrid.com/restaurantes/zerain
68471,Zalaca&iacute;n,40.438657400000,-3.688893400000,(+34) 91 140 14 14,reservas@zalacain.es,"Álvarez de Baena, 4",http://www.esmadrid.com/restaurantes/zalacain
68547,Ox's,40.457985100000,-3.687191300000,(+34) 91 458 19 03 ,,"Juan Ramón Jiménez, 11",http://www.esmadrid.com/restaurantes/oxs
